LGA;Ward;Settlement;Facility;Type;Ownership;Address;Longitude;Latitude
Ahafo-Ano North;Anyinasuso;;Kyekyewere (Ahafo Ano North) CHPS Zone;;;;;
Ahafo-Ano North;Anyinasuso;;Ama Tettehkrom CHPS Compound;;;;;
Ahafo-Ano North;Anyinasuso;;Anyinasuso CHPS Zone;;;;;
Ahafo-Ano North;Anyinasuso;;Anyinasuso Health Centre;;;;;
Ahafo-Ano North;Anyinasuso;;Boagyaa No. 2 CHPS Zone;;;;;
Ahafo-Ano North;Anyinasuso;;Bonkrom CHPS Zone;;;;;
Ahafo-Ano North;Anyinasuso;;Jacobu CHPS Zone;;;;;
Ahafo-Ano North;Betiako;;Abonsuaso CHPS Zone;;;;;
Ahafo-Ano North;Betiako;;Betiako CHPS Zone;;;;;
Ahafo-Ano North;Betiako;;Betiako Health Centre;;;;;
Ahafo-Ano North;Betiako;;Gyamenakrom CHPS Zone;;;;;
Ahafo-Ano North;Betiako;;Katapei CHPS Zone;;;;;
Ahafo-Ano North;Betiako;;Mmofranfadwen CHPS Zone;;;;;
Ahafo-Ano North;Betiako;;Suponso CHPS Zone;;;;;
Ahafo-Ano North;Betiako;;Tafo CHPS (Betiako) Zone;;;;;
Ahafo-Ano North;Manfo;;Achina CHPS Zone;;;;;
Ahafo-Ano North;Manfo;;AKROFONSO CHPS Zone;;;;;
Ahafo-Ano North;Manfo;;ANKAASE CHPS Zone;;;;;
Ahafo-Ano North;Manfo;;Asuhyiae CHPS Compound;;;;;
Ahafo-Ano North;Manfo;;ASUHYIAE CHPS Zone;;;;;
Ahafo-Ano North;Manfo;;BOSIKESE CHPS Zone;;;;;
Ahafo-Ano North;Manfo;;DOTOAM CHPS Zone;;;;;
Ahafo-Ano North;Manfo;;DWAAHO CHPS Zone;;;;;
Ahafo-Ano North;Manfo;;Krakosua CHPS Compound;;;;;
Ahafo-Ano North;Manfo;;MANFO CHPS Zone;;;;;
Ahafo-Ano North;Manfo;;Manfo Health Centre;;;;;
Ahafo-Ano North;Manfo;;NFANIBU CHPS Zone;;;;;
Ahafo-Ano North;Manfo;;TWABIDI CHPS Zone;;;;;
Ahafo-Ano North;Manfo;;Twabidi Health Centre;;;;;
Ahafo-Ano North;Subriso;;Keniago (Ahafo Ano North) CHPS Zone;;;;;
Ahafo-Ano North;Subriso;;NFANTI CHPS Zone;;;;;
Ahafo-Ano North;Subriso;;NUMASUA CHPS Zone;;;;;
Ahafo-Ano North;Subriso;;ODUMASE CHPS Zone;;;;;
Ahafo-Ano North;Subriso;;SUBRISO CHPS Zone;;;;;
Ahafo-Ano North;Subriso;;Subriso Health Centre;;;;;
Ahafo-Ano North;Tepa;;Akwasiase CHPS Compound;;;;;
Ahafo-Ano North;Tepa;;AKWASIASE ZONGO CHPS Zone;;;;;
Ahafo-Ano North;Tepa;;Anane Aya Maternity;;;;;
Ahafo-Ano North;Tepa;;BEPOSO CHPS Zone;;;;;
Ahafo-Ano North;Tepa;;BOAGYAA NO. 1 CHPS Zone;;;;;
Ahafo-Ano North;Tepa;;KATABO (WARD 1) CHPS Zone;;;;;
Ahafo-Ano North;Tepa;;KRUBOA CHPS Zone;;;;;
Ahafo-Ano North;Tepa;;Mabang Clinic;;;;;
Ahafo-Ano North;Tepa;;MARBANG CHPS Zone;;;;;
Ahafo-Ano North;Tepa;;ODUMASE (WARD 2) CHPS Zone;;;;;
Ahafo-Ano North;Tepa;;Tepa Government Hospital;;;;;
Ahafo-Ano North;Tepa;;TEPA ZONGO CHPS Zone;;;;;
Ahafo-Ano North;Tepa;;WARD 4 CHPS Zone;;;;;
Ahafo-Ano North;Tepa;;WAWASE (WARD 3) CHPS Zone;;;;;
Ahafo-Ano South;Biemso;;Adom (Ahafo Ano South) Maternity;;;;;
Ahafo-Ano South;Biemso;;Amakom CHPS Zone;;;;;
Ahafo-Ano South;Biemso;;Asempanaye CHPS Zone;;;;;
Ahafo-Ano South;Biemso;;Biemso No. 2 CHPS Compound;;;;;
Ahafo-Ano South;Biemso;;Biemso RCH;;;;;
Ahafo-Ano South;Biemso;;Dwinyama CHPS Zone;;;;;
Ahafo-Ano South;Biemso;;Nana Afua Kobi Hospital;;;;;
Ahafo-Ano South;Biemso;;St. Edwards Clinic;;;;;
Ahafo-Ano South;Mankranso;;Afresini CHPS Zone;;;;;
Ahafo-Ano South;Mankranso;;Agyebi CHPS Zone;;;;;
Ahafo-Ano South;Mankranso;;Bonkwaso CHPS Zone;;;;;
Ahafo-Ano South;Mankranso;;Kunsu Camp CHPS Zone;;;;;
Ahafo-Ano South;Mankranso;;Kunsu Dotiem CHPS Zone;;;;;
Ahafo-Ano South;Mankranso;;Mankranso CHPS Zone;;;;;
Ahafo-Ano South;Mankranso;;Mankranso Government Hospital;;;;;
Ahafo-Ano South;Mankranso;;Maranatha (ahafo Ano South) Clinic;;;;;
Ahafo-Ano South;Mankranso;;Nkyensedanho CHPS Zone;;;;;
Ahafo-Ano South;Mankranso;;Nyameadom CHPS Zone;;;;;
Ahafo-Ano South;Mankranso;;St. Anns Clinic;;;;;
Ahafo-Ano South;Mpasaso;;Achiase CHPS Zone;;;;;
Ahafo-Ano South;Mpasaso;;Adeambra CHPS Zone;;;;;
Ahafo-Ano South;Mpasaso;;Bonsukrom CHPS Zone;;;;;
Ahafo-Ano South;Mpasaso;;Mpasaso CHPS Zone;;;;;
Ahafo-Ano South;Mpasaso;;Mpasaso Health Centre;;;;;
Ahafo-Ano South;Mpasaso;;Mpasaso-Dotiem CHPS Zone;;;;;
Ahafo-Ano South;Pokukrom;;Abesewa CHPS Zone;;;;;
Ahafo-Ano South;Pokukrom;;Ahwerewam CHPS Compound;;;;;
Ahafo-Ano South;Pokukrom;;Church of God Clinic;;;;;
Ahafo-Ano South;Pokukrom;;Domeabra CHPS Zone;;;;;
Ahafo-Ano South;Pokukrom;;Essienkyem CHPS Zone;;;;;
Ahafo-Ano South;Pokukrom;;Nsuta CHPS Zone;;;;;
Ahafo-Ano South;Pokukrom;;Pokukrom CHPS Zone;;;;;
Ahafo-Ano South;Pokukrom;;Pokukrom Health Centre;;;;;
Ahafo-Ano South;Sabronum;;Adukrom CHPS Zone;;;;;
Ahafo-Ano South;Sabronum;;Asuodei CHPS Zone;;;;;
Ahafo-Ano South;Sabronum;;Sabronum CHPS Zone;;;;;
Ahafo-Ano South;Sabronum;;Sabronum Health Centre;;;;;
Ahafo-Ano South;Wioso;;Anitemfe CHPS Zone;;;;;
Ahafo-Ano South;Wioso;;Barniekrom CHPS Zone;;;;;
Ahafo-Ano South;Wioso;;Domeabra CHPS Zone;;;;;
Ahafo-Ano South;Wioso;;Nyinanufu CHPS Zone;;;;;
Ahafo-Ano South;Wioso;;St. Johns Clinic;;;;;
Ahafo-Ano South;Wioso;;Wioso CHPS Zone;;;;;
Ahafo-Ano South;Wioso;;Wioso Health Centre;;;;;
Adansi North;Aboabo;;Aboabo Health Centre;;;;;
Adansi North;Aboabo;;Aboabo1 CHPS Zone;;;;;
Adansi North;Aboabo;;Anomabo CHPS Compound;;;;;
Adansi North;Aboabo;;Appiah Nkwanta CHPS Zone;;;;;
Adansi North;Aboabo;;Bodwesango East CHPS Zone;;;;;
Adansi North;Aboabo;;Bodwesango West CHPS Zone;;;;;
Adansi North;Aboabo;;Fumso Ketewa CHPS Compound;;;;;
Adansi North;Aboabo;;Nyankomase CHPS Zone;;;;;
Adansi North;Aboabo;;Pipiiso CHPS Zone;;;;;
Adansi North;Aboabo;;Saponso CHPS Zone;;;;;
Adansi North;Aboabo;;St. Louis Health Centre;;;;;
Adansi North;Akrokerri;;Adomanu (Adansi North) CHPS Compound;;;;;
Adansi North;Akrokerri;;Akrokerri Health Centre;;;;;
Adansi North;Akrokerri;;Akrokerrifie CHPS Zone;;;;;
Adansi North;Akrokerri;;Bobriase CHPS Zone;;;;;
Adansi North;Akrokerri;;Bronikrom CHPS Zone;;;;;
Adansi North;Akrokerri;;Kyekyewere CHPS Zone;;;;;
Adansi North;Akrokerri;;Patakro CHPS Zone;;;;;
Adansi North;Akrokerri;;Sodua CHPS Zone;;;;;
Adansi North;Akrokerri;;Wioso (Adansi North) Health Centre;;;;;
Adansi North;Anhwiaso;;Akrofuom CHPS Zone;;;;;
Adansi North;Anhwiaso;;Anhwiaso (Adansi North) Health Centre;;;;;
Adansi North;Anhwiaso;;Anhwiaso CHPS Zone;;;;;
Adansi North;Anhwiaso;;Anwona CHPS Compound;;;;;
Adansi North;Anhwiaso;;Biakwaso CHPS Zone;;;;;
Adansi North;Anhwiaso;;Konsimua CHPS Zone;;;;;
Adansi North;Anhwiaso;;Kwadwo Nkwanta CHPS Zone;;;;;
Adansi North;Asokwa;;Akwansrem CHPS Zone;;;;;
Adansi North;Asokwa;;Asokwa CHPS Zone;;;;;
Adansi North;Asokwa;;Asokwa Health Centre;;;;;
Adansi North;Asokwa;;Brofoyedru East CHPS Zone;;;;;
Adansi North;Asokwa;;Brofoyedru West CHPS Zone;;;;;
Adansi North;Asokwa;;Hwiremoase CHPS Zone;;;;;
Adansi North;Asokwa;;Nyamekrom CHPS Zone;;;;;
Adansi North;Asokwa;;Nyankomasu CHPS Zone;;;;;
Adansi North;Asokwa;;Tewobaabi CHPS Zone;;;;;
Adansi North;Fomena;;Ahinsan CHPS Zone;;;;;
Adansi North;Fomena;;Ampedwee CHPS Zone;;;;;
Adansi North;Fomena;;Anamenako CHPS Zone;;;;;
Adansi North;Fomena;;Dompoase I CHPS Zone;;;;;
Adansi North;Fomena;;Fomena CHPS Zone;;;;;
Adansi North;Fomena;;Fomena Health Centre;;;;;
Adansi North;Fomena;;Kusa CHPS Zone;;;;;
Adansi North;Fomena;;Medoma (Adansi North) CHPS Zone;;;;;
Adansi North;Fomena;;New Ayaase CHPS Zone;;;;;
Adansi North;Fomena;;Old Ayaase CHPS Zone;;;;;
Adansi North;Fomena;;St. Benito Menni Hospital;;;;;
Adansi North;Fumso;;Dasubimadwen CHPS Zone;;;;;
Adansi North;Fumso;;Fumso CHPS Zone;;;;;
Adansi North;Fumso;;Fumso Health Centre;;;;;
Adansi North;Fumso;;Odem CHPS Zone;;;;;
Adansi North;Fumso;;Tawiakrom CHPS Zone;;;;;
Adansi South;Akrofuom;;Akrofuom East CHPS Zone;;;;;
Adansi South;Akrofuom;;Akrofuom Health Centre;;;;;
Adansi South;Akrofuom;;Akrofuom West CHPS;;;;;
Adansi South;Akrofuom;;Botwekrom CHPS Zone;;;;;
Adansi South;Akrofuom;;Grumesa CHPS Compound;;;;;
Adansi South;Akrofuom;;Mensonso CHPS Compound;;;;;
Adansi South;Akrofuom;;Nana Okai CHPS Zone;;;;;
Adansi South;Akrofuom;;Nkoransa CHPS Zone;;;;;
Adansi South;Akrofuom;;Sikaman CHPS Zone;;;;;
Adansi South;Akrofuom;;Sikaman St. Anthony CHPS Compound;;;;;
Adansi South;Akutreso;;Akutreso CHPS Zone;;;;;
Adansi South;Akutreso;;Akutreso Health Centre;;;;;
Adansi South;Akutreso;;Nsata Subriso CHPS Zone;;;;;
Adansi South;Akutreso;;Somoroso CHPS Zone;;;;;
Adansi South;Akutreso;;Subriso CHPS Zone;;;;;
Adansi South;Akutreso;;Tonkoase CHPS Zone;;;;;
Adansi South;Amponyase;;Adamso CHPS Zone;;;;;
Adansi South;Amponyase;;Ampunyase CHPS Zone;;;;;
Adansi South;Amponyase;;Ampunyase Health Centre;;;;;
Adansi South;Amponyase;;Wamase CHPS Compound;;;;;
Adansi South;Amponyase;;Wamasi CHPS Zone;;;;;
Adansi South;Ataase;;Aburaso CHPS Zone;;;;;
Adansi South;Ataase;;Acheasewa CHPS Zone;;;;;
Adansi South;Ataase;;Apagya East CHPS Zone;;;;;
Adansi South;Ataase;;Apagya South CHPS Zone;;;;;
Adansi South;Ataase;;Apagya West CHPS Zone;;;;;
Adansi South;Ataase;;Ataase Health Centre;;;;;
Adansi South;Ataase;;Ataase Nkwanta CHPS Zone;;;;;
Adansi South;Ataase;;Atwereboana CHPS Compound;;;;;
Adansi South;Ataase;;Dwendama CHPS Zone;;;;;
Adansi South;Ataase;;Edwenase CHPS Zone;;;;;
Adansi South;Ataase;;Hwidiem CHPS Compound;;;;;
Adansi South;Ataase;;Kotwea CHPS Zone;;;;;
Adansi South;Ataase;;Kramokrom CHPS Zone;;;;;
Adansi South;Ataase;;Nkranfo Nkwanta CHPS Zone;;;;;
Adansi South;Ataase;;Obonsu CHPS Compound;;;;;
Adansi South;Ataase;;Praso CHPS Zone;;;;;
Adansi South;Ataase;;Subin Camp CHPS Zone;;;;;
Adansi South;Ataase;;Wuriyie West CHPS Zone;;;;;
Adansi South;Ataase;;Wuruyie East CHPS;;;;;
Adansi South;New Edubiase;;Aburaso CHPS Zone;;;;;
Adansi South;New Edubiase;;Amudurase CHPS Zone;;;;;
Adansi South;New Edubiase;;Asamanya CHPS Zone;;;;;
Adansi South;New Edubiase;;Atobiase East CHPS Zone;;;;;
Adansi South;New Edubiase;;Atobiase West CHPS Zone;;;;;
Adansi South;New Edubiase;;Fahiakobo CHPS Zone;;;;;
Adansi South;New Edubiase;;Menang CHPS Zone;;;;;
Adansi South;New Edubiase;;New Edubiase Government Hospital;;;;;
Adansi South;New Edubiase;;Old Asaman CHPS Zone;;;;;
Adansi South;New Edubiase;;Petenyinase CHPS Zone;;;;;
Afigya-Kwabre;Aboabogya;;Aboabogya CHPS Zone;;;;;
Afigya-Kwabre;Aboabogya;;Aboabogya Health Centre;;;;;
Afigya-Kwabre;Aboabogya;;Adubinsu CHPS Zone;;;;;
Afigya-Kwabre;Aboabogya;;Aduman CHPS Zone;;;;;
Afigya-Kwabre;Aboabogya;;Adwumakaase CHPS Zone;;;;;
Afigya-Kwabre;Aboabogya;;Adwumakaase Health Centre;;;;;
Afigya-Kwabre;Aboabogya;;Ebom Bomfa CHPS Zone;;;;;
Afigya-Kwabre;Aboabogya;;Wawase CHPS Zone;;;;;
Afigya-Kwabre;Afrancho;;Abuohia Tophill Hospital;;;;;
Afigya-Kwabre;Afrancho;;Afrancho CHPS Zone;;;;;
Afigya-Kwabre;Afrancho;;Afrancho Health Centre;;;;;
Afigya-Kwabre;Afrancho;;Akrowa CHPS Zone;;;;;
Afigya-Kwabre;Afrancho;;Apagya CHPS Zone;;;;;
Afigya-Kwabre;Afrancho;;Apagya Methodist Clinic;;;;;
Afigya-Kwabre;Afrancho;;Bomso CHPS Zone;;;;;
Afigya-Kwabre;Afrancho;;Bronkong CHPS Zone;;;;;
Afigya-Kwabre;Afrancho;;Buoho Wioso CHPS Zone;;;;;
Afigya-Kwabre;Afrancho;;Family Care Hospital;;;;;
Afigya-Kwabre;Afrancho;;Gladys Maternity Home;;;;;
Afigya-Kwabre;Afrancho;;Jeloa Maternity Home;;;;;
Afigya-Kwabre;Afrancho;;Kodie CHPS Zone;;;;;
Afigya-Kwabre;Afrancho;;Krobo CHPS Zone;;;;;
Afigya-Kwabre;Afrancho;;Kyekyere CHPS Zone;;;;;
Afigya-Kwabre;Afrancho;;Nkukua Buoho CHPS Zone;;;;;
Afigya-Kwabre;Afrancho;;Ntiri- Buoho CHPS Zone;;;;;
Afigya-Kwabre;Afrancho;;Owusua Mem (afigya Kwabre) Maternity Home;;;;;
Afigya-Kwabre;Afrancho;;PAKS Hospital;;;;;
Afigya-Kwabre;Ankaase;;Ankaase CHPS Zone;;;;;
Afigya-Kwabre;Ankaase;;Ankaase Zongo CHPS Zone;;;;;
Afigya-Kwabre;Ankaase;;Ejuratia CHPS Zone;;;;;
Afigya-Kwabre;Ankaase;;Hemang CHPS Zone;;;;;
Afigya-Kwabre;Ankaase;;Methodist Faith Healing Hospital;;;;;
Afigya-Kwabre;Ankaase;;Mpobi CHPS Zone;;;;;
Afigya-Kwabre;Ankaase;;Mpobi Health Centre;;;;;
Afigya-Kwabre;Boamang-Kwamang-Ahenkro;;Abroma CHPS Zone;;;;;
Afigya-Kwabre;Boamang-Kwamang-Ahenkro;;Adukro CHPS Zone;;;;;
Afigya-Kwabre;Boamang-Kwamang-Ahenkro;;Ahenkro CHPS Zone;;;;;
Afigya-Kwabre;Boamang-Kwamang-Ahenkro;;Ahenkro Health Centre;;;;;
Afigya-Kwabre;Boamang-Kwamang-Ahenkro;;Akom CHPS Zone;;;;;
Afigya-Kwabre;Boamang-Kwamang-Ahenkro;;Amoako CHPS Zone;;;;;
Afigya-Kwabre;Boamang-Kwamang-Ahenkro;;Boamang CHPS Zone;;;;;
Afigya-Kwabre;Boamang-Kwamang-Ahenkro;;Boamang Health Centre;;;;;
Afigya-Kwabre;Boamang-Kwamang-Ahenkro;;Denase CHPS Zone;;;;;
Afigya-Kwabre;Boamang-Kwamang-Ahenkro;;Duaponkor CHPS Zone;;;;;
Afigya-Kwabre;Boamang-Kwamang-Ahenkro;;Kwamang (afigya Kwabre) Health Centre;;;;;
Afigya-Kwabre;Boamang-Kwamang-Ahenkro;;Kwamang CHPS Zone;;;;;
Afigya-Kwabre;Boamang-Kwamang-Ahenkro;;Maase (Boamang) CHPS Zone;;;;;
Afigya-Kwabre;Boamang-Kwamang-Ahenkro;;Nkwanta - Kese CHPS Compound;;;;;
Afigya-Kwabre;Boamang-Kwamang-Ahenkro;;Penteng CHPS Zone;;;;;
Afigya-Kwabre;Brofoyedru;;Atimatim East CHPS Zone;;;;;
Afigya-Kwabre;Brofoyedru;;Atimatim West CHPS Zone;;;;;
Afigya-Kwabre;Brofoyedru;;Brofoyedru (Afigya Kwabre) CHPS Zone;;;;;
Afigya-Kwabre;Brofoyedru;;Brofoyedru Health Centre;;;;;
Afigya-Kwabre;Brofoyedru;;Maase (Brofoyedru) CHPS Zone;;;;;
Afigya-Kwabre;Brofoyedru;;Old Atimatim CHPS Zone;;;;;
Afigya-Kwabre;Brofoyedru;;St Theresas (afigya Kwabre) Maternity;;;;;
Afigya-Kwabre;Kyekyewere;;Abijan CHPS Zone;;;;;
Afigya-Kwabre;Kyekyewere;;Amponsakrom (Kyekyewere) CHPS Zone;;;;;
Afigya-Kwabre;Kyekyewere;;Banko CHPS Zone;;;;;
Afigya-Kwabre;Kyekyewere;;Kyekyewere (afigya Kwabre) Health Centre;;;;;
Afigya-Kwabre;Kyekyewere;;Neduasa CHPS Zone;;;;;
Afigya-Kwabre;Kyekyewere;;Tetrem Health Centre;;;;;
Asokore-Mampong;Aboabo;;Aboabo No. 1 CHPS Zone;;;;;
Asokore-Mampong;Aboabo;;Aboabo No. 2 CHPS Zone;;;;;
Asokore-Mampong;Aboabo;;Anwiam CHPS Zone;;;;;
Asokore-Mampong;Aboabo;;Anwiam Hospital Annex;;;;;
Asokore-Mampong;Aboabo;;Boakye Dankwa Hospital;;;;;
Asokore-Mampong;Aboabo;;Bolabola CHPS Zone;;;;;
Asokore-Mampong;Aboabo;;Dagomba Line CHPS Zone;;;;;
Asokore-Mampong;Aboabo;;My Paradise Maternity Home;;;;;
Asokore-Mampong;Aboabo;;Porters Camp CHPS Zone;;;;;
Asokore-Mampong;Aboabo;;Post Office (Aboabo) CHPS Zone;;;;;
Asokore-Mampong;Aboabo;;Prince of Peace Clinic;;;;;
Asokore-Mampong;Aboabo;;Railways (Asokore Mampong) CHPS Zone;;;;;
Asokore-Mampong;Aboabo;;St. Helena Maternity Home;;;;;
Asokore-Mampong;Adukrom;;Akorem CHPS Zone;;;;;
Asokore-Mampong;Adukrom;;Chief Palace CHPS Zone;;;;;
Asokore-Mampong;Adukrom;;Dr. Osei Maternity;;;;;
Asokore-Mampong;Adukrom;;Mempeasem (Adukrom) CHPS Zone;;;;;
Asokore-Mampong;Adukrom;;Nima Moke CHPS Zone;;;;;
Asokore-Mampong;Adukrom;;Owusuaa Maternity Home;;;;;
Asokore-Mampong;Adukrom;;Yam Market CHPS Zone;;;;;
Asokore-Mampong;Airport;;Airport CHPS Zone;;;;;
Asokore-Mampong;Asawase;; A-Line CHPS;;;;;
Asokore-Mampong;Asawase;; Akwatia Line CHPS;;;;;
Asokore-Mampong;Asawase;;Asawase CHPS;;;;;
Asokore-Mampong;Asawase;;Boatemaa CHPS;;;;;
Asokore-Mampong;Asawase;;D-Line CHPS;;;;;
Asokore-Mampong;Asawase;;G-Line CHPS;;;;;
Asokore-Mampong;Asawase;;New Zongo CHPS;;;;;
Asokore-Mampong;Asawase;;Odotobri CHPS;;;;;
Asokore-Mampong;Asawase;;Providence CHPS;;;;;
Asokore-Mampong;Asawase;;Royal CHPS;;;;;
Asokore-Mampong;Asawase;;VAG Clinic;;;;;
Asokore-Mampong;Asokore Mampong;;Aprade Community Hospital;;;;;
Asokore-Mampong;Asokore Mampong;;Asokore Mampong CHPS Zone;;;;;
Asokore-Mampong;Asokore Mampong;;Asokore Mampong DHD Data;;;;;
Asokore-Mampong;Asokore Mampong;;Boubai Community Clinic;;;;;
Asokore-Mampong;Asokore Mampong;;C.C.C. CHPS Zone;;;;;
Asokore-Mampong;Asokore Mampong;;Garden City Hospital;;;;;
Asokore-Mampong;Asokore Mampong;;Kumasi Academy Clinic;;;;;
Asokore-Mampong;Asokore Mampong;;Legacy Hospital;;;;;
Asokore-Mampong;Asokore Mampong;;Mesewam Presbyterian Clinic;;;;;
Asokore-Mampong;Asokore Mampong;;Open Heavens CHPS Zone;;;;;
Asokore-Mampong;Asokore Mampong;;Parkoso CHPS Zone;;;;;
Asokore-Mampong;Asokore Mampong;;Roman Catholic CHPS Zone;;;;;
Asokore-Mampong;Asokore Mampong;;Sheikh Tawfiq Memoral Clinic;;;;;
Asokore-Mampong;Asokore Mampong;;SOS (Asokore Mampong) Clinic;;;;;
Asokore-Mampong;Sawaba;;Affordable CHPS Zone;;;;;
Asokore-Mampong;Sawaba;;Amaamata Maternity;;;;;
Asokore-Mampong;Sawaba;;Health Insurance CHPS Zone;;;;;
Asokore-Mampong;Sawaba;;Sawaba CHPS Zone;;;;;
Asokore-Mampong;Sawaba;;Sesala Line CHPS Zone;;;;;
Asokore-Mampong;Sepe Timpom;;Afoagya CHPS Zone;;;;;
Asokore-Mampong;Sepe Timpom;;Asabi CHPS Zone;;;;;
Asokore-Mampong;Sepe Timpom;;Dote CHPS Zone;;;;;
Asokore-Mampong;Sepe Timpom;;Sepe-Dote Health Centre;;;;;
Asokore-Mampong;Sepe Timpom;;Timpom CHPS Zone;;;;;
Amansie Central;Fena Hia;;Fenaso CHPS Compound;;;;;
Amansie Central;Fena Hia;;Fenaso/Fawoman CHPS Zone;;;;;
Amansie Central;Fena Hia;;Hia CHPS Zone;;;;;
Amansie Central;Fena Hia;;Hiayeya CHPS Zone;;;;;
Amansie Central;Fena Hia;;Huu CHPS Zone;;;;;
Amansie Central;Fena Hia;;MILE 14 CHPS ZONE;;;;;
Amansie Central;Fena Hia;;Mile 14 Health Centre;;;;;
Amansie Central;Fena Hia;;Mile 9 CHPS Zone;;;;;
Amansie Central;Fena Hia;;Odumto CHPS Zone;;;;;
Amansie Central;Fena Hia;;St. Thomas Health Centre;;;;;
Amansie Central;Fiankoma;;Aboagyekrom CHPS Zone;;;;;
Amansie Central;Fiankoma;;Abuakwaa CHPS Zone;;;;;
Amansie Central;Fiankoma;;Abuakwaa Health Centre;;;;;
Amansie Central;Fiankoma;;Abuntunsu CHPS Zone;;;;;
Amansie Central;Fiankoma;;Adowa CHPS Zone;;;;;
Amansie Central;Fiankoma;;Fiankoma CHPS Zone;;;;;
Amansie Central;Fiankoma;;Fiankoma Clinic;;;;;
Amansie Central;Fiankoma;;Kofihwikrom CHPS Compound;;;;;
Amansie Central;Jacobu;;Afoako CHPS Zone;;;;;
Amansie Central;Jacobu;;Aketechieso CHPS Zone;;;;;
Amansie Central;Jacobu;;Aketechieso Clinic;;;;;
Amansie Central;Jacobu;;Akrofrom CHPS Zone;;;;;
Amansie Central;Jacobu;;Asikasu CHPS Zone;;;;;
Amansie Central;Jacobu;;Atobiase (Amansie Central) Health Centre;;;;;
Amansie Central;Jacobu;;Biribiwomanmu CHPS Zone;;;;;
Amansie Central;Jacobu;;Donkoase CHPS Zone;;;;;
Amansie Central;Jacobu;;Krofrom CHPS Zone;;;;;
Amansie Central;Jacobu;;Marben (amansie Central) Maternity Home;;;;;
Amansie Central;Jacobu;;Odumase/Monsie CHPS Zone;;;;;
Amansie Central;Jacobu;;St. Peter's Catholic Hospital;;;;;
Amansie Central;Jacobu;;TUNSUOM CHPS ZONE;;;;;
Amansie Central;Numereso;;Bepotenten CHPS Compound;;;;;
Amansie Central;Numereso;;Fahiakobo CHPS Zone;;;;;
Amansie Central;Numereso;;Numereso CHPS Zone;;;;;
Amansie Central;Numereso;;Numereso Health Centre;;;;;
Amansie Central;Numereso;;Oseikrom CHPS Zone;;;;;
Amansie Central;Tweapease;;Apitisu CHPS Zone;;;;;
Amansie Central;Tweapease;;Apitisu Health Centre;;;;;
Amansie Central;Tweapease;;Suhyenso CHPS Zone;;;;;
Amansie Central;Tweapease;;Tweapease (amansie Central) Health Centre;;;;;
Amansie Central;Tweapease;;Tweapease CHPS Zone;;;;;
Amansie West;Agroyesum;;Abodom CHPS Zone;;;;;
Amansie West;Agroyesum;;Achiase CHPS Zone;;;;;
Amansie West;Agroyesum;;Agroyesum CHPS Zone;;;;;
Amansie West;Agroyesum;;Akropong CHPS Zone;;;;;
Amansie West;Agroyesum;;Ankam CHPS Zone;;;;;
Amansie West;Agroyesum;;Ankam Clinic;;;;;
Amansie West;Agroyesum;;Kensere CHPS Zone;;;;;
Amansie West;Agroyesum;;Manso Asamang CHPS Zone;;;;;
Amansie West;Agroyesum;;Mim CHPS Zone;;;;;
Amansie West;Agroyesum;;Nweneso CHPS Zone;;;;;
Amansie West;Agroyesum;;Odaho CHPS Compound;;;;;
Amansie West;Agroyesum;;St. Martin's Catholic Hospital;;;;;
Amansie West;Agroyesum;;Yawkrom CHPS Zone;;;;;
Amansie West;Antoakrom;;Antoakrom CHPS Zone;;;;;
Amansie West;Antoakrom;;Antoakrom Health Centre;;;;;
Amansie West;Antoakrom;;Asarekrom CHPS Zone;;;;;
Amansie West;Antoakrom;;Donosec Hospital;;;;;
Amansie West;Antoakrom;;Mpraniase CHPS Compound;;;;;
Amansie West;Antoakrom;;Nsiana CHPS Zone;;;;;
Amansie West;Antoakrom;;Omanadwareye CHPS Zone;;;;;
Amansie West;Antoakrom;;Pakyi I CHPS Zone;;;;;
Amansie West;Antoakrom;;Pakyi II CHPS Zone;;;;;
Amansie West;Antoakrom;;St. De-Graft Clinic;;;;;
Amansie West;Edubia;;Abiram CHPS Zone;;;;;
Amansie West;Edubia;;Adimposo II CHPS Compound;;;;;
Amansie West;Edubia;;Afedie CHPS Zone;;;;;
Amansie West;Edubia;;Edubia Health Centre;;;;;
Amansie West;Edubia;;Edubia/Dadease CHPS Zone;;;;;
Amansie West;Edubia;;Gyeduako CHPS Zone;;;;;
Amansie West;Edubia;;Kumpese CHPS Zone;;;;;
Amansie West;Edubia;;Kwabenaso CHPS Zone;;;;;
Amansie West;Edubia;;Manso Nkran CHPS Compound;;;;;
Amansie West;Edubia;;Takorase CHPS Zone;;;;;
Amansie West;Essuowin;;Ahwerewa (Amansie West) CHPS Zone;;;;;
Amansie West;Essuowin;;Atobiase (Amansie West) CHPS Zone;;;;;
Amansie West;Essuowin;;Esaase-Dominase CHPS Zone;;;;;
Amansie West;Essuowin;;Esaase-South CHPS Zone;;;;;
Amansie West;Essuowin;;Essuowin Health Centre;;;;;
Amansie West;Essuowin;;Gyeninso CHPS Zone;;;;;
Amansie West;Essuowin;;Hiakose CHPS Zone;;;;;
Amansie West;Essuowin;;Moseaso CHPS Zone;;;;;
Amansie West;Essuowin;;Mother of God Health Centre;;;;;
Amansie West;Essuowin;;Mpatuom East CHPS Zone;;;;;
Amansie West;Essuowin;;Mpatuom West CHPS Zone;;;;;
Amansie West;Essuowin;;Onyame Akwan Maternity Home;;;;;
Amansie West;Keniago;;Abuoso CHPS Compound;;;;;
Amansie West;Keniago;;Dawusaso CHPS Zone;;;;;
Amansie West;Keniago;;Keniago Health Centre;;;;;
Amansie West;Keniago;;Nnipankyeremia CHPS Compound;;;;;
Amansie West;Keniago;;Offinho Asamang CHPS Compound;;;;;
Amansie West;Manso Nkwanta;;Abonkase-M/Nkwanta CHPS Zone;;;;;
Amansie West;Manso Nkwanta;;Abore Health Centre;;;;;
Amansie West;Manso Nkwanta;;Abore-Brofoyedru CHPS Zone;;;;;
Amansie West;Manso Nkwanta;;Abore-Ebom CHPS Zone;;;;;
Amansie West;Manso Nkwanta;;Atwere CHPS Zone;;;;;
Amansie West;Manso Nkwanta;;Dominase (Amansie West) CHPS Zone;;;;;
Amansie West;Manso Nkwanta;;Ekoso-Manso Nkwanta CHPS Zone;;;;;
Amansie West;Manso Nkwanta;;Kyenkyenase CHPS Zone;;;;;
Amansie West;Manso Nkwanta;;Manso Nkwanta Health Centre;;;;;
Amansie West;Tontokrom;;Aboaboso CHPS Compound;;;;;
Amansie West;Tontokrom;;Akyekyerekrom CHPS Compound;;;;;
Amansie West;Tontokrom;;Apenimadi CHPS Zone;;;;;
Amansie West;Tontokrom;;Datano CHPS Compound;;;;;
Amansie West;Tontokrom;;Tontokrom Health Centre;;;;;
Amansie West;Tontokrom;;Watreso CHPS Compound;;;;;
Asante-Akim Central;Dwease-Praaso;;Anurusu/Adumkrom CHPS Zone;;;;;
Asante-Akim Central;Dwease-Praaso;;Dwaese Ahenbronum CHPS Zone;;;;;
Asante-Akim Central;Dwease-Praaso;;Dwease Health Centre;;;;;
Asante-Akim Central;Dwease-Praaso;;Dwease New Town CHPS Zone;;;;;
Asante-Akim Central;Dwease-Praaso;;Nsiakrom CHPS Zone;;;;;
Asante-Akim Central;Dwease-Praaso;;Praaso East CHPS Zone;;;;;
Asante-Akim Central;Dwease-Praaso;;Praaso Health Centre;;;;;
Asante-Akim Central;Dwease-Praaso;;Praaso West CHPS Zone;;;;;
Asante-Akim Central;Konongo;;First Klass Hospital;;;;;
Asante-Akim Central;Konongo;;Konongo - Odumasi Government Hospital;;;;;
Asante-Akim Central;Konongo;;Konongo Abosomtweagya CHPS Zone;;;;;
Asante-Akim Central;Konongo;;Konongo Ahenbronum CHPS Zone;;;;;
Asante-Akim Central;Konongo;;Konongo Extension(Amefa)/kyekyewere CHPS Zone;;;;;
Asante-Akim Central;Konongo;;Konongo Free Town CHPS Zone;;;;;
Asante-Akim Central;Konongo;;Konongo Zongo Efam CHPS Zone;;;;;
Asante-Akim Central;Konongo;;Konongo Zongo- Esoro CHPS Zone;;;;;
Asante-Akim Central;Konongo;;Konongo- New Town CHPS Zone;;;;;
Asante-Akim Central;Konongo;;Lifeland Clinic;;;;;
Asante-Akim Central;Konongo;;Multi-Tech Clinic;;;;;
Asante-Akim Central;Konongo;;Patience Clinic;;;;;
Asante-Akim Central;Konongo;;SABS Clinic;;;;;
Asante-Akim Central;Odumase;;KOSS Clinic;;;;;
Asante-Akim Central;Odumase;;Odumase Ahyiam CHPS Zone;;;;;
Asante-Akim Central;Odumase;;Odumase Apebuoso CHPS Zone;;;;;
Asante-Akim Central;Odumase;;Odumase New Town CHPS Zone;;;;;
Asante-Akim Central;Odumase;;Odumase Santreso CHPS Zone;;;;;
Asante-Akim Central;Odumase;;Odumase Zongo CHPS Zone;;;;;
Asante-Akim Central;Patriensa;;Kyekyebiase CHPS Zone;;;;;
Asante-Akim Central;Patriensa;;Nyaboo CHPS Zone;;;;;
Asante-Akim Central;Patriensa;;Obenimase CHPS Compound;;;;;
Asante-Akim Central;Patriensa;;Patriensa Ahenbronum Health Centre;;;;;
Asante-Akim Central;Patriensa;;Patriensa East CHPS Zone;;;;;
Asante-Akim Central;Patriensa;;Patriensa West CHPS Zone;;;;;
Asante-Mampong;Adidwan;;Adidwan Health Centre;;;;;
Asante-Mampong;Adidwan;;Adidwan/Dome-Oseikrom CHPS Zone;;;;;
Asante-Mampong;Adidwan;;Atonsuagya CHPS Compound;;;;;
Asante-Mampong;Adidwan;;Atonsuagya CHPS Zone;;;;;
Asante-Mampong;Adidwan;;Bosomkyekye CHPS Compound;;;;;
Asante-Mampong;Adidwan;;Bosomkyekye CHPS Zone;;;;;
Asante-Mampong;Adidwan;;Woraso CHPS Zone;;;;;
Asante-Mampong;Kofiase;;Aframano CHPS Compound;;;;;
Asante-Mampong;Kofiase;;Ahenbronum CHPS Zone;;;;;
Asante-Mampong;Kofiase;;Anyankamamu CHPS Zone;;;;;
Asante-Mampong;Kofiase;;Asaam A CHPS Zone;;;;;
Asante-Mampong;Kofiase;;Asaam Health Centre;;;;;
Asante-Mampong;Kofiase;;Atonoso B CHPS Zone;;;;;
Asante-Mampong;Kofiase;;Benim Health Centre;;;;;
Asante-Mampong;Kofiase;;Eboum CHPS Zone;;;;;
Asante-Mampong;Kofiase;;Kofiase Health Centre;;;;;
Asante-Mampong;Kofiase;;Pampaso CHPS Zone;;;;;
Asante-Mampong;Kofiase;;Penteng CHPS Zone;;;;;
Asante-Mampong;Krobo;;Aboantem CHPS Zone;;;;;
Asante-Mampong;Krobo;;Krobo (mampong) Health Centre;;;;;
Asante-Mampong;Krobo;;Krobo/Kyiremfaso/Besease CHPS Zone;;;;;
Asante-Mampong;Krobo;;Nkwanta CHPS Zone;;;;;
Asante-Mampong;Krobo;;Nyinampong CHPS Compound;;;;;
Asante-Mampong;Krobo;;Nyinampong CHPS Zone;;;;;
Asante-Mampong;Mampong;;Abrukutuaso CHPS Zone;;;;;
Asante-Mampong;Mampong;;Adiembra CHPS Zone;;;;;
Asante-Mampong;Mampong;;Akyeremade CHPS;;;;;
Asante-Mampong;Mampong;;Bosofour CHPS Zone;;;;;
Asante-Mampong;Mampong;;Calvary Health Services, Mampong;;;;;
Asante-Mampong;Mampong;;Christaa Clinic, Mampong;;;;;
Asante-Mampong;Mampong;;Daaho CHPS Zone;;;;;
Asante-Mampong;Mampong;;Mampong Government Hospital;;;;;
Asante-Mampong;Mampong;;Mampong Methodist CHPS Zone;;;;;
Asante-Mampong;Mampong;;Mamtech CHPS Compound;;;;;
Asante-Mampong;Mampong;;Mprim CHPS Compound;;;;;
Asante-Mampong;Mampong;;Mprim CHPS Zone;;;;;
Asante-Mampong;Mampong;;Nadaworoma Clinic;;;;;
Asante-Mampong;Mampong;;New Damang CHPS Zone;;;;;
Asante-Mampong;Mampong;;New Town CHPS Zone;;;;;
Asante-Mampong;Mampong;;Quality Health Care Clinic, Mampong;;;;;
Asante-Mampong;Mampong;;Sister Phillipah Clinic;;;;;
Asante-Mampong;Mampong;;Tunsuom CHPS Zone;;;;;
Asante-Mampong;Mampong;;Worakese CHPS Zone;;;;;
Asante-Mampong;Mampong;;Zongo East CHPS Zone;;;;;
Asante-Mampong;Mampong;;Zongo West CHPS Zone, Mampong;;;;;
Asante-Mampong;Yonso;;Apaa SDA Clinic;;;;;
Asante-Mampong;Yonso;;Apaah CHPS Zone;;;;;
Asante-Mampong;Yonso;;Hwediem CHPS Zone;;;;;
Asante-Mampong;Yonso;;Kyekyewere CHPS Zone;;;;;
Asante-Mampong;Yonso;;Ninting CHPS Zone;;;;;
Asante-Mampong;Yonso;;Yonso CHPS Zone;;;;;
Asante-Mampong;Yonso;;Yonso Clinic;;;;;
Asante-Akim North;Agogo (ashanti);;Abrewapong CHPS Zone;;;;;
Asante-Akim North;Agogo (ashanti);;Agogo (asante Akim North) Presby Hospital;;;;;
Asante-Akim North;Agogo (ashanti);;Agogo Zongo CHPS Zone;;;;;
Asante-Akim North;Agogo (ashanti);;Ahenbronum CHPS Zone;;;;;
Asante-Akim North;Agogo (ashanti);;Apetenyinase CHPS Zone;;;;;
Asante-Akim North;Agogo (ashanti);;Bebome CHPS Zone;;;;;
Asante-Akim North;Agogo (ashanti);;Bontodiase (Asante Akim North) CHPS Zone;;;;;
Asante-Akim North;Agogo (ashanti);;Hwidiem CHPS Zone;;;;;
Asante-Akim North;Agogo (ashanti);;New Town CHPS Zone;;;;;
Asante-Akim North;Agogo (ashanti);;Obuasi-Gyidim CHPS Zone;;;;;
Asante-Akim North;Agogo (ashanti);;Pataban-Onyemso CHPS Zone;;;;;
Asante-Akim North;Agogo (ashanti);;Sukuumu CHPS Zone;;;;;
Asante-Akim North;Amantenaman;;Akutuase CHPS Compound;;;;;
Asante-Akim North;Amantenaman;;Amantena CHPS Zone;;;;;
Asante-Akim North;Amantenaman;;Amantenaman Health Centre;;;;;
Asante-Akim North;Amantenaman;;Wioso (Asante Akim North) CHPS Zone;;;;;
Asante-Akim North;Amantenaman;;Woranponso CHPS Zone;;;;;
Asante-Akim North;Ananekrom;;Ananekrom Health Centre;;;;;
Asante-Akim North;Ananekrom;;Dukusen CHPS;;;;;
Asante-Akim North;Juansa;;Domeabra Newtown CHPS Zone;;;;;
Asante-Akim North;Juansa;;Domeabra Tweneboase CHPS Zone;;;;;
Asante-Akim North;Juansa;;Juansa Health Centre;;;;;
Asante-Akim North;Juansa;;Juansa North Mentukwa CHPS Zone;;;;;
Asante-Akim North;Juansa;;Juansa South (Nyamebekyere) CHPS Zone;;;;;
Asante-Akim North;Juansa;;Pekyerekye CHPS Zone;;;;;
Asante-Akim South;Banka;;Amantia CHPS Zone;;;;;
Asante-Akim South;Banka;;Banka CHPS Zone;;;;;
Asante-Akim South;Banka;;Banka Health Centre;;;;;
Asante-Akim South;Banka;;Kpone Praso CHPS Zone;;;;;
Asante-Akim South;Banka;;Muranaim CHPS Zone;;;;;
Asante-Akim South;Banka;;Muronam Health Centre;;;;;
Asante-Akim South;Banka;;Tokwai Asuboi CHPS Zone;;;;;
Asante-Akim South;Banka;;Tokwai CHPS Zone;;;;;
Asante-Akim South;Bompata;;Adomfe CHPS Compound;;;;;
Asante-Akim South;Bompata;;Asankare CHPS Zone;;;;;
Asante-Akim South;Bompata;;ASUBOA CHPS Zone;;;;;
Asante-Akim South;Bompata;;Bompata East CHPS Zone;;;;;
Asante-Akim South;Bompata;;Bompata Health Centre;;;;;
Asante-Akim South;Bompata;;BOMPATA WEST CHPS Zone;;;;;
Asante-Akim South;Bompata;;BREKU CHPS Zone;;;;;
Asante-Akim South;Bompata;;DAMPONG CHPS Zone;;;;;
Asante-Akim South;Bompata;;Muramura CHPS Compound;;;;;
Asante-Akim South;Bompata;;NNADIESO CHPS Zone;;;;;
Asante-Akim South;Bompata;;Nnadieso Health Centre;;;;;
Asante-Akim South;Bompata;;Pra-River CHPS Zone;;;;;
Asante-Akim South;Bompata;;St. Padre Pio's Hospital;;;;;
Asante-Akim South;Bompata;;Wenkyi (Asante Akim South) CHPS Zone;;;;;
Asante-Akim South;Juaso;;ASIKAFOAMANTEM-JUASO CHPS Zone;;;;;
Asante-Akim South;Juaso;;ATWEDIE CHPS Zone;;;;;
Asante-Akim South;Juaso;;BESEASE-MORSO CHPS Zone;;;;;
Asante-Akim South;Juaso;;DEBIASO-JUASO CHPS Zone;;;;;
Asante-Akim South;Juaso;;JUASO AHENBRONOM CHPS Zone;;;;;
Asante-Akim South;Juaso;;Juaso District Hospital;;;;;
Asante-Akim South;Juaso;;JUASO NEW SITE CHPS Zone;;;;;
Asante-Akim South;Juaso;;KOKWADO/YAWKWEI CHPS Zone;;;;;
Asante-Akim South;Juaso;;KUROFA EAST CHPS Zone;;;;;
Asante-Akim South;Juaso;;KUROFA WEST CHPS Zone;;;;;
Asante-Akim South;Juaso;;MORSO CHPS Zone;;;;;
Asante-Akim South;Juaso;;Morso Community Clinic;;;;;
Asante-Akim South;Juaso;;Stewards Hospital, Yawkwei;;;;;
Asante-Akim South;Komeso;;KOMESO CHPS Zone;;;;;
Asante-Akim South;Komeso;;Komeso Health Centre;;;;;
Asante-Akim South;Komeso;;Kyempo CHPS Compound;;;;;
Asante-Akim South;Komeso;;SAABO CHPS Zone;;;;;
Asante-Akim South;Komeso;;TAKYIKROM/SOBINSO CHPS Zone;;;;;
Asante-Akim South;Komeso;;YAW BARIMAKROM CHPS Zone;;;;;
Asante-Akim South;Obogu;;ATIEMO CHPS Zone;;;;;
Asante-Akim South;Obogu;;Kroboline-Obogu CHPS Zone;;;;;
Asante-Akim South;Obogu;;Obogu East CHPS Zone;;;;;
Asante-Akim South;Obogu;;Obogu Health Centre;;;;;
Asante-Akim South;Obogu;;Obogu West CHPS Zone;;;;;
Asante-Akim South;Obogu;;Roses Maternity Home;;;;;
Asante-Akim South;Obogu;;SAALEM-OBOGU CHPS Zone;;;;;
Asante-Akim South;Ofoase;;AHENBRONUM,DWENDWENASE CHPS Zone;;;;;
Asante-Akim South;Ofoase;;BANKAME CHPS Zone;;;;;
Asante-Akim South;Ofoase;;Banso CHPS Compound;;;;;
Asante-Akim South;Ofoase;;BANSO EAST CHPS Zone;;;;;
Asante-Akim South;Ofoase;;BANSO WEST CHPS Zone;;;;;
Asante-Akim South;Ofoase;;Dwendwenase Health Centre;;;;;
Asante-Akim South;Ofoase;;Dwendwenase Old Town CHPS Zone;;;;;
Asante-Akim South;Ofoase;;KOIKROM CHPS Zone;;;;;
Asante-Akim South;Ofoase;;OFOASE EAST CHPS Zone;;;;;
Asante-Akim South;Ofoase;;Ofoase Health Centre;;;;;
Asante-Akim South;Ofoase;;OFOASE WEST CHPS Zone;;;;;
Asante-Akim South;Ofoase;;YAW BRONYAKROM CHPS Zone;;;;;
Atwima-Kwanwoma;Ahenema Kokobeng;;Afratia CHPS Zone;;;;;
Atwima-Kwanwoma;Ahenema Kokobeng;;Ahenema Kokoben CHPS Zone;;;;;
Atwima-Kwanwoma;Ahenema Kokobeng;;Ahenema Kokoben Health Centre;;;;;
Atwima-Kwanwoma;Ahenema Kokobeng;;Ampabame No. 2 CHPS Zone;;;;;
Atwima-Kwanwoma;Ahenema Kokobeng;;Ampayo-Asaago CHPS Zone;;;;;
Atwima-Kwanwoma;Ahenema Kokobeng;;Asafo Boakye Specialist Hospital;;;;;
Atwima-Kwanwoma;Ahenema Kokobeng;;Bebu CHPS Zone;;;;;
Atwima-Kwanwoma;Ahenema Kokobeng;;Brofoyedu CHPS Zone;;;;;
Atwima-Kwanwoma;Ahenema Kokobeng;;Emmanuel Methodist Clinic (Bebu);;;;;
Atwima-Kwanwoma;Ahenema Kokobeng;;Eye Adom Clinic (Brofoyedru);;;;;
Atwima-Kwanwoma;Ahenema Kokobeng;;Garry Marvin Memorial Hospital;;;;;
Atwima-Kwanwoma;Ahenema Kokobeng;;Hemang â€“ Ampatia CHPS Zone;;;;;
Atwima-Kwanwoma;Ahenema Kokobeng;;Kotwi CHPS Zone;;;;;
Atwima-Kwanwoma;Ahenema Kokobeng;;Krofofrom CHPS Zone;;;;;
Atwima-Kwanwoma;Ahenema Kokobeng;;Nkoranza CHPS Zone;;;;;
Atwima-Kwanwoma;Foase;;Aburaso CHPS Zone;;;;;
Atwima-Kwanwoma;Foase;;Aburaso Methodist Clinic;;;;;
Atwima-Kwanwoma;Foase;;Akyeramade CHPS Zone;;;;;
Atwima-Kwanwoma;Foase;;Apemanim CHPS Zone;;;;;
Atwima-Kwanwoma;Foase;;Boko CHPS Zone;;;;;
Atwima-Kwanwoma;Foase;;Dida CHPS Zone;;;;;
Atwima-Kwanwoma;Foase;;Dufie Memorial Clinic;;;;;
Atwima-Kwanwoma;Foase;;Foase CHPS Zone;;;;;
Atwima-Kwanwoma;Foase;;Foase Health Centre;;;;;
Atwima-Kwanwoma;Foase;;Foase-Kobriso CHPS Zone;;;;;
Atwima-Kwanwoma;Foase;;Kromoase CHPS Zone;;;;;
Atwima-Kwanwoma;Foase;;Millennium Hospital;;;;;
Atwima-Kwanwoma;Foase;;Trinity Specialist Hospital;;;;;
Atwima-Kwanwoma;Foase;;Twedie CHPS Zone;;;;;
Atwima-Kwanwoma;Foase;;Yabi CHPS Zone;;;;;
Atwima-Kwanwoma;Trabuom;;Chichibon CHPS Zone;;;;;
Atwima-Kwanwoma;Trabuom;;Jechi CHPS Zone;;;;;
Atwima-Kwanwoma;Trabuom;;Nweneso No. 1 CHPS Zone;;;;;
Atwima-Kwanwoma;Trabuom;;Nweneso No. 2 Health Centre;;;;;
Atwima-Kwanwoma;Trabuom;;Nweneso No. 3 CHPS;;;;;
Atwima-Kwanwoma;Trabuom;;Traboum Health Centre;;;;;
Atwima-Kwanwoma;Trabuom;;Trabuom CHPS Zone;;;;;
Atwima-Kwanwoma;Trede;;Abotiaso CHPS Zone;;;;;
Atwima-Kwanwoma;Trede;;Afrancho CHPS Zone;;;;;
Atwima-Kwanwoma;Trede;;Bekwaimin CHPS Zone;;;;;
Atwima-Kwanwoma;Trede;;Kwanwoma CHPS Zone;;;;;
Atwima-Kwanwoma;Trede;;Kwanwoma Health Centre;;;;;
Atwima-Kwanwoma;Trede;;Mpatasie CHPS Zone;;;;;
Atwima-Kwanwoma;Trede;;New Aduampong CHPS Zone;;;;;
Atwima-Kwanwoma;Trede;;Royal Lawuzy Hospital;;;;;
Atwima-Kwanwoma;Trede;;Trede CHPS Zone;;;;;
Atwima-Kwanwoma;Trede;;Trede Health Centre;;;;;
Atwima-Mponua;Bayerebon;;Antwi Agyei krom CHPS Zone;;;;;
Atwima-Mponua;Bayerebon;;Bayerebon Health Centre;;;;;
Atwima-Mponua;Bayerebon;;Bayerebon NO.3 CHPS Zone;;;;;
Atwima-Mponua;Bayerebon;;Oboasekrom CHPS Zone;;;;;
Atwima-Mponua;Gyereso;;Ahyiresu CHPS Zone;;;;;
Atwima-Mponua;Gyereso;;Anansu CHPS Zone;;;;;
Atwima-Mponua;Gyereso;;Anglican Health Centre;;;;;
Atwima-Mponua;Gyereso;;Gyereso Health Centre;;;;;
Atwima-Mponua;Kotokuom;;Abasua CHPS Zone;;;;;
Atwima-Mponua;Kotokuom;;CHC Clinic;;;;;
Atwima-Mponua;Kotokuom;;Erica Maternity Home;;;;;
Atwima-Mponua;Kotokuom;;Kotokuom Health Centre;;;;;
Atwima-Mponua;Kotokuom;;Mpasatia CHPS Zone;;;;;
Atwima-Mponua;Kotokuom;;Serebuoso CHPS Zone;;;;;
Atwima-Mponua;Kotokuom;;Victory Maternity Home;;;;;
Atwima-Mponua;Ntobroso;;Achiase CHPS Compound;;;;;
Atwima-Mponua;Ntobroso;;Nkroma CHPS Compound;;;;;
Atwima-Mponua;Ntobroso;;St. Peter's Health Centre, Ntobroso;;;;;
Atwima-Mponua;Nyinahin;;Agogoso CHPS Zone;;;;;
Atwima-Mponua;Nyinahin;;Akomfre CHPS Zone;;;;;
Atwima-Mponua;Nyinahin;;Akoraboukrom CHPS Zone;;;;;
Atwima-Mponua;Nyinahin;;Anwiafutu CHPS Zone;;;;;
Atwima-Mponua;Nyinahin;;Mother of John Maternity Home;;;;;
Atwima-Mponua;Nyinahin;;Nagodey Health Centre;;;;;
Atwima-Mponua;Nyinahin;;Nyinahin Government Hospital;;;;;
Atwima-Mponua;Nyinahin;;Otaakrom CHPS Zone;;;;;
Atwima-Mponua;Saakrom;;Akonkye CHPS Zone;;;;;
Atwima-Mponua;Saakrom;;Saakrom Health Centre;;;;;
Atwima-Mponua;Sreso;;Awisasu CHPS Zone;;;;;
Atwima-Mponua;Sreso;;Debra CHPS Zone;;;;;
Atwima-Mponua;Sreso;;Okyerekrom CHPS Zone;;;;;
Atwima-Mponua;Sreso;;Sreso Health Centre;;;;;
Atwima-Mponua;Sreso;;Wansamire CHPS Zone;;;;;
Atwima-Wabiagya;Abuakwa;;Abuakwa CHPS Zone;;;;;
Atwima-Wabiagya;Abuakwa;;Abuakwa Health Centre;;;;;
Atwima-Wabiagya;Abuakwa;;Agogo (Atwima Nwabiagya) CHPS Zone;;;;;
Atwima-Wabiagya;Abuakwa;;Asenemanso CHPS Zone;;;;;
Atwima-Wabiagya;Abuakwa;;Atwima Maakro Hospital;;;;;
Atwima-Wabiagya;Abuakwa;;Baptist Medical Centre, Akuakwa;;;;;
Atwima-Wabiagya;Abuakwa;;Dadiase CHPS Zone;;;;;
Atwima-Wabiagya;Abuakwa;;Hiawu - Besease CHPS Compound;;;;;
Atwima-Wabiagya;Abuakwa;;Maakro CHPS Zone;;;;;
Atwima-Wabiagya;Abuakwa;;Madonna Health Services;;;;;
Atwima-Wabiagya;Abuakwa;;Manhyia (Atwima Nwabiagya) CHPS Zone;;;;;
Atwima-Wabiagya;Abuakwa;;Mim CHPS Zone;;;;;
Atwima-Wabiagya;Abuakwa;;Sepaase CHPS Zone;;;;;
Atwima-Wabiagya;Abuakwa;;Sepaase God is Able Maternity Home;;;;;
Atwima-Wabiagya;Abuakwa;;Wirenkyire CHPS Zone;;;;;
Atwima-Wabiagya;Akropong;;Akropong CHPS Zone;;;;;
Atwima-Wabiagya;Akropong;;Akropong Health Centre;;;;;
Atwima-Wabiagya;Akropong;;Akropong Maternity Home;;;;;
Atwima-Wabiagya;Akropong;;Asakrakra CHPS Zone;;;;;
Atwima-Wabiagya;Akropong;;Atwima Koforidua CHPS Zone;;;;;
Atwima-Wabiagya;Akropong;;Bankyease CHPS Compound;;;;;
Atwima-Wabiagya;Akropong;;Bokankye CHPS Zone;;;;;
Atwima-Wabiagya;Akropong;;Healthy Care Medical Centre;;;;;
Atwima-Wabiagya;Akropong;;Koforidua Antwi's Maternity Home;;;;;
Atwima-Wabiagya;Akropong;;Mfensi CHPS Zone;;;;;
Atwima-Wabiagya;Akropong;;Mount Sinai Hospital;;;;;
Atwima-Wabiagya;Akropong;;Ntabanu CHPS Zone;;;;;
Atwima-Wabiagya;Asuofua;;Achiase - Nyama Maternity Home;;;;;
Atwima-Wabiagya;Asuofua;;Achiase CHPS Zone;;;;;
Atwima-Wabiagya;Asuofua;;Adankwame CHPS Compound;;;;;
Atwima-Wabiagya;Asuofua;;Adankwame Nana Frema Mat. Home;;;;;
Atwima-Wabiagya;Asuofua;;Adankwame-Esaso CHPS Zone;;;;;
Atwima-Wabiagya;Asuofua;;Amanfrom Hospital;;;;;
Atwima-Wabiagya;Asuofua;;Asamang CHPS Zone;;;;;
Atwima-Wabiagya;Asuofua;;Asuofua CHPS Zone;;;;;
Atwima-Wabiagya;Asuofua;;Asuofua Health Centre;;;;;
Atwima-Wabiagya;Asuofua;;Cedar Crest Hospital;;;;;
Atwima-Wabiagya;Barekese;;Abira CHPS Compound;;;;;
Atwima-Wabiagya;Barekese;;Barekese CHPS Zone;;;;;
Atwima-Wabiagya;Barekese;;Barekese Health Centre;;;;;
Atwima-Wabiagya;Barekese;;Barekuma CHPS Compound;;;;;
Atwima-Wabiagya;Barekese;;Fufuo CHPS Zone;;;;;
Atwima-Wabiagya;Barekese;;Marban CHPS Zone;;;;;
Atwima-Wabiagya;Barekese;;Wurapong CHPS Zone;;;;;
Atwima-Wabiagya;Dabaa;;Dabaa CHPS Zone;;;;;
Atwima-Wabiagya;Dabaa;;Dabaa Hope Medical Centre;;;;;
Atwima-Wabiagya;Dabaa;;JILF Health Services;;;;;
Atwima-Wabiagya;Dabaa;;Tabre CHPS Zone;;;;;
Atwima-Wabiagya;Nkawie;;AFARI CHPS Zone;;;;;
Atwima-Wabiagya;Nkawie;;Afari Community Hospital;;;;;
Atwima-Wabiagya;Nkawie;;AMANCHIA CHPS Zone;;;;;
Atwima-Wabiagya;Nkawie;;Frimpong Boateng Medical Centre;;;;;
Atwima-Wabiagya;Nkawie;;GYANKOBAA CHPS Zone;;;;;
Atwima-Wabiagya;Nkawie;;Kobeng /Seidi CHPS Compound;;;;;
Atwima-Wabiagya;Nkawie;;NEREBEHIN CHPS Zone;;;;;
Atwima-Wabiagya;Nkawie;;Nkawie Clinic;;;;;
Atwima-Wabiagya;Nkawie;;NKAWIE KUMA CHPS Zone;;;;;
Atwima-Wabiagya;Nkawie;;NKAWIE PANIN CHPS Zone;;;;;
Atwima-Wabiagya;Nkawie;;Nkawie-Toase Government Hospital;;;;;
Atwima-Wabiagya;Nkawie;;TOASE CHPS Zone;;;;;
Bekwai;Bekwai;;Adankraja CHPS Zone;;;;;
Bekwai;Bekwai;;Ahwene Memorial Clinic;;;;;
Bekwai;Bekwai;;Anwia Nkwanta CHPS Zone;;;;;
Bekwai;Bekwai;;ASANSO- FEYIASE CHPS Zone;;;;;
Bekwai;Bekwai;;ASOKWA TUNSUOM CHPS Zone;;;;;
Bekwai;Bekwai;;Bekwai Municipal Hospital;;;;;
Bekwai;Bekwai;;BROFOYEDRU CHPS Zone;;;;;
Bekwai;Bekwai;;NAMPANSA CHPS Zone;;;;;
Bekwai;Bekwai;;New Zongo CHPS Zone;;;;;
Bekwai;Bekwai;;PEPEDAN AKWABETOSO CHPS Zone;;;;;
Bekwai;Dominase;;Abenkyiman Hospital;;;;;
Bekwai;Dominase;;ADJAMASU CHPS Zone;;;;;
Bekwai;Dominase;;Anidaso Clinic;;;;;
Bekwai;Dominase;;DOMINASE CHPS Zone;;;;;
Bekwai;Dominase;;Dominase SDA Hospital;;;;;
Bekwai;Dominase;;HUNTADO CHPS Zone;;;;;
Bekwai;Dominase;;NTINANKO CHPS Zone;;;;;
Bekwai;Dominase;;OFOASE KOKOBEN CHPS Zone;;;;;
Bekwai;Dominase;;POANO CHPS Zone;;;;;
Bekwai;Dominase;;SARFOKROM CHPS Zone;;;;;
Bekwai;Dominase;;SENFI CHPS Zone;;;;;
Bekwai;Kokofu;;Ahmadiyya Muslim Hospital, Bekwai;;;;;
Bekwai;Kokofu;;AKYEREMADE CHPS Zone;;;;;
Bekwai;Kokofu;;Amansie Clinic;;;;;
Bekwai;Kokofu;;ASAMANG CHPS Zone;;;;;
Bekwai;Kokofu;;DADEASE CHPS Zone;;;;;
Bekwai;Kokofu;;DWOAMIN CHPS Zone;;;;;
Bekwai;Kokofu;;ESSUMEJA CHPS Zone;;;;;
Bekwai;Kokofu;;KOKOFU CHPS Zone;;;;;
Bekwai;Kokofu;;Kokofu General Hospital;;;;;
Bekwai;Kortwia;;ABODOM CHPS Zone;;;;;
Bekwai;Kortwia;;Akomaah Memorial Hospital;;;;;
Bekwai;Kortwia;;AMOAFUL CHPS Zone;;;;;
Bekwai;Kortwia;;Asokore CHPS Zone;;;;;
Bekwai;Kortwia;;BOGYAWE CHPS Zone;;;;;
Bekwai;Kortwia;;DOTOM CHPS Zone;;;;;
Bekwai;Kortwia;;Gyasikrom Health Centre;;;;;
Bekwai;Kortwia;;Kensere CHPS Compound;;;;;
Bekwai;Kortwia;;KOKOTRO CHPS Zone;;;;;
Bekwai;Kortwia;;KWAMAN CHPS Zone;;;;;
Bekwai;Kortwia;;Pampaso CHPS Zone;;;;;
Bekwai;Kortwia;;SANFO ADUAM CHPS Zone;;;;;
Bekwai;Kortwia;;Saviour (bekwai) Community Clinic;;;;;
Bekwai;Kortwia;;Tenkwaamah Maternity Home;;;;;
Bosome-Freho;Asiwa;;Adeito CHPS Zone;;;;;
Bosome-Freho;Asiwa;;Anumso CHPS Compound;;;;;
Bosome-Freho;Asiwa;;Anyanso CHPS Compound;;;;;
Bosome-Freho;Asiwa;;Asiwa CHPS Zone;;;;;
Bosome-Freho;Asiwa;;Asiwa Health Centre;;;;;
Bosome-Freho;Asiwa;;Brofoyedru CHPS Compound;;;;;
Bosome-Freho;Asiwa;;St. Mary (Bosome Freho) Clinic;;;;;
Bosome-Freho;Asiwa;;Yapesa/Kokobin CHPS Zone;;;;;
Bosome-Freho;Dunkura;;Ampento CHPS Zone;;;;;
Bosome-Freho;Dunkura;;Ankaase CHPS Zone;;;;;
Bosome-Freho;Dunkura;;Apewu CHPS Compound;;;;;
Bosome-Freho;Dunkura;;Dajanso CHPS Compound;;;;;
Bosome-Freho;Dunkura;;Duase CHPS Compound;;;;;
Bosome-Freho;Dunkura;;Dunkura Health Centre;;;;;
Bosome-Freho;Dunkura;;Mmorontuo CHPS Zone;;;;;
Bosome-Freho;Nsuaem;;Abosamso CHPS Compound;;;;;
Bosome-Freho;Nsuaem;;Anyinase CHPS Zone;;;;;
Bosome-Freho;Nsuaem;;Danso CHPS Compound;;;;;
Bosome-Freho;Nsuaem;;Nsuaem (Bosome Freho) CHPS Compound;;;;;
Bosome-Freho;Nsuaem;;Nsutem CHPS Compound;;;;;
Bosome-Freho;Nsuta;;Anomawobi CHPS Zone;;;;;
Bosome-Freho;Nsuta;;Damascus CHPS Zone;;;;;
Bosome-Freho;Nsuta;;Nsese CHPS Zone;;;;;
Bosome-Freho;Nsuta;;Nsuta (Bosome Freho) CHPS Compound;;;;;
Bosome-Freho;Tebeso;;Fereso CHPS Compound;;;;;
Bosome-Freho;Tebeso;;Freboye CHPS Compound;;;;;
Bosome-Freho;Tebeso;;Gyimakyi/Anhwiaso CHPS Compound;;;;;
Bosome-Freho;Tebeso;;Korchikrom CHPS Zone;;;;;
Bosome-Freho;Tebeso;;Nancy Powels CHPS Compound;;;;;
Bosome-Freho;Tebeso;;Tebeso I CHPS Compound;;;;;
Bosomtwe;Amakom;;Amakom CHPS Zone;;;;;
Bosomtwe;Amakom;;Asisiriwa Mim CHPS Zone;;;;;
Bosomtwe;Amakom;;Beposo CHPS Zone;;;;;
Bosomtwe;Amakom;;Brodekwano CHPS Zone;;;;;
Bosomtwe;Amakom;;Brodekwano Methodist Clinic;;;;;
Bosomtwe;Amakom;;Konkoma CHPS Zone;;;;;
Bosomtwe;Amakom;;Konkoma SDA Clinic;;;;;
Bosomtwe;Amakom;;Lake Bosomtwe Methodist Clinic;;;;;
Bosomtwe;Jachie;;Abountem CHPS Zone;;;;;
Bosomtwe;Jachie;;Adagya CHPS Zone;;;;;
Bosomtwe;Jachie;;Akwaduo CHPS Zone;;;;;
Bosomtwe;Jachie;;Anglican Eye Clinic;;;;;
Bosomtwe;Jachie;;Aputuogya CHPS Zone;;;;;
Bosomtwe;Jachie;;Aputuogya RCH Clinic;;;;;
Bosomtwe;Jachie;;Comfap Maternity Clinic;;;;;
Bosomtwe;Jachie;;Gods Grace Maternity;;;;;
Bosomtwe;Jachie;;Jachie East CHPS Zone;;;;;
Bosomtwe;Jachie;;Jachie Health Centre;;;;;
Bosomtwe;Jachie;;Jachie West CHPS Zone;;;;;
Bosomtwe;Jachie;;Sewua CHPS Zone;;;;;
Bosomtwe;Jachie;;Sewua Health Centre;;;;;
Bosomtwe;Jachie;;Tetrefu CHPS Zone;;;;;
Bosomtwe;Jachie;;Tetrefu Health Centre;;;;;
Bosomtwe;Kuntanase;;Abono CHPS Compound;;;;;
Bosomtwe;Kuntanase;;Abrankese CHPS Zone;;;;;
Bosomtwe;Kuntanase;;Akokofe CHPS Compound;;;;;
Bosomtwe;Kuntanase;;Anyinatiase CHPS Zone;;;;;
Bosomtwe;Kuntanase;;Bonkokor Boneagya CHPS Zone;;;;;
Bosomtwe;Kuntanase;;Deduako CHPS Zone;;;;;
Bosomtwe;Kuntanase;;Kuntanase CHPS Zone;;;;;
Bosomtwe;Kuntanase;;Kuntanase Government Hospital;;;;;
Bosomtwe;Kuntanase;;Nkowi CHPS Zone;;;;;
Bosomtwe;Kuntanase;;Nyameani CHPS Zone;;;;;
Bosomtwe;Kuntanase;;Piase CHPS Compound;;;;;
Bosomtwe;Kuntanase;;Woarakese CHPS Zone;;;;;
Bosomtwe;Kuntanase;;Nyameani Methodist Clinic;;;;;
Bosomtwe;Kuntanase;;Yaase CHPS Zone;;;;;
Bosomtwe;Pramso;;Aduaden CHPS Zone;;;;;
Bosomtwe;Pramso;;Adunku CHPS Zone;;;;;
Bosomtwe;Pramso;;Apinkra CHPS Zone;;;;;
Bosomtwe;Pramso;;Apinkra St. Mary's Anglican Clinic;;;;;
Bosomtwe;Pramso;;Ayush Memorial Hospital;;;;;
Bosomtwe;Pramso;;Bremuo Medical Centre;;;;;
Bosomtwe;Pramso;;Divine Mercy Hospital;;;;;
Bosomtwe;Pramso;;Esereso RCH Clinic;;;;;
Bosomtwe;Pramso;;Esreso East CHPS Zone;;;;;
Bosomtwe;Pramso;;Esreso West CHPS Zone;;;;;
Bosomtwe;Pramso;;Feyiase CHPS Zone;;;;;
Bosomtwe;Pramso;;New Behenase CHPS Zone;;;;;
Bosomtwe;Pramso;;Nkwanta CHPS Zone;;;;;
Bosomtwe;Pramso;;Nuaso CHPS Zone;;;;;
Bosomtwe;Pramso;;Oyoko CHPS Compound;;;;;
Bosomtwe;Pramso;;Pramso CHPS Zone;;;;;
Bosomtwe;Pramso;;St. Michael's Catholic Hospital, Pramso;;;;;
Ejisu-Juaben;Achiase;;Achiase Health Centre (Ejisu Juaben);;;;;
Ejisu-Juaben;Achiase;;Achiase Nsomeaso CHPS;;;;;
Ejisu-Juaben;Achiase;;Achiase Odumase CHPS;;;;;
Ejisu-Juaben;Achiase;;Esaase CHPS;;;;;
Ejisu-Juaben;Achiase;;Peminase CHPS;;;;;
Ejisu-Juaben;Achiase;;Peminase Clinic;;;;;
Ejisu-Juaben;Achiase;;Wabiri-Akronwie CHPS;;;;;
Ejisu-Juaben;Bomfa;;Adumasa Krofrom CHPS;;;;;
Ejisu-Juaben;Bomfa;;Adumase Ahenbronum CHPS;;;;;
Ejisu-Juaben;Bomfa;;Bomfa Health Centre;;;;;
Ejisu-Juaben;Bomfa;;Bomfa Penipa CHPS;;;;;
Ejisu-Juaben;Bomfa;;Duampompo-Bomfa CHPS;;;;;
Ejisu-Juaben;Bomfa;;Huttel Health Centre;;;;;
Ejisu-Juaben;Bomfa;;Hwereso CHPS;;;;;
Ejisu-Juaben;Bomfa;;Kubease CHPS;;;;;
Ejisu-Juaben;Bomfa;;New Koforidua CHPS;;;;;
Ejisu-Juaben;Bomfa;;Nobewam CHPS;;;;;
Ejisu-Juaben;Bomfa;;Nobewam SDA Clinic;;;;;
Ejisu-Juaben;Ejisu;;Adako-Jachie Abankro CHPS Compound;;;;;
Ejisu-Juaben;Ejisu;;Akyawkrom CHPS;;;;;
Ejisu-Juaben;Ejisu;;Akyeremade CHPS;;;;;
Ejisu-Juaben;Ejisu;;All Souls Clinic;;;;;
Ejisu-Juaben;Ejisu;;Ama Nyame Memorial Medical Centre;;;;;
Ejisu-Juaben;Ejisu;;Amoaman Achiase CHPS Compound;;;;;
Ejisu-Juaben;Ejisu;;Ampabame Adadientem CHPS;;;;;
Ejisu-Juaben;Ejisu;;Amponsah Konadu Maternity;;;;;
Ejisu-Juaben;Ejisu;;Apromase CHPS;;;;;
Ejisu-Juaben;Ejisu;;Apromase Clinic;;;;;
Ejisu-Juaben;Ejisu;;Asotwe CHPS;;;;;
Ejisu-Juaben;Ejisu;;Besease CHPS;;;;;
Ejisu-Juaben;Ejisu;;Bonwire North CHPS;;;;;
Ejisu-Juaben;Ejisu;;Bonwire South CHPS;;;;;
Ejisu-Juaben;Ejisu;;Dakopon Hospital Kwamo;;;;;
Ejisu-Juaben;Ejisu;;Domeabra CHPS;;;;;
Ejisu-Juaben;Ejisu;;Ejisu Government Hospital;;;;;
Ejisu-Juaben;Ejisu;;Ejisu Newtown CHPS;;;;;
Ejisu-Juaben;Ejisu;;Ejisu Zongo CHPS;;;;;
Ejisu-Juaben;Ejisu;;Ernest Medical Centre Ltd;;;;;
Ejisu-Juaben;Ejisu;;Fumesua CHPS;;;;;
Ejisu-Juaben;Ejisu;;Fumesua Clinic;;;;;
Ejisu-Juaben;Ejisu;;Global Evangelical Hospital;;;;;
Ejisu-Juaben;Ejisu;;Humble Maternity Home Kokobra;;;;;
Ejisu-Juaben;Ejisu;;Jesus Is Lord Mat Home Ejisu;;;;;
Ejisu-Juaben;Ejisu;;Krapa CHPS;;;;;
Ejisu-Juaben;Ejisu;;Kwamo CHPS;;;;;
Ejisu-Juaben;Ejisu;;Living Waters Hospital;;;;;
Ejisu-Juaben;Ejisu;;Madonna Clinic Besease;;;;;
Ejisu-Juaben;Ejisu;;Mama Tina's Maternity Home, Kwamo;;;;;
Ejisu-Juaben;Ejisu;;Nkwantanan CHPS;;;;;
Ejisu-Juaben;Ejisu;;Okyerekrom Kokobra CHPS;;;;;
Ejisu-Juaben;Ejisu;;Paradyse Hospital Ejisu;;;;;
Ejisu-Juaben;Ejisu;;Rev. Walker Clinic Kokobra;;;;;
Ejisu-Juaben;Ejisu;;Sanford Clinic;;;;;
Ejisu-Juaben;Ejisu;;Sarbs Clinic;;;;;
Ejisu-Juaben;Ejisu;;Saviour Clinic;;;;;
Ejisu-Juaben;Ejisu;;Tikrom CHPS;;;;;
Ejisu-Juaben;Ejisu;;Tikrom Health Centre;;;;;
Ejisu-Juaben;Ejisu;;Yaa Asantewaa Maternity;;;;;
Ejisu-Juaben;Juaben;;Atia CHPS;;;;;
Ejisu-Juaben;Juaben;;Damang CHPS;;;;;
Ejisu-Juaben;Juaben;;Juaben Government Hospital;;;;;
Ejisu-Juaben;Juaben;;Juaben Mmorontua Dumakwai CHPS Compound;;;;;
Ejisu-Juaben;Juaben;;Nkyerepoaso CHPS Compound;;;;;
Ejisu-Juaben;Juaben;;Ofoase Abetenim CHPS;;;;;
Ejisu-Juaben;Kwaso;;Abenase CHPS;;;;;
Ejisu-Juaben;Kwaso;;Aboanim Krofofrom CHPS;;;;;
Ejisu-Juaben;Kwaso;;Achinakrom CHPS;;;;;
Ejisu-Juaben;Kwaso;;Church of God Essienimpong;;;;;
Ejisu-Juaben;Kwaso;;Donyina CHPS Zones;;;;;
Ejisu-Juaben;Kwaso;;Essienimpong CHPS;;;;;
Ejisu-Juaben;Kwaso;;Kwaso Denteso CHPS;;;;;
Ejisu-Juaben;Kwaso;;Kwaso Health Centre;;;;;
Ejisu-Juaben;Kwaso;;Kwaso Kurotia CHPS;;;;;
Ejisu-Juaben;Kwaso;;Onwe Hospital;;;;;
Ejisu-Juaben;Kwaso;;Sarpeh-Deduako CHPS Zone;;;;;
Ejisu-Juaben;Kwaso;;St. Anns Clinic Donyina;;;;;
Ejisu-Juaben;Kwaso;;Wontonase Aburaso CHPS;;;;;
Ejura-Sekyedumasi;Anyinasu;;Anyinasu East CHPS Zone;;;;;
Ejura-Sekyedumasi;Anyinasu;;Anyinasu West CHPS Zone;;;;;
Ejura-Sekyedumasi;Anyinasu;;Bemi CHPS Zone;;;;;
Ejura-Sekyedumasi;Anyinasu;;St. Anthony Maternity Clinic;;;;;
Ejura-Sekyedumasi;Anyinasu;;St. Anthony Maternity Clinic RCH;;;;;
Ejura-Sekyedumasi;Babaso;;Atta Akura CHPS Zone;;;;;
Ejura-Sekyedumasi;Babaso;;Babaso CHPS Zone;;;;;
Ejura-Sekyedumasi;Babaso;;Kasim CHPS Zone;;;;;
Ejura-Sekyedumasi;Babaso;;Nokwareasa CHPS RCH Zone;;;;;
Ejura-Sekyedumasi;Babaso;;Nokwareasa CHPS Zone;;;;;
Ejura-Sekyedumasi;Babaso;;Nokwreasa CHPS Compound;;;;;
Ejura-Sekyedumasi;Ejura;;Abota CHPS Zone;;;;;
Ejura-Sekyedumasi;Ejura;;Aheneboboano CHPS Zone;;;;;
Ejura-Sekyedumasi;Ejura;;Community Centre CHPS Zone;;;;;
Ejura-Sekyedumasi;Ejura;;Dagombaline CHPS Zone;;;;;
Ejura-Sekyedumasi;Ejura;;Ejura Government Hospital;;;;;
Ejura-Sekyedumasi;Ejura;;Ejura Government Hospital-RCH;;;;;
Ejura-Sekyedumasi;Ejura;;Ejura Old Market Centre CHPS Zone;;;;;
Ejura-Sekyedumasi;Ejura;;Low Cost CHPS Zone;;;;;
Ejura-Sekyedumasi;Ejura;;Mempeasem CHPS Zone;;;;;
Ejura-Sekyedumasi;Ejura;;Sabonline CHPS Zone;;;;;
Ejura-Sekyedumasi;Kasei;;Asuogya-Gyankaka CHPS Zone;;;;;
Ejura-Sekyedumasi;Kasei;;Bonyon CHPS Zone;;;;;
Ejura-Sekyedumasi;Kasei;;Dromankuma CHPS Zone;;;;;
Ejura-Sekyedumasi;Kasei;;Hiawoanwu CHPS Zone;;;;;
Ejura-Sekyedumasi;Kasei;;Kasei CHPS Zone;;;;;
Ejura-Sekyedumasi;Kasei;;Masuo CHPS Zone;;;;;
Ejura-Sekyedumasi;Kasei;;Nkwanta CHPS Zone;;;;;
Ejura-Sekyedumasi;Kasei;;St. Luke Hospital-Kasei;;;;;
Ejura-Sekyedumasi;Kasei;;St. Luke Hospital-RCH;;;;;
Ejura-Sekyedumasi;Kasei;;Sunkweye CHPS;;;;;
Ejura-Sekyedumasi;Kyenkyenkura;;Asumeng CHPS Zone;;;;;
Ejura-Sekyedumasi;Kyenkyenkura;;Kyenkyenkura CHPS Compound;;;;;
Ejura-Sekyedumasi;Kyenkyenkura;;Kyenkyenkura CHPS Compound RCH;;;;;
Ejura-Sekyedumasi;Kyenkyenkura;;Srichikura CHPS Compound;;;;;
Ejura-Sekyedumasi;Nyamebekyere;;Adiembra CHPS Zone;;;;;
Ejura-Sekyedumasi;Nyamebekyere;;Aframso CHPS Compound;;;;;
Ejura-Sekyedumasi;Nyamebekyere;;Amenamu CHPS Zone;;;;;
Ejura-Sekyedumasi;Nyamebekyere;;Ebuom CHPS Zone;;;;;
Ejura-Sekyedumasi;Nyamebekyere;;Homako CHPS Compound;;;;;
Ejura-Sekyedumasi;Nyamebekyere;;Homako CHPS Compound-RCH;;;;;
Ejura-Sekyedumasi;Nyamebekyere;;Mimunaso CHPS Zone;;;;;
Ejura-Sekyedumasi;Nyamebekyere;;Nkyensie CHPS Zone;;;;;
Ejura-Sekyedumasi;Nyamebekyere;;Nyamebekyere CHPS Zone;;;;;
Ejura-Sekyedumasi;Sekyedumase;;Appiaso CHPS Zone;;;;;
Ejura-Sekyedumasi;Sekyedumase;;Asensemu CHPS Zone;;;;;
Ejura-Sekyedumasi;Sekyedumase;;Dapaafo CHPS Zone;;;;;
Ejura-Sekyedumasi;Sekyedumase;;Drobong CHPS Compound;;;;;
Ejura-Sekyedumasi;Sekyedumase;;Frante CHPS Compound;;;;;
Ejura-Sekyedumasi;Sekyedumase;;Frante CHPS Zone;;;;;
Ejura-Sekyedumasi;Sekyedumase;;Frante Zongo CHPS Zone;;;;;
Ejura-Sekyedumasi;Sekyedumase;;Juaho CHPS Zone;;;;;
Ejura-Sekyedumasi;Sekyedumase;;Kobriti CHPS Zone;;;;;
Ejura-Sekyedumasi;Sekyedumase;;Sekyedumase Health Centre;;;;;
Ejura-Sekyedumasi;Sekyedumase;;Sekyedumase Heath Centre-RCH;;;;;
Ejura-Sekyedumasi;Sekyedumase;;Sekyedumase Zongo CHPS Zone;;;;;
Ejura-Sekyedumasi;Sekyedumase;;Teacherkrom CHPS Zone;;;;;
Kumasi;Asokwa;;Abury Hospital;;;;;
Kumasi;Asokwa;;Adabie Medical Centre;;;;;
Kumasi;Asokwa;;Ahinsan CHPS Zone;;;;;
Kumasi;Asokwa;;Ahmadiyya Homeopatic Acupunture and Herbal Clinic;;;;;
Kumasi;Asokwa;;Allen Clinic;;;;;
Kumasi;Asokwa;;Aninwaah Medical Centre (Emena Hospital);;;;;
Kumasi;Asokwa;;Anloga CHPS Compound;;;;;
Kumasi;Asokwa;;Anwomaso CHPS Zone;;;;;
Kumasi;Asokwa;;Anwomaso Health Centre;;;;;
Kumasi;Asokwa;;Apemso CHPS Zone;;;;;
Kumasi;Asokwa;;Appiadu CHPS Zone;;;;;
Kumasi;Asokwa;;Aprabon CHPS Zone;;;;;
Kumasi;Asokwa;;Aprade CHPS Zone;;;;;
Kumasi;Asokwa;;Asbury Hospital;;;;;
Kumasi;Asokwa;;Awurade Adom Maternity Home;;;;;
Kumasi;Asokwa;;Ayeduase CHPS Zone;;;;;
Kumasi;Asokwa;;Ayeduase Health Centre;;;;;
Kumasi;Asokwa;;Ayigye Ahinbronon CHPS Zone;;;;;
Kumasi;Asokwa;;Ayigye Zongo CHPS Zone;;;;;
Kumasi;Asokwa;;Bebre CHPS Zone;;;;;
Kumasi;Asokwa;;Bokro CHPS Zone;;;;;
Kumasi;Asokwa;;Bomso Clinic;;;;;
Kumasi;Asokwa;;Bomso CHPS Zone;;;;;
Kumasi;Asokwa;;Chirapatre CHPS Zone;;;;;
Kumasi;Asokwa;;Christ The King Hospital;;;;;
Kumasi;Asokwa;;Deduako CHPS Zone;;;;;
Kumasi;Asokwa;;Dompoase CHPS Zone;;;;;
Kumasi;Asokwa;;Emena CHPS Zone;;;;;
Kumasi;Asokwa;;Florence Maternity Home;;;;;
Kumasi;Asokwa;;Graceland Hospital;;;;;
Kumasi;Asokwa;;Gyinyase CHPS Zone;;;;;
Kumasi;Asokwa;;Hart Adventist Hospital;;;;;
Kumasi;Asokwa;;Kaase CHPS Zone;;;;;
Kumasi;Asokwa;;Kaase Maternity Home;;;;;
Kumasi;Asokwa;;Kentinkrono CHPS Zone;;;;;
Kumasi;Asokwa;;KNUST CHPS Zone;;;;;
Kumasi;Asokwa;;KNUST Hospital;;;;;
Kumasi;Asokwa;;Kokoben CHPS Zone;;;;;
Kumasi;Asokwa;;Kotei CHPS Zone;;;;;
Kumasi;Asokwa;;Kumasi Children's Hospital;;;;;
Kumasi;Asokwa;;Kumasi Church of Christ Clinic;;;;;
Kumasi;Asokwa;;Kumasi Comfort Maternity Home;;;;;
Kumasi;Asokwa;;Kumasi South Hospital;;;;;
Kumasi;Asokwa;;Kuwait CHPS Zone;;;;;
Kumasi;Asokwa;;Lake Road Clinic;;;;;
Kumasi;Asokwa;;Maame Serwaa Maternity;;;;;
Kumasi;Asokwa;;Maud's Maternity Home;;;;;
Kumasi;Asokwa;;McKenzie Hospital;;;;;
Kumasi;Asokwa;;New Asokwa CHPS Zone;;;;;
Kumasi;Asokwa;;New Life Maternity Home;;;;;
Kumasi;Asokwa;;Nsenie CHPS Zone;;;;;
Kumasi;Asokwa;;Odoum CHPS Zone;;;;;
Kumasi;Asokwa;;Oforikrom (Kumasi) Clinic;;;;;
Kumasi;Asokwa;;Oforikrom East CHPS Zone;;;;;
Kumasi;Asokwa;;Oforikrom West CHPS Zone;;;;;
Kumasi;Asokwa;;Old Asokwa CHPS Zone;;;;;
Kumasi;Asokwa;;Paradise (Asokwa) Maternity Home;;;;;
Kumasi;Asokwa;;Peace and Love Hospital;;;;;
Kumasi;Asokwa;;Poku Transport Children's Hospital;;;;;
Kumasi;Asokwa;;Queen Victoria Maternity Home;;;;;
Kumasi;Asokwa;;Queens (Kumasi) Hospital;;;;;
Kumasi;Asokwa;;Ramseyer CHPS Zone;;;;;
Kumasi;Asokwa;;S-Line CHPS Zone;;;;;
Kumasi;Asokwa;;St. Anne's Clinic;;;;;
Kumasi;Asokwa;;Susankyi CHPS Zone;;;;;
Kumasi;Asokwa;;Tawheed Naturopathic Clinic;;;;;
Kumasi;Asokwa;;Twumduase CHPS Zone;;;;;
Kumasi;Asokwa;;Vibro Maternity Home;;;;;
Kumasi;Asokwa;;Victory (Kumasi) Maternity Home;;;;;
Kumasi;Asokwa;;Yentumi Boitey Clinic;;;;;
Kumasi;Bantama;;Abrepo CHPS Zone;;;;;
Kumasi;Bantama;;Abrepo Junction CHPS Zone;;;;;
Kumasi;Bantama;;Adiebeba -Ahodwo CHPS Zone;;;;;
Kumasi;Bantama;;Adiembra-TUC CHPS Zone;;;;;
Kumasi;Bantama;;Adoato-Adomanu CHPS Zone;;;;;
Kumasi;Bantama;;Agric CHPS Zone;;;;;
Kumasi;Bantama;;Ama Dansowaa Clinic;;;;;
Kumasi;Bantama;;Ampabame Clinic;;;;;
Kumasi;Bantama;;Anyinam CHPS Zone;;;;;
Kumasi;Bantama;;Apatrapa CHPS Zone;;;;;
Kumasi;Bantama;;Apatrapa Health Centre;;;;;
Kumasi;Bantama;;Asafo Agyei Hospital;;;;;
Kumasi;Bantama;;Asuoyeboah CHPS Zone;;;;;
Kumasi;Bantama;;Asuoyeboah Hospital;;;;;
Kumasi;Bantama;;Atasamanso CHPS Zone;;;;;
Kumasi;Bantama;;Atasomanso Hospital;;;;;
Kumasi;Bantama;;Bantama CHPS;;;;;
Kumasi;Bantama;;Bohyen-Ampabame CHPS Zone;;;;;
Kumasi;Bantama;;Daaban- Krofrom CHPS Zone;;;;;
Kumasi;Bantama;;Danyame CHPS Zone;;;;;
Kumasi;Bantama;;Fankyenebra Clinic;;;;;
Kumasi;Bantama;;Fannkyenebra CHPS Zone;;;;;
Kumasi;Bantama;;First Care Hospital;;;;;
Kumasi;Bantama;;First Royal Specialist Hospital;;;;;
Kumasi;Bantama;;Hope Xchange Medical Centre;;;;;
Kumasi;Bantama;;Kokoso-Ano CHPS Zone;;;;;
Kumasi;Bantama;;Kumaning Medical Centre;;;;;
Kumasi;Bantama;;Kumasi County Hospital;;;;;
Kumasi;Bantama;;Kwadaso CHPS Zone;;;;;
Kumasi;Bantama;;Kwadaso Estate CHPS Zone;;;;;
Kumasi;Bantama;;Kwadaso North CHPS Zone;;;;;
Kumasi;Bantama;;Kwadaso Nsiah Asre CHPS Zone;;;;;
Kumasi;Bantama;;Kwadaso SDA Hospital;;;;;
Kumasi;Bantama;;Living Waters Maternity Home;;;;;
Kumasi;Bantama;;Magazine Hospital;;;;;
Kumasi;Bantama;;Maranatha Hospital;;;;;
Kumasi;Bantama;;Marie Stopes Santasi Centre;;;;;
Kumasi;Bantama;;Mater Dei Hospital;;;;;
Kumasi;Bantama;;Mpatsie CHPS Zone;;;;;
Kumasi;Bantama;;New Cross Hospital;;;;;
Kumasi;Bantama;;Nhyiaso CHPS Zone;;;;;
Kumasi;Bantama;;North Suntreso CHPS Zone;;;;;
Kumasi;Bantama;;Nwamase Health Centre;;;;;
Kumasi;Bantama;;Nyankyerenease-Apesika CHPS Zone;;;;;
Kumasi;Bantama;;Nzema CHPS Zone;;;;;
Kumasi;Bantama;;Odeneho Kwadaso CHPS Zone;;;;;
Kumasi;Bantama;;Ohwim-Amanfrom CHPS Zone;;;;;
Kumasi;Bantama;;Ohwimase CHPS Zone;;;;;
Kumasi;Bantama;;Patasi CHPS Zone;;;;;
Kumasi;Bantama;;Philopo Maternity Home;;;;;
Kumasi;Bantama;;Prima Medical Centre;;;;;
Kumasi;Bantama;;Quitt Healthcare Hospital;;;;;
Kumasi;Bantama;;Red Hill Medical Centre;;;;;
Kumasi;Bantama;;Regional Police Clinic;;;;;
Kumasi;Bantama;;Ruma Specialist Hospital;;;;;
Kumasi;Bantama;;Santasi-Atasamanso CHPS;;;;;
Kumasi;Bantama;;Siloam Hospital;;;;;
Kumasi;Bantama;;Sokoban -Timpom CHPS Zone;;;;;
Kumasi;Bantama;;South Patasi Hospital;;;;;
Kumasi;Bantama;;South Suntreso CHPS Zone;;;;;
Kumasi;Bantama;;St. Augustine Hospital;;;;;
Kumasi;Bantama;;St. Benedict Hospital;;;;;
Kumasi;Bantama;;Suame Nkwanta Hospita;;;;;
Kumasi;Bantama;;Suntreso Government Hospital;;;;;
Kumasi;Bantama;;Takyiman CHPS Compound;;;;;
Kumasi;Bantama;;Tanoso CHPS Zone;;;;;
Kumasi;Bantama;;Tanoso Community Hospital;;;;;
Kumasi;Bantama;;Tessy Ebenezer Maternity Home;;;;;
Kumasi;Bantama;;Tiwaa Memorial Hospital;;;;;
Kumasi;Bantama;;Trust Care Hospital;;;;;
Kumasi;Bantama;;UEW - K Clinic;;;;;
Kumasi;Bantama;;Well Point Medical Centre;;;;;
Kumasi;Bantama;;West End Hospital;;;;;
Kumasi;Bantama;;Wood Village Clinic;;;;;
Kumasi;Tafo;;Abed CHPS Zone;;;;;
Kumasi;Tafo;;ABOAHIA CHPS;;;;;
Kumasi;Tafo;;Abohia New CHPS;;;;;
Kumasi;Tafo;;ABUSUAKRUWA CHPS;;;;;
Kumasi;Tafo;;ADABRAKA CHPS;;;;;
Kumasi;Tafo;;Adabraka Down CHPS;;;;;
Kumasi;Tafo;;Adabsab Maternity Home;;;;;
Kumasi;Tafo;;ADOMPOM CHPS;;;;;
Kumasi;Tafo;;AHENEBRONUM NORTH CHPS;;;;;
Kumasi;Tafo;;AHENEBRONUM SOUTH CHPS;;;;;
Kumasi;Tafo;;Amoah Memorial Clinic;;;;;
Kumasi;Tafo;;ANOMANGYE CHPS;;;;;
Kumasi;Tafo;;ANOMANGYE SPECIALTY HOSPITAL;;;;;
Kumasi;Tafo;;Asihene Clinic;;;;;
Kumasi;Tafo;;Ayiwa Memorial Maternity;;;;;
Kumasi;Tafo;;BREMANG CENTRAL CHPS;;;;;
Kumasi;Tafo;;Bremang Clinic;;;;;
Kumasi;Tafo;;BREMANG SDA HOSPITAL;;;;;
Kumasi;Tafo;;BREMANG WEST CHPS;;;;;
Kumasi;Tafo;;Central Maternity Home Annex;;;;;
Kumasi;Tafo;;Gansmens Medical Centre;;;;;
Kumasi;Tafo;;Garrages Clinic;;;;;
Kumasi;Tafo;;Gods Glory Hospital;;;;;
Kumasi;Tafo;;Graceland Clinic;;;;;
Kumasi;Tafo;;Happy Day Maternity Home;;;;;
Kumasi;Tafo;;Happyday Maternity Annex;;;;;
Kumasi;Tafo;;Holy Rosary Maternity Home;;;;;
Kumasi;Tafo;;Humble (kumasi) Maternity Home;;;;;
Kumasi;Tafo;;Jomo Medical Centre;;;;;
Kumasi;Tafo;;KROFROM CHPS;;;;;
Kumasi;Tafo;;KROFROM CPC CHPS;;;;;
Kumasi;Tafo;;KROFROM WEST CHPS;;;;;
Kumasi;Tafo;;Kropo Charity Hospital;;;;;
Kumasi;Tafo;;KWAPRA CHPS;;;;;
Kumasi;Tafo;;Kwapra New CHPS;;;;;
Kumasi;Tafo;;MAAKRO CHPS;;;;;
Kumasi;Tafo;;Magazine CHPS;;;;;
Kumasi;Tafo;;Methodist Clinic;;;;;
Kumasi;Tafo;;Muti Clinic;;;;;
Kumasi;Tafo;;NEW SUAME CHPS;;;;;
Kumasi;Tafo;;NEW YORK CHPS;;;;;
Kumasi;Tafo;;Nkontwima Clinic;;;;;
Kumasi;Tafo;;OLD SUAME CHPS;;;;;
Kumasi;Tafo;;OLFOSS CHPS;;;;;
Kumasi;Tafo;;Oppong Brown Clinic;;;;;
Kumasi;Tafo;;PANKRONO ESTATE CHPS ZONE;;;;;
Kumasi;Tafo;;PPAG Suame;;;;;
Kumasi;Tafo;;SANTAN CHPS;;;;;
Kumasi;Tafo;;Shalom Maternity Home;;;;;
Kumasi;Tafo;;Siaw Larbi Hospital;;;;;
Kumasi;Tafo;;SOS (Tafo) Clinic;;;;;
Kumasi;Tafo;;St. John Homeopathic Clinic;;;;;
Kumasi;Tafo;;SUAME KOTOKO CHPS;;;;;
Kumasi;Tafo;;Tafo Government Hospital;;;;;
Kumasi;Tafo;;Tarkwa CHPS;;;;;
Kumasi;Tafo;;Tarkwa Maakro Hospital;;;;;
Kumasi;Tafo;;The Word Maternity Home;;;;;
Kumasi;Tafo;;Three Stones Clinic;;;;;
Kumasi;Tafo;;Trinity Clinic;;;;;
Kumasi;Tafo;;True Vine Hospital;;;;;
Kumasi;Tafo;;UGC CHPS;;;;;
Kumasi;Tafo;;Vincent Clinic;;;;;
Kumasi;Tafo;;Wisdom (kumasi) Hospital;;;;;
Kumasi;Manhyia;;Deeper Life CHPS Zone;;;;;
Kumasi;Manhyia;;31st DWM CHPS Zone;;;;;
Kumasi;Manhyia;;Abrafi Memorial Clinic;;;;;
Kumasi;Manhyia;;Ahenfie CHPS Zone;;;;;
Kumasi;Manhyia;;Amangoase CHPS Zone;;;;;
Kumasi;Manhyia;;Asikafo) CHPS Zone;;;;;
Kumasi;Manhyia;;Baby Pearl Maternity;;;;;
Kumasi;Manhyia;;Buokrom Estate (South Africa) CHPS Zone;;;;;
Kumasi;Manhyia;;Buokrom Estate CHPS Zone;;;;;
Kumasi;Manhyia;;Buokrom Zongo CHPS Zone;;;;;
Kumasi;Manhyia;;Clinic Ash Town;;;;;
Kumasi;Manhyia;;Dichemso CHPS Zone;;;;;
Kumasi;Manhyia;;Dr. Ampadu CHPS Zone;;;;;
Kumasi;Manhyia;;Duasi New Site CHPS Zone;;;;;
Kumasi;Manhyia;;Duasi Old Site CHPS Zone;;;;;
Kumasi;Manhyia;;Horizon Hospital;;;;;
Kumasi;Manhyia;;Keffam Hospital;;;;;
Kumasi;Manhyia;;Kezia Maternity Home;;;;;
Kumasi;Manhyia;;Kogloko CHPS Zone;;;;;
Kumasi;Manhyia;;Lady of Grace Hospital;;;;;
Kumasi;Manhyia;;Manhyia Government Hospital;;;;;
Kumasi;Manhyia;;Marboah Hospital;;;;;
Kumasi;Manhyia;;Marie Stopes Alabar Centre;;;;;
Kumasi;Manhyia;;Mommie Maternity Home;;;;;
Kumasi;Manhyia;;Moshie Chief CHPS Zone;;;;;
Kumasi;Manhyia;;Moshie Zongo Anyaano CHPS Zone;;;;;
Kumasi;Manhyia;;Moshie Zongo Health centre;;;;;
Kumasi;Manhyia;;Pima Hospital;;;;;
Kumasi;Manhyia;;Presby CHPS Zone;;;;;
Kumasi;Manhyia;;Quality Health Care (Kumasi) Clinic;;;;;
Kumasi;Manhyia;;Royal Medical Agency;;;;;
Kumasi;Manhyia;;Safo Adu Hospital;;;;;
Kumasi;Manhyia;;Sepe Buokrom CHPS Zone;;;;;
Kumasi;Manhyia;;Sepe Buokrom Health Centre;;;;;
Kumasi;Manhyia;;St. John (Kumasi) Clinic;;;;;
Kumasi;Manhyia;;Victory CHPS Zone;;;;;
Kumasi;Manhyia;;Zeeba CHPS Zone;;;;;
Kumasi;Subin;;4MRS Clinic;;;;;
Kumasi;Subin;;Abinkyi CHPS Zone;;;;;
Kumasi;Subin;;Afful Nkwanta CHPS Zone;;;;;
Kumasi;Subin;;Amakom CHPS Zone;;;;;
Kumasi;Subin;;Anlo Fante New Town CHPS Zone;;;;;
Kumasi;Subin;;Anwiam Clinic;;;;;
Kumasi;Subin;;Asafo CHPS Zone;;;;;
Kumasi;Subin;;Asem CHPS Zone;;;;;
Kumasi;Subin;;Central Market CHPS Zone;;;;;
Kumasi;Subin;;City Hospital;;;;;
Kumasi;Subin;;Cocoa Clinic (Kumasi);;;;;
Kumasi;Subin;;Dadiesoaba CHPS Zone;;;;;
Kumasi;Subin;;Domenase CHPS Zone;;;;;
Kumasi;Subin;;Fante New Town CHPS Zone;;;;;
Kumasi;Subin;;Grace Krapeanam Maternity Home Clinic;;;;;
Kumasi;Subin;;KAMA Clinic;;;;;
Kumasi;Subin;;KMA Clinic;;;;;
Kumasi;Subin;;Komfo Anokye Teaching Hospital;;;;;
Kumasi;Subin;;Kuffuor Clinic;;;;;
Kumasi;Subin;;Kumasi Police Clinic;;;;;
Kumasi;Subin;;Kumasi Prison's Infimary;;;;;
Kumasi;Subin;;Maternal and Child Health Hospital;;;;;
Kumasi;Subin;;Nsuase CHPS Zone;;;;;
Kumasi;Subin;;Stadium Clinic;;;;;
Kumasi;Subin;;Wesley Cathedral (Kumasi) Clinic;;;;;
Kumasi;Subin;;Yelewa CHPS- Asem;;;;;
Kwabre East;Aboaso;;Aboaso Health Centre;;;;;
Kwabre East;Aboaso;;Aboaso Kubease CHPS;;;;;
Kwabre East;Aboaso;;Christ Our Hope Maternity;;;;;
Kwabre East;Aboaso;;Dumanafo CHPS;;;;;
Kwabre East;Aboaso;;Gyamfi Wonoo CHPS Zone;;;;;
Kwabre East;Aboaso;;Ntonso Atoase CHPS Zone;;;;;
Kwabre East;Aboaso;;Ntonso CHPS Zone;;;;;
Kwabre East;Aboaso;;Ntonso Ehinase CHPS Zone;;;;;
Kwabre East;Aboaso;;Wadie Adumakase CHPS Zone;;;;;
Kwabre East;Aboaso;;Zion Praise Hospital;;;;;
Kwabre East;Asonomaso;;Abira CHPS;;;;;
Kwabre East;Asonomaso;;Adanwomase CHPS;;;;;
Kwabre East;Asonomaso;;Antwi Maternity Home;;;;;
Kwabre East;Asonomaso;;Asonomaso East CHPS;;;;;
Kwabre East;Asonomaso;;Asonomaso Government Hospital;;;;;
Kwabre East;Asonomaso;;Asonomaso Nkwanta CHPS;;;;;
Kwabre East;Asonomaso;;Asonomaso West CHPS;;;;;
Kwabre East;Asonomaso;;Baamang Kwabre CHPS;;;;;
Kwabre East;Asonomaso;;Kasaam CHPS;;;;;
Kwabre East;Asonomaso;;Krobo (Kwabre) CHPS;;;;;
Kwabre East;Asonomaso;;Sakora Wonoo CHPS;;;;;
Kwabre East;Asonomaso;;Sakora Wonoo Health Centre;;;;;
Kwabre East;Asonomaso;;Sarfo CHPS;;;;;
Kwabre East;Asonomaso;;St. Joseph Clinic (Abira);;;;;
Kwabre East;Kenyase;;Abirem CHPS;;;;;
Kwabre East;Kenyase;;Adom Mmoroso Maternity Home;;;;;
Kwabre East;Kenyase;;African Diaspora Clinic;;;;;
Kwabre East;Kenyase;;Antoa CHPS;;;;;
Kwabre East;Kenyase;;Antoa Health Centre;;;;;
Kwabre East;Kenyase;;Kenyase Health Centre;;;;;
Kwabre East;Kenyase;;Kenyasi East CHPS;;;;;
Kwabre East;Kenyase;;Kenyasi West CHPS;;;;;
Kwabre East;Kenyase;;Right Care Health Service;;;;;
Kwabre East;Kenyase;;Royal Place Clinic;;;;;
Kwabre East;Kenyase;;Tano Adwuman (Bosore) CHPS;;;;;
Kwabre East;Mamponteng;;Ahwiaa (Kwabre) CHPS;;;;;
Kwabre East;Mamponteng;;Ahwiaa Anyinam CHPS;;;;;
Kwabre East;Mamponteng;;Ahwiaa Ntaamu CHPS;;;;;
Kwabre East;Mamponteng;;Ahwiaa Zongo CHPS;;;;;
Kwabre East;Mamponteng;;Asennua CHPS;;;;;
Kwabre East;Mamponteng;;Bronum CHPS;;;;;
Kwabre East;Mamponteng;;Fawoade CHPS;;;;;
Kwabre East;Mamponteng;;Joy (kwabre) Maternity Home;;;;;
Kwabre East;Mamponteng;;Maame Rose Maternity Home;;;;;
Kwabre East;Mamponteng;;Mamponteng CHPS;;;;;
Kwabre East;Mamponteng;;Mamponteng Health Centre;;;;;
Kwabre East;Mamponteng;;Meduma Clinic;;;;;
Obuasi;Brahabebome;;Akaporiso CHPS Zone;;;;;
Obuasi;Brahabebome;;Bossman CHPS Zone;;;;;
Obuasi;Brahabebome;;Brahabebome CHPS Zone;;;;;
Obuasi;Brahabebome;;Diawuoso CHPS Zone;;;;;
Obuasi;Brahabebome;;Divine Souls Clinic;;;;;
Obuasi;Brahabebome;;Domeabra CHPS Zone;;;;;
Obuasi;Brahabebome;;Kwabenakwa CHPS Zone;;;;;
Obuasi;Brahabebome;;Mampamhwe CHPS Zone;;;;;
Obuasi;Brahabebome;;Obuasi SDA Hospital;;;;;
Obuasi;Brahabebome;;Pomposo CHPS Zone;;;;;
Obuasi;Brahabebome;;Todah Hospital;;;;;
Obuasi;Gauso;;Adaase CHPS Compound;;;;;
Obuasi;Gauso;;Anyinam CHPS Zone;;;;;
Obuasi;Gauso;;Bediem CHPS Zone;;;;;
Obuasi;Gauso;;Binsere CHPS Zone;;;;;
Obuasi;Gauso;;Gauso RCH;;;;;
Obuasi;Gauso;;Gausu East CHPS Zone;;;;;
Obuasi;Gauso;;Guaso-North CHPS Zone;;;;;
Obuasi;Gauso;;Kunka CHPS Zone;;;;;
Obuasi;Gauso;;Kunka Health Centre;;;;;
Obuasi;Gauso;;Mensahkrom CHPS Zone;;;;;
Obuasi;Gauso;;Nyameso CHPS Zone;;;;;
Obuasi;Gauso;;Nyhieso CHPS Zone;;;;;
Obuasi;Gauso;;Obuasi Diagnostic Centre;;;;;
Obuasi;Gauso;;Obuasi Government Hospital;;;;;
Obuasi;Gauso;;Ridge (obuasi) Clinic;;;;;
Obuasi;Gauso;;Sanso CHPS Zone;;;;;
Obuasi;Gauso;;St. John's Maternity;;;;;
Obuasi;Kwabrafoso;;AGA Health Foundation Hospital;;;;;
Obuasi;Kwabrafoso;;Anyimadukrom CHPS Zone;;;;;
Obuasi;Kwabrafoso;;Kriki CHPS Zone;;;;;
Obuasi;Kwabrafoso;;Kwabrafoso East CHPS Zone;;;;;
Obuasi;Kwabrafoso;;Kwabrafoso West CHPS Zone;;;;;
Obuasi;Kwabrafoso;;PTP CHPS Zone;;;;;
Obuasi;Kwabrafoso;;WJS CHPS Zone;;;;;
Obuasi;New Nsuta;;Antebea CHPS Zone;;;;;
Obuasi;New Nsuta;;Antobuasi CHPS Zone;;;;;
Obuasi;New Nsuta;;Bedieso CHPS Zone;;;;;
Obuasi;New Nsuta;;Bongobiri CHPS Zone;;;;;
Obuasi;New Nsuta;;Central Market Health Centre;;;;;
Obuasi;New Nsuta;;Kokoteasua CHPS Zone;;;;;
Obuasi;New Nsuta;;Market Square CHPS Zone;;;;;
Obuasi;New Nsuta;;Neighbourhood Hospital;;;;;
Obuasi;New Nsuta;;New Abompe CHPS Zone;;;;;
Obuasi;New Nsuta;;New Estate CHPS Zone;;;;;
Obuasi;New Nsuta;;New Nsuta CHPS Zone;;;;;
Obuasi;New Nsuta;;Nkamprom CHPS Zone;;;;;
Obuasi;New Nsuta;;Queens Maternity, Obuasi;;;;;
Obuasi;New Nsuta;;St. Jude Hospital, Obuasi;;;;;
Obuasi;New Nsuta;;Zongo CHPS Zone, Obuasi;;;;;
Obuasi;Tutuka;;Ahasonyewidea CHPS Zone;;;;;
Obuasi;Tutuka;;Amansan Clinic;;;;;
Obuasi;Tutuka;;Asikafoamantem CHPS Zone;;;;;
Obuasi;Tutuka;;Boete CHPS Zone;;;;;
Obuasi;Tutuka;;Bryant Mission Hospital;;;;;
Obuasi;Tutuka;;Emmanuel Maternity Home;;;;;
Obuasi;Tutuka;;St. Cecilia Maternity Home;;;;;
Obuasi;Tutuka;;Tiatiaso CHPS Zone;;;;;
Obuasi;Tutuka;;Tutuka Central CHPS Zone;;;;;
Obuasi;Tutuka;;Tutuka North CHPS Zone;;;;;
Obuasi;Tutuka;;Twumwaa Maternity Home;;;;;
Offinso;Abofour;;Abofour Health Centre;;;;;
Offinso;Abofour;;Abofour Junction CHPS Zone;;;;;
Offinso;Abofour;;Abofour Kyebi CHPS Zone;;;;;
Offinso;Abofour;;Asuboi CHPS Zone;;;;;
Offinso;Abofour;;Berekum (Offinso) CHPS Zone;;;;;
Offinso;Abofour;;Dumasua CHPS Zone;;;;;
Offinso;Abofour;;Koforidua CHPS Zone;;;;;
Offinso;Abofour;;Kwapanin CHPS Compound;;;;;
Offinso;Abofour;;Wawase (Abofour) CHPS Zone;;;;;
Offinso;Anyinasuso;;Anyinasuso (Offinso) CHPS Zone;;;;;
Offinso;Anyinasuso;;Anyinasuso SDA Clinic;;;;;
Offinso;Anyinasuso;;Kayera CHPS Zone;;;;;
Offinso;Anyinasuso;;Namong East CHPS Zone;;;;;
Offinso;Anyinasuso;;Namong SDA Hospital;;;;;
Offinso;Anyinasuso;;Namong West CHPS Zone;;;;;
Offinso;Anyinasuso;;Samproso CHPS Zone;;;;;
Offinso;Bonsua;;Amaning CHPS Zone;;;;;
Offinso;Bonsua;;Amankwatiakrom CHPS Zone;;;;;
Offinso;Bonsua;;Baniekrom CHPS Zone;;;;;
Offinso;Bonsua;;Bonsua Health Centre CHPS Zone;;;;;
Offinso;Bonsua;;Bonsua Health Centre;;;;;
Offinso;Kwagyekrom;;Kwagyekrom CHPS Compound;;;;;
Offinso;Kwagyekrom;;Naama (Offinso) CHPS Zone;;;;;
Offinso;Offinso Central;;Agyeimpra CHPS Zone;;;;;
Offinso;Offinso Central;;Amoawi CHPS Zone;;;;;
Offinso;Offinso Central;;Asamankama CHPS Zone;;;;;
Offinso;Offinso Central;;Dentin-Antoa CHPS Zone;;;;;
Offinso;Offinso Central;;Dome-Abuasu CHPS Zone;;;;;
Offinso;Offinso Central;;Kokote CHPS Zone;;;;;
Offinso;Offinso Central;;Maase CHPS Zone;;;;;
Offinso;Offinso Central;;Obuasi (Offinso) CHPS Zone;;;;;
Offinso;Offinso Central;;Offinso Community Clinic;;;;;
Offinso;Offinso Central;;Offinso Health Centre;;;;;
Offinso;Offinso Central;;Offinso New Town CHPS Zone;;;;;
Offinso;Offinso Central;;Offinso Old Town CHPS Zone;;;;;
Offinso;Offinso Central;;Quality Care Clinic;;;;;
Offinso;Offinso Central;;Saaboa-Adukro CHPS Zone;;;;;
Offinso;Offinso Central;;St. Patrick's Catholic Hospital;;;;;
Offinso North;Akumadan;;A.M.E. Zion Health Centre;;;;;
Offinso North;Akumadan;;Ahenbronum (Afrancho) CHPS Zone;;;;;
Offinso North;Akumadan;;Akumadan Health Centre;;;;;
Offinso North;Akumadan;;Dreamland Community Clinic;;;;;
Offinso North;Akumadan;;Krofofrom (Afrancho) CHPS Zone;;;;;
Offinso North;Akumadan;;New Atwene CHPS Zone;;;;;
Offinso North;Akumadan;;New Mireku CHPS Zone;;;;;
Offinso North;Akumadan;;Nsuase (Afrancho) CHPS Zone;;;;;
Offinso North;Akumadan;;Nyinatase CHPS Zone;;;;;
Offinso North;Akumadan;;Old Atwene CHPS Zone;;;;;
Offinso North;Akumadan;;Old Mireku CHPS Zone;;;;;
Offinso North;Akumadan;;Sraneso No.1 CHPS;;;;;
Offinso North;Akumadan;;Zongo CHPS Zone;;;;;
Offinso North;Amponsakrom;;Amponsakrom CHPS Zone;;;;;
Offinso North;Amponsakrom;;Nsenoafie CHPS Zone;;;;;
Offinso North;Amponsakrom;;Nyamebekyere No. 1 CHPS Zone;;;;;
Offinso North;Amponsakrom;;Papasi CHPS Zone;;;;;
Offinso North;Amponsakrom;;Sarfokrom CHPS Zone;;;;;
Offinso North;Kobreso;;Akrofoa CHPS Zone;;;;;
Offinso North;Kobreso;;Kobreso Health Centre;;;;;
Offinso North;Kobreso;;Nkwakwaa CHPS Zone;;;;;
Offinso North;Kobreso;;Yaa Afriyie Memorial Clinic;;;;;
Offinso North;Mankramso;;Mankramso CHPS Zone;;;;;
Offinso North;Mankramso;;Tanokwaem CHPS Compound;;;;;
Offinso North;Nkenkaasu;;Darso CHPS Zone;;;;;
Offinso North;Nkenkaasu;;Ebuom CHPS Zone;;;;;
Offinso North;Nkenkaasu;;Esoro/Dome CHPS Zone;;;;;
Offinso North;Nkenkaasu;;Nkenkaasu Government Hospital;;;;;
Offinso North;Nkenkaasu;;Wawase CHPS Zone;;;;;
Sekyere-Afram Plains;Anyinofi;;Adonso CHPS Zone;;;;;
Sekyere-Afram Plains;Anyinofi;;Alhaji CHPS Zone;;;;;
Sekyere-Afram Plains;Anyinofi;;Anyinofi Health Centre;;;;;
Sekyere-Afram Plains;Anyinofi;;Saabum CHPS Zone;;;;;
Sekyere-Afram Plains;Anyinofi;;Saabuso CHPS Zone;;;;;
Sekyere-Afram Plains;Anyinofi;;Seneso CHPS Compond;;;;;
Sekyere-Afram Plains;Dawia;;Dawia CHPS Zone;;;;;
Sekyere-Afram Plains;Dawia;;Dawia Health Centre;;;;;
Sekyere-Afram Plains;Dawia;;Mempekasa CHPS Zone;;;;;
Sekyere-Afram Plains;Dawia;;Nyameama No. 2 CHPS Zone;;;;;
Sekyere-Afram Plains;Dawia;;Samso CHPS Zone;;;;;
Sekyere-Afram Plains;Drobonso;;Abdulai CHPS Zone;;;;;
Sekyere-Afram Plains;Drobonso;;Auntie Riek Health;;;;;
Sekyere-Afram Plains;Drobonso;;Bomofour CHPS Zone;;;;;
Sekyere-Afram Plains;Drobonso;;Dagomba CHPS Zone;;;;;
Sekyere-Afram Plains;Drobonso;;Drobonso CHPS Zone;;;;;
Sekyere-Afram Plains;Drobonso;;Drobonso RCH clinic;;;;;
Sekyere-Afram Plains;Drobonso;;Issakrom CHPS Zone;;;;;
Sekyere-Afram Plains;Drobonso;;Mamprusi I CHPS Zone;;;;;
Sekyere-Afram Plains;Drobonso;;St. Vincent's Catholic Clinic, Drobonso;;;;;
Sekyere-Afram Plains;Drobonso;;Wenamda CHPS Zone;;;;;
Sekyere-Afram Plains;Funsua;;Akoma CHPS Compound;;;;;
Sekyere-Afram Plains;Funsua;;Funsua CHPS;;;;;
Sekyere-Afram Plains;Funsua;;Funsua CHPS Compound;;;;;
Sekyere-Afram Plains;Funsua;;Hamidu CHPS Compound;;;;;
Sekyere-Afram Plains;Funsua;;Offe CHPS Zone;;;;;
Sekyere-Afram Plains;Funsua;;Yakubu CHPS Zone;;;;;
Sekyere Central;Asubuasu;;Asubuasu Health Centre;;;;;
Sekyere Central;Asubuasu;;Domi No. 2 CHPS;;;;;
Sekyere Central;Birem;;Birem Health Centre;;;;;
Sekyere Central;Birem;;Kyeyiase CHPS;;;;;
Sekyere Central;Kwamang;;Abodease Health Centre;;;;;
Sekyere Central;Kwamang;;Aframso Health Centre;;;;;
Sekyere Central;Kwamang;;Ankamadoa CHPS Zone;;;;;
Sekyere Central;Kwamang;;Atonsu CHPS Zone;;;;;
Sekyere Central;Kwamang;;Jeduako Health Centre;;;;;
Sekyere Central;Kwamang;;Kwamang East CHPS Zone;;;;;
Sekyere Central;Kwamang;;Kwamang Health Centre;;;;;
Sekyere Central;Kwamang;;Nkujua CHPS Zone;;;;;
Sekyere Central;Nsuta;;Abasua Presby Clinic;;;;;
Sekyere Central;Nsuta;;Abonkosu/ Kruwi CHPS Zone;;;;;
Sekyere Central;Nsuta;;Adutwam CHPS Compound;;;;;
Sekyere Central;Nsuta;;Amoamang CHPS Compound;;;;;
Sekyere Central;Nsuta;;Asokwah CHPS Zone;;;;;
Sekyere Central;Nsuta;;Asuafu CHPS Zone;;;;;
Sekyere Central;Nsuta;;Beposo Health Centre;;;;;
Sekyere Central;Nsuta;;Beposo West CHPS Zone;;;;;
Sekyere Central;Nsuta;;Jetiase CHPS Compound;;;;;
Sekyere Central;Nsuta;;Kyebi CHPS Compound;;;;;
Sekyere Central;Nsuta;;Mpentuase CHPS Zone;;;;;
Sekyere Central;Nsuta;;Nkwabirem CHPS Zone;;;;;
Sekyere Central;Nsuta;;Nsuta Health Centre;;;;;
Sekyere Central;Nsuta;;Nsuta Palace CHPS;;;;;
Sekyere Central;Nsuta;;Royal Care Clinic;;;;;
Sekyere Central;Oku;;Oku Catholic Clinic;;;;;
Sekyere East;Asokore;;Ahensan CHPS Zone;;;;;
Sekyere East;Asokore;;Ahmadiya (Sekyere East) Hospital;;;;;
Sekyere East;Asokore;;Ahwerewa CHPS Compound;;;;;
Sekyere East;Asokore;;Akokoaso Health Centre;;;;;
Sekyere East;Asokore;;Asokore East CHPS Zone;;;;;
Sekyere East;Asokore;;Asokore North CHPS Zone;;;;;
Sekyere East;Asokore;;Asokore South CHPS Zone;;;;;
Sekyere East;Asokore;;Bimma CHPS Zone;;;;;
Sekyere East;Asokore;;Naama CHPS Zone;;;;;
Sekyere East;Asokore;;Owramso CHPS Zone;;;;;
Sekyere East;Effiduase;;Akwamu CHPS Zone;;;;;
Sekyere East;Effiduase;;Boya Tetekaso CHPS Zone;;;;;
Sekyere East;Effiduase;;Capital Clinic;;;;;
Sekyere East;Effiduase;;Daaman CHPS Zone;;;;;
Sekyere East;Effiduase;;Divine Grace (Sekyere East) Clinic;;;;;
Sekyere East;Effiduase;;Effiduase East CHPS Zone;;;;;
Sekyere East;Effiduase;;Effiduase Government Hospital;;;;;
Sekyere East;Effiduase;;Effiduase North CHPS;;;;;
Sekyere East;Effiduase;;Ntumkumso CHPS;;;;;
Sekyere East;Mponua;;Awaham Brofedu Akuakrom CHPS;;;;;
Sekyere East;Mponua;;Nkwankwaanua CHPS;;;;;
Sekyere East;Mponua;;Oguaa CHPS;;;;;
Sekyere East;Mponua;;St. Luke's (Sekyere East) Health Centre;;;;;
Sekyere East;Nyanfa;;Odurokrom CHPS;;;;;
Sekyere East;Nyanfa;;Okaikrom (Sekyere East) Health Centre;;;;;
Sekyere East;Nyanfa;;Senchi Methodist (sekyere East) Clinic;;;;;
Sekyere South;Agona;;Afamanaso CHPS;;;;;
Sekyere South;Agona;;Agona Government Hospital;;;;;
Sekyere South;Agona;;Agona Asikafoamantem CHPS;;;;;
Sekyere South;Agona;;Agona Ayawoase CHPS;;;;;
Sekyere South;Agona;;Agona Owuoso CHPS;;;;;
Sekyere South;Agona;;Agona West CHPS;;;;;
Sekyere South;Agona;;Akrofonso CHPS;;;;;
Sekyere South;Agona;;Asamang Aburaso CHPS;;;;;
Sekyere South;Agona;;Asamang SDA Hospital;;;;;
Sekyere South;Agona;;Asamang Seawuo CHPS;;;;;
Sekyere South;Agona;;Bedomase CHPS;;;;;
Sekyere South;Agona;;Bipoa South CHPS;;;;;
Sekyere South;Agona;;Bipoa West CHPS;;;;;
Sekyere South;Agona;;Kofikrom CHPS;;;;;
Sekyere South;Agona;;Kona Brehoma CHPS;;;;;
Sekyere South;Jamasi;;Boanim Health Centre;;;;;
Sekyere South;Jamasi;;Boanim North CHPS Zone;;;;;
Sekyere South;Jamasi;;Boanim South CHPS;;;;;
Sekyere South;Jamasi;;Dawu/Tabre CHPS;;;;;
Sekyere South;Jamasi;;Dome/Amenase CHPS;;;;;
Sekyere South;Jamasi;;Jamasi Central CHPS;;;;;
Sekyere South;Jamasi;;Jamasi East CHPS;;;;;
Sekyere South;Jamasi;;Jamasi Health Centre;;;;;
Sekyere South;Jamasi;;Jamasi Tunsuom CHPS;;;;;
Sekyere South;Jamasi;;Pope John Paul II Medical Centre;;;;;
Sekyere South;Kona;;Domeabra Health Centre;;;;;
Sekyere South;Kona;;Domeabra/Krakrom CHPS;;;;;
Sekyere South;Kona;;Kona Addoagyiri CHPS;;;;;
Sekyere South;Kona;;Kona Health Centre;;;;;
Sekyere South;Kona;;Kona Seade CHPS;;;;;
Sekyere South;Kona;;Montonsua CHPS;;;;;
Sekyere South;Kona;;Tano-Odumase Ahenbronum CHPS;;;;;
Sekyere South;Kona;;Tano-Odumase Ebeye Yie CHPS;;;;;
Sekyere South;Wiamoase;;Bepoase New Town CHPS Zone;;;;;
Sekyere South;Wiamoase;;Bepoase Old Town CHPS Zone;;;;;
Sekyere South;Wiamoase;;Funifuni CHPS Zone;;;;;
Sekyere South;Wiamoase;;Sacred Heart Health Centre;;;;;
Sekyere South;Wiamoase;;Salvation Army Health Centre;;;;;
Sekyere South;Wiamoase;;Wiamoase Amangoase CHPS Zone;;;;;
Sekyere South;Wiamoase;;Wiamoase Ankaase CHPS Zone;;;;;
Sekyere South;Wiamoase;;Wiamoase Dominase South CHPS Zone;;;;;
Sekyere South;Wiamoase;;Wiamoase Dominase West CHPS Zone;;;;;
Sekyere South;Wiamoase;;Wiamoase Gyidim Mission CHPS Zone;;;;;
Sekyere South;Wiamoase;;Wiamoase SDA Hospital;;;;;
Sekyere-Kumawu;Bira Onwam;;Akrofonso CHPS;;;;;
Sekyere-Kumawu;Bira Onwam;;Banko Health Centre;;;;;
Sekyere-Kumawu;Bira Onwam;;Banko-Foase CHPS;;;;;
Sekyere-Kumawu;Bira Onwam;;Banko-Pramaso CHPS;;;;;
Sekyere-Kumawu;Bira Onwam;;Bomeng CHPS;;;;;
Sekyere-Kumawu;Bira Onwam;;Sekyere CHPS;;;;;
Sekyere-Kumawu;Bira Onwam;;Sekyere Health Centre;;;;;
Sekyere-Kumawu;Kumawu;;Abotanso CHPS Compound;;;;;
Sekyere-Kumawu;Kumawu;;Ahenbonoano CHPS;;;;;
Sekyere-Kumawu;Kumawu;;Apebeakyere CHPS;;;;;
Sekyere-Kumawu;Kumawu;;Kumawu Etia CHPS;;;;;
Sekyere-Kumawu;Kumawu;;Kumawu Government Polyclinic;;;;;
Sekyere-Kumawu;Kumawu;;Kumawu Market Square CHPS;;;;;
Sekyere-Kumawu;Kumawu;;Pepease CHPS Zone;;;;;
Sekyere-Kumawu;Kumawu;;Temate-Nkwanta CHPS Compound;;;;;
Sekyere-Kumawu;Kumawu;;Wonoo/Presby CHPS Zone;;;;;
Sekyere-Kumawu;Oyoko;;Akotosu Abreso CHPS;;;;;
Sekyere-Kumawu;Oyoko;;Akrokyere CHPS;;;;;
Sekyere-Kumawu;Oyoko;;Akrokyere CHPS Compound;;;;;
Sekyere-Kumawu;Oyoko;;Asekyerewa CHPS Compound;;;;;
Sekyere-Kumawu;Oyoko;;Dadiase Amangoase CHPS;;;;;
Sekyere-Kumawu;Oyoko;;Dove J Health Organisation;;;;;
Sekyere-Kumawu;Oyoko;;Oyoko Ahenbrono CHPS;;;;;
Sekyere-Kumawu;Oyoko;;Oyoko Health Centre;;;;;
Sekyere-Kumawu;Oyoko;;Oyoko Zongo Aburaso CHPS;;;;;
Sekyere-Kumawu;Oyoko;;Westphalian Eye Clinic;;;;;
Sekyere-Kumawu;Woraso;;Ananinya CHPS;;;;;
Sekyere-Kumawu;Woraso;;Bahankra CHPS;;;;;
Sekyere-Kumawu;Woraso;;Besoro CHPS;;;;;
Sekyere-Kumawu;Woraso;;Bodomase Banglow CHPS;;;;;
Sekyere-Kumawu;Woraso;;Bodomase Etia CHPS;;;;;
Sekyere-Kumawu;Woraso;;Bodomase Health Centre;;;;;
Sekyere-Kumawu;Woraso;;Bodomase Sawmill CHPS;;;;;
Sekyere-Kumawu;Woraso;;Jesus Care Voluntary Clinic;;;;;
Sekyere-Kumawu;Woraso;;Peace and Comfort Maternity Home;;;;;
Sekyere-Kumawu;Woraso;;Woraso CHPS;;;;;
Sekyere-Kumawu;Woraso;;Woraso Health Centre;;;;;
