LGA;Ward;Settlement;Facility;Type;Ownership;Address;Longitude;Latitude
Asutifi North;Gambia;;Biaso CHPS;;;;;
Asutifi North;Gambia;;Gambia Health Centre;;;;;
Asutifi North;Gambia;;Gambia No. 2 (Yaw Zambrama CHPS);;;;;
Asutifi North;Gambia;;Gambia No. 2 CHPS (Akokrabaako CHPS);;;;;
Asutifi North;Gambia;;Krakyekrom CHPS;;;;;
Asutifi North;Gambia;;Kwabenafo/Kasapin CHPS Zone;;;;;
Asutifi North;Gambia;;NSUTA CHPS ZONE;;;;;
Asutifi North;Goamu-Koforidua;;Atwedie CHPS (Asutifi North);;;;;
Asutifi North;Goamu-Koforidua;;Goamu Koforidua CHPS;;;;;
Asutifi North;Goamu-Koforidua;;Kensere CHPS;;;;;
Asutifi North;Goamu-Koforidua;;Kenyasi St Elizbeth Maternity Home;;;;;
Asutifi North;Goamu-Koforidua;;Kramokrom CHPS (Asutifi North);;;;;
Asutifi North;Gyedu;;Achiase CHPS;;;;;
Asutifi North;Gyedu;;Amomaso CHPS Zone;;;;;
Asutifi North;Gyedu;;Gyedu Health Centre;;;;;
Asutifi North;Gyedu;;Newsite/Manushed CHPS zone;;;;;
Asutifi North;Gyedu;;Ntotroso CHPS;;;;;
Asutifi North;Gyedu;;Wamahiniso CHPS;;;;;
Asutifi North;Gyedu;;Yawusukrom CHPS;;;;;
Asutifi North;Kenyasi;;Adum/Kwadaso CHPS;;;;;
Asutifi North;Kenyasi;;ASEMPANEYE/KWAKURI CHPS ZONE;;;;;
Asutifi North;Kenyasi;;BOGYAMPA CHPS ZONE;;;;;
Asutifi North;Kenyasi;;CARE PLUS CLINIC;;;;;
Asutifi North;Kenyasi;;Esther Maternity Home;;;;;
Asutifi North;Kenyasi;;Isos (asutifi) Clinic;;;;;
Asutifi North;Kenyasi;;JERICHO/AMPEDWE CHPS ZONE;;;;;
Asutifi North;Kenyasi;;Kenyasi Health Centre;;;;;
Asutifi North;Kenyasi;;Kenyasi No. 1 CHPS;;;;;
Asutifi North;Kenyasi;;Kenyasi No. 1 Habita CHPS;;;;;
Asutifi North;Kenyasi;;Newsite CHPS;;;;;
Asutifi North;Kenyasi;;Obengkrom CHPS;;;;;
Asutifi North;Kenyasi;;TUTUKA CHPS ZONE;;;;;
Asutifi South;Acherensua;;Acherensua Health Centre;;;;;
Asutifi South;Acherensua;;Akwamuhene Chps;;;;;
Asutifi South;Acherensua;;Atuahene Chps;;;;;
Asutifi South;Acherensua;;Konkontreso Chps;;;;;
Asutifi South;Acherensua;;Mantukwa Chps;;;;;
Asutifi South;Dadiesoaba;;Akotosu Chps;;;;;
Asutifi South;Dadiesoaba;;Apebuoso CHPS;;;;;
Asutifi South;Dadiesoaba;;Beposo Chps;;;;;
Asutifi South;Dadiesoaba;;Blessed Family Maternity Home;;;;;
Asutifi South;Dadiesoaba;;Dadiesoaba Health Centre;;;;;
Asutifi South;Dadiesoaba;;Manhyia Chps;;;;;
Asutifi South;Dadiesoaba;;Mehame Chpsy;;;;;
Asutifi South;Dadiesoaba;;Nana Konto CHPS;;;;;
Asutifi South;Dadiesoaba;;Sienchem Rural Clinic;;;;;
Asutifi South;Dadiesoaba;;Sunkwa Chps;;;;;
Asutifi South;Dadiesoaba;;Twabidi Chps;;;;;
Asutifi South;Dadiesoaba;;Wantase Chps;;;;;
Asutifi South;Hwidiem;;Asanteagya CHPS;;;;;
Asutifi South;Hwidiem;;Asona CHPS;;;;;
Asutifi South;Hwidiem;;Family Planning Clinic;;;;;
Asutifi South;Hwidiem;;Hwidiem St Elizabeth Hospital;;;;;
Asutifi South;Hwidiem;;Hwidiem Township Rch Clinic;;;;;
Asutifi South;Hwidiem;;Sorogya CHPS;;;;;
Asutifi South;Nkaseim;;Apenemadi CHPS Compound;;;;;
Asutifi South;Nkaseim;;Apotoyowa Chps;;;;;
Asutifi South;Nkaseim;;Beposo East CHPS;;;;;
Asutifi South;Nkaseim;;Beposo South CHPS;;;;;
Asutifi South;Nkaseim;;Bonmu CHPS;;;;;
Asutifi South;Nkaseim;;Nkaseim Health Center;;;;;
Asutifi South;Nkaseim;;Nkrankrom Chps;;;;;
Asutifi South;Nkaseim;;TwiKrom Chps;;;;;
Asutifi South;Nkaseim;;Woramumuso Chps;;;;;
Atebubu-Amanten;Amanten;;Abamba CHPS;;;;;
Atebubu-Amanten;Amanten;;Ahenbronoso CHPS;;;;;
Atebubu-Amanten;Amanten;;Akokoa Health Center;;;;;
Atebubu-Amanten;Amanten;;Amanten Health Center;;;;;
Atebubu-Amanten;Amanten;;Dagaati Line CHPS;;;;;
Atebubu-Amanten;Amanten;;Guruma Line CHPS;;;;;
Atebubu-Amanten;Amanten;;Kroagya CHPS;;;;;
Atebubu-Amanten;Amanten;;Market Square CHPS;;;;;
Atebubu-Amanten;Amanten;;Yawkromah CHPS;;;;;
Atebubu-Amanten;Atebubu;;Ahenfie CHPS;;;;;
Atebubu-Amanten;Atebubu;;Akomade Clinic;;;;;
Atebubu-Amanten;Atebubu;;Aprade CHPS;;;;;
Atebubu-Amanten;Atebubu;;Atebubu Hospital;;;;;
Atebubu-Amanten;Atebubu;;Atecoe CHPS;;;;;
Atebubu-Amanten;Atebubu;;Auntie Joe Maternity Home;;;;;
Atebubu-Amanten;Atebubu;;Duabone CHPS;;;;;
Atebubu-Amanten;Atebubu;;Kumkumso CHPS;;;;;
Atebubu-Amanten;Atebubu;;Mem CHPS;;;;;
Atebubu-Amanten;Atebubu;;Mempeasem CHPS;;;;;
Atebubu-Amanten;Atebubu;;Oil Mills CHPS;;;;;
Atebubu-Amanten;Atebubu;;Tuse CHPS;;;;;
Atebubu-Amanten;Atebubu;;Watro CHPS;;;;;
Atebubu-Amanten;Atebubu;;Woodland Medical Center;;;;;
Atebubu-Amanten;Atebubu;;Zongo Community;;;;;
Atebubu-Amanten;Atebubu;;Zongo No.1 CHPS;;;;;
Atebubu-Amanten;Garadima;;Kokofu CHPS (Atebubu);;;;;
Atebubu-Amanten;Garadima;;Garadima CHPSity;;;;;
Atebubu-Amanten;Garadima;;Jato. Zongo;;;;;
Atebubu-Amanten;Garadima;;Dobidi CHPS;;;;;
Atebubu-Amanten;Garadima;;Dobidi Nkwanta CHPS;;;;;
Atebubu-Amanten;Garadima;;Jato Zongo Clinic;;;;;
Atebubu-Amanten;Garadima;;N-Konkrompe CHPS;;;;;
Atebubu-Amanten;Garadima;;Yaw Bruku CHPS;;;;;
Atebubu-Amanten;Kumfia;;Fakwesi CHPS;;;;;
Atebubu-Amanten;Kumfia;;Kumfia Clinic;;;;;
Atebubu-Amanten;Kumfia;;Murunchus CHPS;;;;;
Atebubu-Amanten;Nyomoase;;Nyasibu CHPS;;;;;
Atebubu-Amanten;Nyomoase;;Nyomoase CHPS;;;;;
Asunafo North;Akrodie;;Akrodie Health Centre;;;;;
Asunafo North;Akrodie;;Asafo-Akrodie Chps;;;;;
Asunafo North;Akrodie;;Manhyia;;;;;
Asunafo North;Akrodie;;Manukrom Chps;;;;;
Asunafo North;Akrodie;;Mensahkrom Chps;;;;;
Asunafo North;Akrodie;;Tweneboa CHPS;;;;;
Asunafo North;Asumura;;Anyimaye Chps;;;;;
Asunafo North;Asumura;;Asumura Health Centre;;;;;
Asunafo North;Asumura;;Manhyia Chps;;;;;
Asunafo North;Asumura;;Pomaakrom;;;;;
Asunafo North;Ayomso;;Asuboi/Ahenboano;;;;;
Asunafo North;Ayomso;;Ayomso Ahenboano Chps;;;;;
Asunafo North;Ayomso;;Ayomso Health Centre;;;;;
Asunafo North;Ayomso;;Fawohoyeden Health Centre;;;;;
Asunafo North;Ayomso;;Fawoyeden Chps;;;;;
Asunafo North;Ayomso;;Gyasikrom - CHPS;;;;;
Asunafo North;Ayomso;;Kumaho;;;;;
Asunafo North;Ayomso;;Kwaku Dua CHPS;;;;;
Asunafo North;Goaso;;Abotanso Chps;;;;;
Asunafo North;Goaso;;Agyei Mensah Maternity Home;;;;;
Asunafo North;Goaso;;Aheneboano Chps;;;;;
Asunafo North;Goaso;;Cross Care Clinic;;;;;
Asunafo North;Goaso;;Dankwa Maternity;;;;;
Asunafo North;Goaso;;Goaso Municipal Hospital;;;;;
Asunafo North;Goaso;;Nyamebekyere/Asuadai;;;;;
Asunafo North;Goaso;;Shabasha Clinic;;;;;
Asunafo North;Kasapin;;Ampenkro Health Centre;;;;;
Asunafo North;Kasapin;;Bitre CHPS Compound;;;;;
Asunafo North;Kasapin;;C.o.p Clinic;;;;;
Asunafo North;Kasapin;;Dankwa Mat Home;;;;;
Asunafo North;Kasapin;;Dominase;;;;;
Asunafo North;Kasapin;;Wam CHPS;;;;;
Asunafo North;Mim;;Ahmadiyya Muslim Hospital;;;;;
Asunafo North;Mim;;Ayum Forest Products;;;;;
Asunafo North;Mim;;Bediako Chps;;;;;
Asunafo North;Mim;;Life Care Clinic;;;;;
Asunafo North;Mim;;Mim Airport;;;;;
Asunafo North;Mim;;Mim Central;;;;;
Asunafo North;Mim;;Mim Health Centre;;;;;
Asunafo North;Mim;;Nana Bofah;;;;;
Asunafo South;Abuom;;Abuom Rural Clinic;;;;;
Asunafo South;Abuom;;Asarekrom CHPS;;;;;
Asunafo South;Abuom;;Cocoa Clinic-100 Acre CHPS;;;;;
Asunafo South;Abuom;;Druwakrom CHPS;;;;;
Asunafo South;Abuom;;Nakete CHPS;;;;;
Asunafo South;Abuom;;New Sawereso CHPS;;;;;
Asunafo South;Abuom;;Tetekwaw CHPS;;;;;
Asunafo South;Kukuom;;Dantono CHPS;;;;;
Asunafo South;Kukuom;;Kukuom Health Centre;;;;;
Asunafo South;Kukuom;;Noberkaw CHPS;;;;;
Asunafo South;Kukuom;;SIANA CHPS;;;;;
Asunafo South;Kukuom;;Victoria (Asunafo South) Maternity Home;;;;;
Asunafo South;Kwapong;;Agyarekrom Chps;;;;;
Asunafo South;Kwapong;;Atotrom Chps;;;;;
Asunafo South;Kwapong;;Kwapong Rural Clinic;;;;;
Asunafo South;Kwapong;;OPPONGKROM CHPS;;;;;
Asunafo South;Sankore;;Adwuman Chps;;;;;
Asunafo South;Sankore;;Beposo CHPS;;;;;
Asunafo South;Sankore;;Kokooso CHPS;;;;;
Asunafo South;Sankore;;Sankore Health Centre;;;;;
Asunafo South;Sankore;;Star of Hope Hospita;;;;;
Asunafo South;Sankore;;Star of Light Hospital;;;;;
Banda;Banda Ahenkro;;Banda Ahenkro Health Centre;;;;;
Banda;Bongase;;Bui CHPS 1;;;;;
Banda;Bongase;;Bui Medical Center;;;;;
Banda;Bongase;;Bui Rural Clinic;;;;;
Banda;Dorbor;;DORBOR CHPS;;;;;
Banda;Sabiye;;BOASE CHPS;;;;;
Banda;Sabiye;;Bofie CHPS;;;;;
Banda;Sabiye;;Fawoman CHPS;;;;;
Banda;Sabiye;;Nyire CHPS;;;;;
Banda;Sabiye;;Sabiye Health Center;;;;;
Banda;Sabiye;;Wewa CHPS;;;;;
Berekum;Berekum Central;;Akatim CHPS;;;;;
Berekum;Berekum Central;;Awerempe CHPS;;;;;
Berekum;Berekum Central;;Ayakorase CHPS;;;;;
Berekum;Berekum Central;;Christian Eye Care (berekum);;;;;
Berekum;Berekum Central;;Palm Avenue Maternity;;;;;
Berekum;Berekum Central;;RCH/DHD (berekum) Clinic;;;;;
Berekum;Berekum Central;;Senase CHPS;;;;;
Berekum;Berekum East;;Sabon Zongo CHPS ( BKM);;;;;
Berekum;Berekum East;;Christie Maternity;;;;;
Berekum;Berekum East;;Clean Hands (berekum) Maternity;;;;;
Berekum;Berekum East;;Kutre I CHPS;;;;;
Berekum;Berekum East;;Kutre No.2 CHPS;;;;;
Berekum;Berekum East;;Namasua CHPS;;;;;
Berekum;Berekum East;;Nyamebekyere CHPS (BKM);;;;;
Berekum;Berekum East;;Zongo (berekum) Clinic;;;;;
Berekum;Berekum East;;Zongo CHPS ( BKM);;;;;
Berekum;Berekum North;;Aggie (berekum) Maternity;;;;;
Berekum;Berekum North;;Akrofro CHPS;;;;;
Berekum;Berekum North;;Amankokwa CHPS (Jinijini);;;;;
Berekum;Berekum North;;Angels Maternity;;;;;
Berekum;Berekum North;;Koraso Hc;;;;;
Berekum;Berekum North;;Mercy (berekum) Clinic;;;;;
Berekum;Berekum North;;Mpatasie Rehab Centre;;;;;
Berekum;Berekum North;;Philomina Maternity;;;;;
Berekum;Berekum North;;Tewbabi CHPS;;;;;
Berekum;Berekum South;;Anyinasu (berekum) CHPS;;;;;
Berekum;Berekum South;;BETCO CHPS;;;;;
Berekum;Berekum South;;Emi Maternity;;;;;
Berekum;Berekum South;;Gracefield Maternity Clinic;;;;;
Berekum;Berekum South;;Kato CHPS;;;;;
Berekum;Berekum South;;Kyiribaa /Downtown CHPS;;;;;
Berekum;Berekum West;;Abts Clinic;;;;;
Berekum;Berekum West;;Amomaso CHPS;;;;;
Berekum;Berekum West;;Amomaso Clinic;;;;;
Berekum;Berekum West;;Biadan CHPS;;;;;
Berekum;Berekum West;;Dr Larbi;;;;;
Berekum;Berekum West;;Holy Family (berekum) Hospital;;;;;
Berekum;Berekum West;;Kyereyawkrom CHPSy;;;;;
Berekum;Berekum West;;Nsarpo CHPS;;;;;
Berekum;Jinijini;;Ayimom CHPS;;;;;
Berekum;Jinijini;;Botokrom CHPS;;;;;
Berekum;Jinijini;;Botokrom Rural Clinic;;;;;
Berekum;Jinijini;;Domfete CHPS;;;;;
Berekum;Jinijini;;Fetentaa CHPS;;;;;
Berekum;Jinijini;;Jinijini CHPS;;;;;
Berekum;Jinijini;;Jinjini Health Centre;;;;;
Berekum;Jinijini;;Nkyekyemam CHPS;;;;;
Dormaa Central;Aboabo (brong Ahafo);;Aboabo (BAR) No. 4 CHPS;;;;;
Dormaa Central;Aboabo (brong Ahafo);;Aboabo Presby Health Centre;;;;;
Dormaa Central;Aboabo (brong Ahafo);;Kwameasua Presby Health Centre;;;;;
Dormaa Central;Aboabo (brong Ahafo);;Manteware CHPS;;;;;
Dormaa Central;Aboabo (brong Ahafo);;Tronang CHPS;;;;;
Dormaa Central;Amasu;;Amasu Health Centre;;;;;
Dormaa Central;Amasu;;Surpong CHPS;;;;;
Dormaa Central;Asikasu;;Asikasu/Nsuhia Health Centre;;;;;
Dormaa Central;Asikasu;;Atensu CHPS;;;;;
Dormaa Central;Asikasu;;Masu/Kuren CHPS;;;;;
Dormaa Central;Asikasu;;Mpamsu CHPS;;;;;
Dormaa Central;Danyame;;Asunsu No. 1 CHPS;;;;;
Dormaa Central;Danyame;;Dabaabi CHPS;;;;;
Dormaa Central;Danyame;;Danyame Health Centre;;;;;
Dormaa Central;Danyame;;Nsesereso CHPS;;;;;
Dormaa Central;Danyame;;Nsesereso Community Clinic;;;;;
Dormaa Central;Dormaa Ahenkro;;Abonsrakrom CHPS;;;;;
Dormaa Central;Dormaa Ahenkro;;Agyemankrom CHPS;;;;;
Dormaa Central;Dormaa Ahenkro;;Ahenboboano (Dormaa Municipal) CHPS;;;;;
Dormaa Central;Dormaa Ahenkro;;Ankordiem CHPS;;;;;
Dormaa Central;Dormaa Ahenkro;;Antwirifo Presby Clinic;;;;;
Dormaa Central;Dormaa Ahenkro;;Atesikrom CHPS;;;;;
Dormaa Central;Dormaa Ahenkro;;Atoase (Dormaa Municipal) CHPS;;;;;
Dormaa Central;Dormaa Ahenkro;;Badukrom CHPS;;;;;
Dormaa Central;Dormaa Ahenkro;;Broniasua CHPS;;;;;
Dormaa Central;Dormaa Ahenkro;;Denmidal Health Services;;;;;
Dormaa Central;Dormaa Ahenkro;;Dormaa Ahenkro Central CHPS;;;;;
Dormaa Central;Dormaa Ahenkro;;Dormaa Ahenkro Rch;;;;;
Dormaa Central;Dormaa Ahenkro;;Dormaa Presby Hosp;;;;;
Dormaa Central;Dormaa Ahenkro;;Dwen CHPS;;;;;
Dormaa Central;Dormaa Ahenkro;;Gonokrom CHPS;;;;;
Dormaa Central;Dormaa Ahenkro;;Kofiasua Community clinic;;;;;
Dormaa Central;Dormaa Ahenkro;;Kosane CHPS;;;;;
Dormaa Central;Dormaa Ahenkro;;Ohenewaa Memorial Clinic;;;;;
Dormaa Central;Dormaa Ahenkro;;Pamu CHPS;;;;;
Dormaa Central;Dormaa Ahenkro;;Pure heart clinic/maternity home;;;;;
Dormaa Central;Dormaa Ahenkro;;Saviour Clinic;;;;;
Dormaa Central;Dormaa Ahenkro;;Schaeffer CHPS;;;;;
Dormaa Central;Dormaa Ahenkro;;Sromani CHPS;;;;;
Dormaa Central;Dormaa Ahenkro;;Tweapeasie CHPS;;;;;
Dormaa Central;Dormaa Ahenkro;;Twumkrom CHPS;;;;;
Dormaa Central;Dormaa Ahenkro;;Yawkrom/KKK CHPS;;;;;
Dormaa Central;Dormaa Ahenkro;;Yeboah Afari CHPS;;;;;
Dormaa East;Dormaa Akwamu;;Akontanim Newtown CHPS;;;;;
Dormaa East;Dormaa Akwamu;;Akontanim CHPS Compound;;;;;
Dormaa East;Dormaa Akwamu;;Asante Akim CHPS;;;;;
Dormaa East;Dormaa Akwamu;;Asuotiano CHPS Compound;;;;;
Dormaa East;Dormaa Akwamu;;Dome Agogo CHPS;;;;;
Dormaa East;Dormaa Akwamu;;Dormaa Akwamu Health Centre;;;;;
Dormaa East;Dormaa Akwamu;;Kobedi Asupra CHPS;;;;;
Dormaa East;Dormaa Akwamu;;Kumagymire CHPS;;;;;
Dormaa East;Dormaa Akwamu;;Nseseresu Asuhyiae CHPS;;;;;
Dormaa East;Dormaa Akwamu;;Takoradi CHPS;;;;;
Dormaa East;Kyeremasu;;Ahenboboano CHPS Compound;;;;;
Dormaa East;Kyeremasu;;Kyeremasu Presby Clinic;;;;;
Dormaa East;Kyeremasu;;Kofibourkrom CHPS;;;;;
Dormaa East;Wamanafo;;Ampenkro CHPS;;;;;
Dormaa East;Wamanafo;;Begyewe CHPS;;;;;
Dormaa East;Wamanafo;;Bishop Matthew Gyamfi Clinic;;;;;
Dormaa East;Wamanafo;;Peprah CHPS Compound;;;;;
Dormaa East;Wamanafo;;Rachel Maternity Home;;;;;
Dormaa East;Wamanafo;;Wamanafo Newtown CHPS;;;;;
Dormaa East;Wamfie;;Bronikrom CHPS Compound;;;;;
Dormaa East;Wamfie;;Danyame Amomaho CHPS;;;;;
Dormaa East;Wamfie;;Habitat CHPS Compound;;;;;
Dormaa East;Wamfie;;Otu Park CHPS Compound;;;;;
Dormaa East;Wamfie;;Poultry CHPS;;;;;
Dormaa East;Wamfie;;Sawmill CHPS;;;;;
Dormaa East;Wamfie;;Wamfie Government Hospital;;;;;
Dormaa East;Wamfie;;Zongo CHPS;;;;;
Dormaa West;Kwabena dwomokrom;;Kwabenadwomokrom Health centre;;;;;
Dormaa West;Kwabena dwomokrom;;Nkwantaso Health Centre;;;;;
Dormaa West;Kwadwokumikrom;;Kwadwokumikrom Presby Clinic;;;;;
Dormaa West;Nkrankwanta;;Aheneboboano CHPS Zone;;;;;
Dormaa West;Nkrankwanta;;Awiakrom Clinic;;;;;
Dormaa West;Nkrankwanta;;Brofoyebru Chps;;;;;
Dormaa West;Nkrankwanta;;Ceci. Maternity Home;;;;;
Dormaa West;Nkrankwanta;;Gyaase Chps Zone;;;;;
Dormaa West;Nkrankwanta;;Krakrom CHPS;;;;;
Dormaa West;Nkrankwanta;;Kwakuanya Ebenezer Methodist Clinic;;;;;
Dormaa West;Nkrankwanta;;Kwame Yeboah krom CHPS;;;;;
Dormaa West;Nkrankwanta;;Nangom/Kookookrom;;;;;
Dormaa West;Nkrankwanta;;New Chiraa Health Centre;;;;;
Dormaa West;Nkrankwanta;;Nkrankwanta Polyclinic Centre;;;;;
Dormaa West;Nkrankwanta;;Tokurom/Asikafoamantem Chps Zone;;;;;
Dormaa West;Nkrankwanta;;Wamline Chps Zone;;;;;
Dormaa West;Nkrankwanta;;Yawowusukrom Chps zone;;;;;
Dormaa West;Yaakrom;;Diabaakrom CHPS;;;;;
Dormaa West;Yaakrom;;Yaakrom Presby Health Centre;;;;;
Jaman North;Adadiem;;Adadiem Health Centre;;;;;
Jaman North;Adadiem;;Bonakire CHPS;;;;;
Jaman North;Adadiem;;Jamera CHPS;;;;;
Jaman North;Adadiem;;Jenini CHPS;;;;;
Jaman North;Duadaso;;Duadaso Health Centre;;;;;
Jaman North;Duadaso;;Kokoa Health Centre;;;;;
Jaman North;Goka;;Asantekrom (Jaman North) CHPS;;;;;
Jaman North;Goka;;Asiri CHPS;;;;;
Jaman North;Goka;;Asuokor Health Centre;;;;;
Jaman North;Goka;;Buni CHPS;;;;;
Jaman North;Goka;;Goka Health Centre;;;;;
Jaman North;Goka;;Jankufa CHPS;;;;;
Jaman North;Goka;;Johnson's Clinic;;;;;
Jaman North;Sampa;;Fountain Care Hospital;;;;;
Jaman North;Sampa;;Holy Daniel's Clinic, Sampa;;;;;
Jaman North;Sampa;;Kabile CHPS;;;;;
Jaman North;Sampa;;RCH/Disease Control Clinic;;;;;
Jaman North;Sampa;;Sampa Government Hospital;;;;;
Jaman North;Seketia;;Amanfoso CHPS;;;;;
Jaman North;Seketia;;Kokosua CHPS;;;;;
Jaman North;Seketia;;Nsonsomea CHPS;;;;;
Jaman North;Seketia;;Seketia Health Centre;;;;;
Jaman North;Suma;;Dawiri CHPS;;;;;
Jaman North;Suma;;Mayera CHPS;;;;;
Jaman North;Suma;;Suma Presby Health Centre;;;;;
Jaman South;Abirikasu;;Abirikasu Health Centre;;;;;
Jaman South;Abirikasu;;Angel Mat Home;;;;;
Jaman South;Abirikasu;;Atuna CHPS;;;;;
Jaman South;Abirikasu;;Baatea Chps;;;;;
Jaman South;Abirikasu;;Buobunu CHPS Zone;;;;;
Jaman South;Abirikasu;;Konfourkrom chps;;;;;
Jaman South;Abirikasu;;Konsia chps;;;;;
Jaman South;Abirikasu;;Kwasimossi CHPS;;;;;
Jaman South;Adamsu;;Adamsu Health Centre;;;;;
Jaman South;Adamsu;;Asare Rural Clinic;;;;;
Jaman South;Adamsu;;Biama CHPS;;;;;
Jaman South;Adamsu;;Bodaa Rural Clinic;;;;;
Jaman South;Adamsu;;Mpeasem CHPS;;;;;
Jaman South;Adamsu;;Mpuasu CHPS Zone;;;;;
Jaman South;Adamsu;;New town CHPS;;;;;
Jaman South;Adamsu;;Old town CHPS;;;;;
Jaman South;Adamsu;;St Michael (jaman South) Mat Home;;;;;
Jaman South;Adamsu;;Taiano CHPS;;;;;
Jaman South;Drobo;;Babianiha CHPS Zone;;;;;
Jaman South;Drobo;;Drobo Polyclinic;;;;;
Jaman South;Drobo;;Drobo Rch;;;;;
Jaman South;Drobo;;Drobo St Mary Hospital;;;;;
Jaman South;Drobo;;Drobo West CHPS;;;;;
Jaman South;Drobo;;Dwenem Rural Clinic;;;;;
Jaman South;Drobo;;Faman CHPS Zone;;;;;
Jaman South;Drobo;;Japekrom CHPS Zone;;;;;
Jaman South;Drobo;;Kofiko CHPS Zone;;;;;
Jaman South;Drobo;;Krupiase CHPS Zone;;;;;
Jaman South;Drobo;;Kwasibuokrom CHPS Zone;;;;;
Jaman South;Drobo;;Lizzy (jaman South) Maternity Home;;;;;
Jaman South;Drobo;;Pewu CHPS;;;;;
Jaman South;Drobo;;Psychiatric Unit;;;;;
Jaman South;Gonasua;;Baano Rural Clinic;;;;;
Jaman South;Gonasua;;Dodosuo CHPS Zone;;;;;
Jaman South;Gonasua;;Gonasua Health Centre;;;;;
Jaman South;Gonasua;;Ketekyiakrom CHPS Zone;;;;;
Jaman South;Gonasua;;Kwameseikrom CHPS Zone;;;;;
Jaman South;Gonasua;;Sebreni CHPS Zone;;;;;
Jaman South;Gonasua;;Vida Maternity Home;;;;;
Jaman South;Jenjemireja;;Abuokrom Chips;;;;;
Jaman South;Jenjemireja;;Asougya chps;;;;;
Jaman South;Jenjemireja;;Miremano chps;;;;;
Jaman South;Jenjemireja;;Nyamefie chps;;;;;
Jaman South;Jenjemireja;;Presbyterian (jaman South) Clinic;;;;;
Jaman South;Jenjemireja;;Tekese Chps;;;;;
Jaman South;Jenjemireja;;Yaamansa CHPs;;;;;
Jaman South;Zezera;;Adiokor 1 CHPS;;;;;
Jaman South;Zezera;;Adiokor Rural Clinic;;;;;
Jaman South;Zezera;;Asempanaye CHPS;;;;;
Jaman South;Zezera;;Kofitiakrom CHPS Zone;;;;;
Jaman South;Zezera;;Kwamepim CHPS;;;;;
Jaman South;Zezera;;Saviour (jaman South) Maternity Home;;;;;
Jaman South;Zezera;;Zezera Health Centre;;;;;
Kintampo North;Busuama;;BANIANTWE CHPS;;;;;
Kintampo North;Busuama;;Busuama Health Centre;;;;;
Kintampo North;Busuama;;Manchalla CHPS;;;;;
Kintampo North;Dawadawa;;Jato Kura CHPS;;;;;
Kintampo North;Dawadawa;;Dawadawa Heath Center;;;;;
Kintampo North;Dawadawa;;Atta Akura CHPS;;;;;
Kintampo North;Gulumpe;;Gulumpe CHPS;;;;;
Kintampo North;Gulumpe;;Kawampe CHPS;;;;;
Kintampo North;Gulumpe;;Portor CHPS;;;;;
Kintampo North;Kadelso;;Kadelso CHPS;;;;;
Kintampo North;Kadelso;;Kurawura-Akura CHPS;;;;;
Kintampo North;Kintampo;;Annor Asare Hospital;;;;;
Kintampo North;Kintampo;;Babatorkuma CHPS;;;;;
Kintampo North;Kintampo;;Glory Prince Of Peace Maternity;;;;;
Kintampo North;Kintampo;;Japan House CHPS;;;;;
Kintampo North;Kintampo;;Kintampo Muni Hospital;;;;;
Kintampo North;Kintampo;;Kintampo Rch;;;;;
Kintampo North;Kintampo;;Kyeremankuma CHPS;;;;;
Kintampo North;Kintampo;;MPs CHPS;;;;;
Kintampo North;Kintampo;;Nutrition Rehabilitation Centre;;;;;
Kintampo North;Kintampo;;Sunkwa (kintampo North) Clinic;;;;;
Kintampo North;Kintampo;;Yezura Clinic;;;;;
Kintampo North;Kunsu;;Badu Kura CHPS;;;;;
Kintampo North;Kunsu;;Kobeda NO. 2 CHPS;;;;;
Kintampo North;Kunsu;;Kunsu Health Center;;;;;
Kintampo North;Kunsu;;Miawani CHPS;;;;;
Kintampo North;New Longoro;;Asantekwa CHPS;;;;;
Kintampo North;New Longoro;;Dwere/Gomboi CHPS;;;;;
Kintampo North;New Longoro;;New Longoro Health Centre;;;;;
Kintampo South;Amoma;;Agyina CHPS;;;;;
Kintampo South;Amoma;;Amoma East CHPS;;;;;
Kintampo South;Amoma;;Amoma Health Center;;;;;
Kintampo South;Amoma;;Amoma West CHPS;;;;;
Kintampo South;Amoma;;Pamdu CHPS;;;;;
Kintampo South;Amoma;;Paninamisa CHPS Cpd;;;;;
Kintampo South;Amoma;;Pramposo CHPS Cpd;;;;;
Kintampo South;Anyima;;Agyegyemakunu CHPS Cpd;;;;;
Kintampo South;Anyima;;Anyima East CHPS;;;;;
Kintampo South;Anyima;;Anyima Health Center;;;;;
Kintampo South;Anyima;;Anyima West CHPS;;;;;
Kintampo South;Anyima;;Hyireso CHPS;;;;;
Kintampo South;Anyima;;Krabonso CHPS Cpd;;;;;
Kintampo South;Apesika;;Apesika CHPS Compound;;;;;
Kintampo South;Apesika;;Apesika East CHPS;;;;;
Kintampo South;Apesika;;Apesika West CHPS;;;;;
Kintampo South;Apesika;;Kwabia CHPS Cpd;;;;;
Kintampo South;Apesika;;Ntankoro CHPS Cpd;;;;;
Kintampo South;Apesika;;Perpetual Help Mat Home;;;;;
Kintampo South;Dumso;;Bredi CHPS Cpd;;;;;
Kintampo South;Dumso;;Chirehin CHPS Cpd;;;;;
Kintampo South;Dumso;;Dumso Bethel CHPS;;;;;
Kintampo South;Jema;;Ampoma CHPS Cpd;;;;;
Kintampo South;Jema;;Apaaso CHPS;;;;;
Kintampo South;Jema;;Jema East CHPS;;;;;
Kintampo South;Jema;;Jema Nkwanta CHPS;;;;;
Kintampo South;Jema;;Jema RCH;;;;;
Kintampo South;Jema;;Jema West CHPS;;;;;
Kintampo South;Jema;;Kintampo South District Hospital;;;;;
Kintampo South;Jema;;Kokuma CHPS;;;;;
Kintampo South;Jema;;Nante CHPS Cpd;;;;;
Kintampo South;Mansie;;Ayorya CHPS Cpd;;;;;
Kintampo South;Mansie;;Mansie CHPS Cpd;;;;;
Kintampo South;Mansie;;Nkwanta CHPS;;;;;
Kintampo South;Mansie;;Sabule CHPS Cpd;;;;;
Nkoranza North;Busunya;;Bomini CHPS;;;;;
Nkoranza North;Busunya;;Bonte CHPS;;;;;
Nkoranza North;Busunya;;Busunya Health Centre;;;;;
Nkoranza North;Busunya;;Busunya West CHPS;;;;;
Nkoranza North;Busunya;;Busunya-Odumase CHPS;;;;;
Nkoranza North;Busunya;;Fiema CHPS;;;;;
Nkoranza North;Busunya;;Timeabu/Taaho CHPS;;;;;
Nkoranza North;Dromankese;;Ahenbrono CHPS;;;;;
Nkoranza North;Dromankese;;Asuofu/Pado CHPS;;;;;
Nkoranza North;Dromankese;;Dromankese Health Centre;;;;;
Nkoranza North;Dromankese;;Dromankuma CHPS;;;;;
Nkoranza North;Dromankese;;Kuuso/Dinkra CHPS;;;;;
Nkoranza North;Dromankese;;Pieyiennah CHPS;;;;;
Nkoranza North;Kranka;;Asekye CHPS;;;;;
Nkoranza North;Kranka;;Baafi CHPS;;;;;
Nkoranza North;Kranka;;Bono Manso CHPS;;;;;
Nkoranza North;Kranka;;Dwenewoho CHPS;;;;;
Nkoranza North;Kranka;;Kranka Health Centre;;;;;
Nkoranza North;Kranka;;Sikaa CHPS;;;;;
Nkoranza North;Kranka;;Tom/Adoe CHPS;;;;;
Nkoranza North;Yefri;;Boana CHPS;;;;;
Nkoranza North;Yefri;;Bodom CHPS;;;;;
Nkoranza North;Yefri;;Pinihin CHPS;;;;;
Nkoranza North;Yefri;;Senya CHPS;;;;;
Nkoranza North;Yefri;;Tankor/Domeabra CHPS;;;;;
Nkoranza North;Yefri;;Yefri Health Centre;;;;;
Nkoranza South;Ahyiayem;;Ahyiayem Health Centre;;;;;
Nkoranza South;Ahyiayem;;Dasagua CHPS;;;;;
Nkoranza South;Ahyiayem;;Pruso CHPS;;;;;
Nkoranza South;Akuma;;Akuma Health Centre;;;;;
Nkoranza South;Akuma;;Brehoho CHPS;;;;;
Nkoranza South;Akuma;;Hwediem CHPS;;;;;
Nkoranza South;Akuma;;Makyinmabre CHPS;;;;;
Nkoranza South;Akuma;;Nsunensa CHPS;;;;;
Nkoranza South;Ayerede;;Akropong CHPS;;;;;
Nkoranza South;Ayerede;;Ayerede Health Centre;;;;;
Nkoranza South;Ayerede;;Dandwa CHPS;;;;;
Nkoranza South;Bonsu;;Asonkwaa CHPS;;;;;
Nkoranza South;Bonsu;;Bonsu (nkoranza South) Health Centre;;;;;
Nkoranza South;Bonsu;;Dotobaa CHPS;;;;;
Nkoranza South;Bonsu;;Rabito (nkoranza South) Clinic;;;;;
Nkoranza South;Bonsu;;Wagadugu CHPS;;;;;
Nkoranza South;Donkro Nkwanta;;Donkro Nkwanta Health Centre;;;;;
Nkoranza South;Donkro Nkwanta;;Kyirefene CHPS;;;;;
Nkoranza South;Donkro Nkwanta;;Salamkrom CHPS;;;;;
Nkoranza South;Donkro Nkwanta;;Subodum CHPS;;;;;
Nkoranza South;Nkoranza;;Africa Libera Health Centre;;;;;
Nkoranza South;Nkoranza;;Akumsa Domase CHPS;;;;;
Nkoranza South;Nkoranza;;Estate CHPS;;;;;
Nkoranza South;Nkoranza;;NEW TOWN CHPS;;;;;
Nkoranza South;Nkoranza;;Nkoranza Health Centre;;;;;
Nkoranza South;Nkoranza;;NYINASE CHPS;;;;;
Nkoranza South;Nkoranza;;PATMOS CLINIC;;;;;
Nkoranza South;Nkoranza;;SESSIMAN CHPS;;;;;
Nkoranza South;Nkoranza;;St Theresas Hospital-Nkoranza;;;;;
Nkoranza South;Nkwabeng;;Bredi CHPS;;;;;
Nkoranza South;Nkwabeng;;Nkwabeng Health Centre;;;;;
Nkoranza South;Nkwabeng;;Ntanaaso CHPS;;;;;
Pru;Abease;;Abease Primary Health Care;;;;;
Pru;Abease;;Damam kwata;;;;;
Pru;Abease;;Komfour Kurom;;;;;
Pru;Parambo;;Labun Basare CHPS;;;;;
Pru;Parambo;;Nchamba CHPS;;;;;
Pru;Parambo;;Parambo Health Centre;;;;;
Pru;Prang;;Adjaraja CHPS;;;;;
Pru;Prang;;Ankrakukra Chps;;;;;
Pru;Prang;;Prang Health Centre;;;;;
Pru;Yeji;;Bernice (pru) Maternity;;;;;
Pru;Yeji;;Chokolombo CHPS;;;;;
Pru;Yeji;;Harbour Clinic;;;;;
Pru;Yeji;;Joefel Medical Centre;;;;;
Pru;Yeji;;Kajai CHPS;;;;;
Pru;Yeji;;Mathias Hospital Yeji;;;;;
Pru;Yeji;;Nyame Bekyere Maternity Home;;;;;
Pru;Yeji;;Savanna Clinic;;;;;
Pru;Yeji;;Yeji Rch;;;;;
Pru;Zabrama;;Benim CHPS;;;;;
Pru;Zabrama;;Kamampa CHPS;;;;;
Pru;Zabrama;;Zabrama Health Centre;;;;;
Sene East;Bassa;;Asuoso CHPS (Bassa);;;;;
Sene East;Bassa;;Bassa Health Centre;;;;;
Sene East;Bassa;;Nyankontre CHPS;;;;;
Sene East;Kajaji;;Kajaji Health Centre;;;;;
Sene East;Kajaji;;Premuase CHPS;;;;;
Sene East;Kojokrom;;Kojokrom (sene) Health Centre;;;;;
Sene West;Bantama (brong Ahafo);;Bantama CHPS;;;;;
Sene West;Bantama (brong Ahafo);;Mframa Zone;;;;;
Sene West;Bantama (brong Ahafo);;Wiase Zone;;;;;
Sene West;Drobe;;Akento/Kanto Zone;;;;;
Sene West;Drobe;;Drobe CHPS;;;;;
Sene West;Drobe;;Lemu CHPS;;;;;
Sene West;Drobe;;Lemu Congo;;;;;
Sene West;Kwame Danso;;Banka Zone;;;;;
Sene West;Kwame Danso;;Chaboba CHPS;;;;;
Sene West;Kwame Danso;;Donkore CHPS;;;;;
Sene West;Kwame Danso;;Jasipo CHPS;;;;;
Sene West;Kwame Danso;;Krenkuase Zone;;;;;
Sene West;Kwame Danso;;Kwame Danso Fp Rch;;;;;
Sene West;Kwame Danso;;Nana Santo Zone;;;;;
Sene West;Kwame Danso;;Sene District Hospital;;;;;
Sene West;Kwame Danso;;Suntah Clinic;;;;;
Sene West;Kwame Danso;;Wiri Kofi Zone;;;;;
Sene West;Kyeamekrom;;Kyeamekrom CHPS;;;;;
Sene West;Kyeamekrom;;Tato Bator CHPS;;;;;
Sene West;Lassi;;Akyeremade CHPS;;;;;
Sene West;Lassi;;Dava CHPs;;;;;
Sene West;Lassi;;Lassi Health Centre;;;;;
Sene West;Lassi;;Menkor CHPS;;;;;
Sunyani;Abesim;;Abesim Health Center;;;;;
Sunyani;Abesim;;Ankobia CHPS;;;;;
Sunyani;Abesim;;Christian Eye Centre (sunyani;;;;;
Sunyani;Abesim;;Educational zone CHPS;;;;;
Sunyani;Abesim;;Emmavick Eye Clinic;;;;;
Sunyani;Abesim;;Fofie Memorial Clinic;;;;;
Sunyani;Abesim;;Green Hill Clinic;;;;;
Sunyani;Abesim;;Gyaase CHPS;;;;;
Sunyani;Abesim;;Hope for Children and Aged Rehab Centre;;;;;
Sunyani;Abesim;;MAGAZINE CHPS;;;;;
Sunyani;Abesim;;Mereku CHPSy;;;;;
Sunyani;Abesim;;Nkrankrom CHPS;;;;;
Sunyani;Abesim;;Ohene Djan CHPS;;;;;
Sunyani;Abesim;;Rafchik Clinic;;;;;
Sunyani;Abesim;;St James Clinic;;;;;
Sunyani;Abesim;;Sunyani Secondary School Clinic;;;;;
Sunyani;Abesim;;Thomas and Tomas Memorial Clinic;;;;;
Sunyani;Antwikrom;;Antwimkrom Health Center;;;;;
Sunyani;Antwikrom;;Atronie CHPS;;;;;
Sunyani;Antwikrom;;Atuahenekrom CHPS;;;;;
Sunyani;Antwikrom;;Benu-Nkwanta CHPS;;;;;
Sunyani;Antwikrom;;Koonsua CHPS;;;;;
Sunyani;Antwikrom;;Methodist Health Center;;;;;
Sunyani;New Dormaa;;3mrs Sunyani;;;;;
Sunyani;New Dormaa;;Aspire clinic;;;;;
Sunyani;New Dormaa;;Asuakwaa CHPS;;;;;
Sunyani;New Dormaa;;Constance Maternity Home;;;;;
Sunyani;New Dormaa;;Holy Daniels;;;;;
Sunyani;New Dormaa;;KOTOKROM CHPS;;;;;
Sunyani;New Dormaa;;Lowcost CHPS;;;;;
Sunyani;New Dormaa;;Monicas Mat Home;;;;;
Sunyani;New Dormaa;;New Dormaa (MangoGroove) CHPS;;;;;
Sunyani;New Dormaa;;New Dormaa East CHPS;;;;;
Sunyani;New Dormaa;;New Dormaa Rch;;;;;
Sunyani;New Dormaa;;Peace (sunyani) Maternity;;;;;
Sunyani;New Dormaa;;YAWHIMA CHPS;;;;;
Sunyani;New Dormaa;;YAWHIMA HEALTH CENTRE;;;;;
Sunyani;New Town-bakoniaba;;ABONSUAM CHPS;;;;;
Sunyani;New Town-bakoniaba;;AKOKORAKWADWO CHPS;;;;;
Sunyani;New Town-bakoniaba;;Asufufu CHPS;;;;;
Sunyani;New Town-bakoniaba;;Baakoniaba CHPS;;;;;
Sunyani;New Town-bakoniaba;;Newtown Estate CHPS;;;;;
Sunyani;New Town-bakoniaba;;Nwawasua CHPS;;;;;
Sunyani;New Town-bakoniaba;;Owusu Memorial (sunyani) Hospital;;;;;
Sunyani;New Town-bakoniaba;;Sunyani SDA Hospital;;;;;
Sunyani;Penkwase;;Airport CHPS;;;;;
Sunyani;Penkwase;;Dexter Medical Centre;;;;;
Sunyani;Penkwase;;Ghana Red Cross Optical Services;;;;;
Sunyani;Penkwase;;Kenam Clinic;;;;;
Sunyani;Penkwase;;Penkwase CHPS;;;;;
Sunyani;Penkwase;;Penkwase West CHPS;;;;;
Sunyani;Penkwase;;Penkwasi Clinic;;;;;
Sunyani;Penkwase;;Sunyani Regional Hospital;;;;;
Sunyani;Sunyani Central;;Abetifi CHPS;;;;;
Sunyani;Sunyani Central;;Ahenboboano CHPS;;;;;
Sunyani;Sunyani Central;;Akuoko CHPS;;;;;
Sunyani;Sunyani Central;;Atoase CHPS;;;;;
Sunyani;Sunyani Central;;Florence (sunyani) Mat Home;;;;;
Sunyani;Sunyani Central;;Health Lane Hospital;;;;;
Sunyani;Sunyani Central;;Nkwabeng North CHPS;;;;;
Sunyani;Sunyani Central;;Nkwabeng South CHPS;;;;;
Sunyani;Sunyani Central;;Opoku Clinic;;;;;
Sunyani;Sunyani Central;;Ridge Experimental School (sunyani) Clinic;;;;;
Sunyani;Sunyani Central;;Sunyani Central Rch;;;;;
Sunyani;Sunyani Central;;Sunyani Municipal Hosp;;;;;
Sunyani;Sunyani Central;;Sunyani Police Clinic;;;;;
Sunyani;Sunyani Central;;Sunyani Poly Clinic;;;;;
Sunyani;Sunyani Central;;Sunyani Prisons Clinic;;;;;
Sunyani;Sunyani Central;;Sunyanitifi CHPS;;;;;
Sunyani;Sunyani Central;;UENR Clinic;;;;;
Sunyani;Sunyani Central;;Zongo CHPS (Sunyani);;;;;
Sunyani West;Bofourkrom;;Abronye CHPS;;;;;
Sunyani West;Bofourkrom;;Bofourkrom Health Centre;;;;;
Sunyani West;Chiraa;;Asuakwaa CHPS;;;;;
Sunyani West;Chiraa;;Chiraa Health Centre;;;;;
Sunyani West;Chiraa;;Chiraa Zongo CHPS;;;;;
Sunyani West;Chiraa;;Estate CHPS (Chiraa Sub);;;;;
Sunyani West;Chiraa;;Holy Daniels (sunyani West) clinic;;;;;
Sunyani West;Chiraa;;Jamesbert Clinic;;;;;
Sunyani West;Chiraa;;Kobedi CHPS;;;;;
Sunyani West;Chiraa;;Mercy (sunyani West) Maternity Home;;;;;
Sunyani West;Chiraa;;Tanom CHPS;;;;;
Sunyani West;Chiraa;;Timbernkwanta CHPS;;;;;
Sunyani West;Fiapre;;Ampenkro CHPS;;;;;
Sunyani West;Fiapre;;Berlin Top CHPS;;;;;
Sunyani West;Fiapre;;Dumasua CHPS;;;;;
Sunyani West;Fiapre;;Fiapre Health Center;;;;;
Sunyani West;Fiapre;;Fiapre zongo CHPS;;;;;
Sunyani West;Fiapre;;Kantro CHPS;;;;;
Sunyani West;Fiapre;;Mantukwa CHPS;;;;;
Sunyani West;Fiapre;;Mem CHPS;;;;;
Sunyani West;Fiapre;;Notre Dame (sunyani West) Clinic;;;;;
Sunyani West;Nsoatre;;Adounya CHPS;;;;;
Sunyani West;Nsoatre;;Afrihope Mission Maternity;;;;;
Sunyani West;Nsoatre;;Amanfoso CHPS;;;;;
Sunyani West;Nsoatre;;Amponsah Mat Home;;;;;
Sunyani West;Nsoatre;;Ayakomaso CHPS;;;;;
Sunyani West;Nsoatre;;Boreso CHPS;;;;;
Sunyani West;Nsoatre;;Kwabenakuma CHPS;;;;;
Sunyani West;Nsoatre;;Nsoatre Health Center;;;;;
Sunyani West;Nsoatre;;St. James Clinic;;;;;
Sunyani West;Nsoatre;;Twumasikrom CHPS;;;;;
Sunyani West;Odumase (brong Ahafo);;Adantia CHPS;;;;;
Sunyani West;Odumase (brong Ahafo);;Addoe CHPS;;;;;
Sunyani West;Odumase (brong Ahafo);;Gubre CHPS;;;;;
Sunyani West;Odumase (brong Ahafo);;Hannas Mat Home;;;;;
Sunyani West;Odumase (brong Ahafo);;Kwatire Polyclinic;;;;;
Sunyani West;Odumase (brong Ahafo);;Louise Banks Griffin Clinic;;;;;
Sunyani West;Odumase (brong Ahafo);;Obiri Yeboah CHPS;;;;;
Sunyani West;Odumase (brong Ahafo);;Odumase (sunyani West) RCH;;;;;
Sunyani West;Odumase (brong Ahafo);;Yoyooso CHPS;;;;;
Tain;Badu;;Adamu CHPS;;;;;
Tain;Badu;;Akore CHPS;;;;;
Tain;Badu;;Asuafu CHPS;;;;;
Tain;Badu;;Badu Health Center;;;;;
Tain;Badu;;Bepoayase CHPS;;;;;
Tain;Badu;;Degedege CHPS;;;;;
Tain;Badu;;Tainso CHPS;;;;;
Tain;Debibi;;Amangoase Pokukrom CHPS;;;;;
Tain;Debibi;;Badawai CHPS;;;;;
Tain;Debibi;;Bonita Health Centre;;;;;
Tain;Debibi;;Brodi CHPS;;;;;
Tain;Debibi;;Debibi CHPS;;;;;
Tain;Debibi;;Debibi Health Center;;;;;
Tain;Debibi;;Jaro CHPS;;;;;
Tain;Debibi;;Kumor CHPS;;;;;
Tain;Debibi;;Kwame Tenten CHPS;;;;;
Tain;Debibi;;Namasa CHPS;;;;;
Tain;Debibi;;Yaw Donkorkrom CHPS;;;;;
Tain;Nsawkaw;;Awompi-Ahenfie CHPS;;;;;
Tain;Nsawkaw;;Brohani CHPS;;;;;
Tain;Nsawkaw;;Menji CHPS;;;;;
Tain;Nsawkaw;;Menji Rural Clinic;;;;;
Tain;Nsawkaw;;Njau-Tanoso CHPS;;;;;
Tain;Nsawkaw;;Nsawkaw Hospital;;;;;
Tain;Nsawkaw;;Nsuhunu CHPS;;;;;
Tain;Nsawkaw;;Tafsiru Maternity Home;;;;;
Tain;Nsawkaw;;Yabraso CHPS;;;;;
Tain;Nsawkaw;;Dagadu CHPS;;;;;
Tain;Nsawkaw;;Degedege Seikwa CHPS;;;;;
Tain;Nsawkaw;;Hani CHPS;;;;;
Tain;Nsawkaw;;Kyekyewere CHPS;;;;;
Tain;Nsawkaw;;Nasana CHPS;;;;;
Tain;Nsawkaw;;Nyarko Mat Home;;;;;
Tain;Nsawkaw;;Seikwa Health Center;;;;;
Tain;Nsawkaw;;Tainso Seikwa CHPS;;;;;
Tain;Nsawkaw;;Tanokrom CHPS;;;;;
Tano North;Adrobaa;;Adrobaa CHPS Zone;;;;;
Tano North;Adrobaa;;Mankranho CHPS;;;;;
Tano North;Adrobaa;;Subreso CHPS;;;;;
Tano North;Adrobaa;;Sukuumu (Tano North) CHPS Zone;;;;;
Tano North;Bomaa;;Akuseke CHPS;;;;;
Tano North;Bomaa;;Bankofi CHPS;;;;;
Tano North;Bomaa;;Bomaa Polyclinic;;;;;
Tano North;Bomaa;;Dwenase (tano North) CHPS;;;;;
Tano North;Bomaa;;Gyenyaase CHPS;;;;;
Tano North;Bomaa;;Subonpang CHPS Zone;;;;;
Tano North;Duayaw Nkwanta;;Akotosua CHPS;;;;;
Tano North;Duayaw Nkwanta;;Buokukuruwa RCH;;;;;
Tano North;Duayaw Nkwanta;;Duayaw Nkwanta St John Of God Hospital;;;;;
Tano North;Duayaw Nkwanta;;Koforidua/Susuanho CHPS;;;;;
Tano North;Duayaw Nkwanta;;Newtown CHPS;;;;;
Tano North;Duayaw Nkwanta;;Tromou CHPS;;;;;
Tano North;Duayaw Nkwanta;;Zongo CHPS;;;;;
Tano North;Tanoso;;Afrisipa CHPS Zone;;;;;
Tano North;Tanoso;;Tanoso (tano North) Health Centre;;;;;
Tano North;Tanoso;;Tanoso East CHPS Zone;;;;;
Tano North;Tanoso;;Tanoso West CHPS Zone;;;;;
Tano North;Tanoso;;Techere CHPS;;;;;
Tano North;Tanoso;;Terchire CHPS Zone;;;;;
Tano North;Yamfo;;Ahyiayem CHPS Zone;;;;;
Tano North;Yamfo;;Atanafiem CHPS Zone;;;;;
Tano North;Yamfo;;Atudurobesa CHPS Zone;;;;;
Tano North;Yamfo;;Nyinasinase CHPS Zone;;;;;
Tano North;Yamfo;;Nyomase (Zongo) CHPS Zone;;;;;
Tano North;Yamfo;;Susuanso CHPS Zones;;;;;
Tano North;Yamfo;;Yamfo (tano North) Health Centre;;;;;
Tano South;Bechem;;Bechem Government Hospital;;;;;
Tano South;Bechem;;Bechem Junction CHPS;;;;;
Tano South;Bechem;;Breme Chps;;;;;
Tano South;Bechem;;Kwasu Chps;;;;;
Tano South;Bechem;;Mansin Chps;;;;;
Tano South;Bechem;;Mawaninso CHPS;;;;;
Tano South;Brosankro;;Brosankro Health Centre;;;;;
Tano South;Brosankro;;Old Brosankro Chps;;;;;
Tano South;Derma;;Ankaase Chps;;;;;
Tano South;Derma;;Derma Health Centre;;;;;
Tano South;Derma;;Nsuta CHPS;;;;;
Tano South;Techimantia;;Asuboe Chps;;;;;
Tano South;Techimantia;;Dwomo Chps;;;;;
Tano South;Techimantia;;Subriso CHPS Compound;;;;;
Tano South;Techimantia;;Teapease Chps;;;;;
Tano South;Techimantia;;Techimantia Polyclinic;;;;;
Techiman;Nkwaeso;;Bonkwae CHPS;;;;;
Techiman;Nkwaeso;;Nkwaeso CHPS;;;;;
Techiman;Nkwaeso;;Sansua CHPS;;;;;
Techiman;Nkwaeso;;Twimia Nkwanta CHPS;;;;;
Techiman;Nkwaeso;;Twimia/Koase CHPS;;;;;
Techiman;Nsuta;;Koofoso CHPS;;;;;
Techiman;Nsuta;;Mangoase CHPS;;;;;
Techiman;Nsuta;;Nsuta (Techiman) CHPS;;;;;
Techiman;Nsuta;;Nsuta Health Centre;;;;;
Techiman;Nsuta;;Tanonafo CHPS;;;;;
Techiman;Oforikrom;;Asanatanso CHPS;;;;;
Techiman;Oforikrom;;Bamiri CHPS;;;;;
Techiman;Oforikrom;;Fiaso CHPS;;;;;
Techiman;Oforikrom;;Forikrom CHPS;;;;;
Techiman;Oforikrom;;Oforikrom (techiman) Health Centre;;;;;
Techiman;Tanoso;;Ahenfie CHPS;;;;;
Techiman;Tanoso;;Asubrofo CHPS;;;;;
Techiman;Tanoso;;Aworopataa CHPS;;;;;
Techiman;Tanoso;;Bongroso CHPS;;;;;
Techiman;Tanoso;;Hansua CHPS;;;;;
Techiman;Tanoso;;Tadieso CHPS;;;;;
Techiman;Tanoso;;Tanoso (techiman) Health Centre;;;;;
Techiman;Tanoso;;Tentenano CHPS;;;;;
Techiman;Techiman East;;Ahenbronoso CHPS;;;;;
Techiman;Techiman East;;Ahmadiyyah (techiman) Mission Hospital;;;;;
Techiman;Techiman East;;Dagomba Line (Techiman) CHPS;;;;;
Techiman;Techiman East;;Denteso CHPS;;;;;
Techiman;Techiman East;;Dwomo 1 & 2 CHPS;;;;;
Techiman;Techiman East;;Gina (techiman) Maternity;;;;;
Techiman;Techiman East;;Hansua CHPS (BRIGAGE);;;;;
Techiman;Techiman East;;Hausaline 1 & 2 CHPS;;;;;
Techiman;Techiman East;;Jennyvonne Clinic;;;;;
Techiman;Techiman East;;Mili-Med Clinic;;;;;
Techiman;Techiman East;;New Dwomo CHPS;;;;;
Techiman;Techiman East;;Nkwa Hia Maternity Clinic;;;;;
Techiman;Techiman East;;Station Clinic;;;;;
Techiman;Techiman North;;Alice Maternity Clinic;;;;;
Techiman;Techiman North;;Anyinabirem CHPS;;;;;
Techiman;Techiman North;;Arms Maternity Clinic;;;;;
Techiman;Techiman North;;Grace Hospital;;;;;
Techiman;Techiman North;;Kenten CHPS;;;;;
Techiman;Techiman North;;Mt Olive Clinic;;;;;
Techiman;Techiman North;;Sansama CHPS;;;;;
Techiman;Techiman North;;Takofiano CHPS;;;;;
Techiman;Techiman North;;Techiman Holy Family Hospital;;;;;
Techiman;Techiman West;;Blessed Gate Clinic;;;;;
Techiman;Techiman West;;Konimase CHPS;;;;;
Techiman;Techiman West;;Koranteng Memorial Clinic;;;;;
Techiman;Techiman West;;New Tunsuase CHPS;;;;;
Techiman;Techiman West;;Opoku Agyeman Hospital;;;;;
Techiman;Techiman West;;Techiman Market CHPS;;;;;
Techiman;Techiman West;;Techiman Health Centre;;;;;
Techiman;Techiman West;;Tunsuase CHPS;;;;;
Techiman;Techiman West;;Valley View Adventist Hospital;;;;;
Techiman;Techiman West;;Wangara Line CHPS;;;;;
Techiman North;Aworowa;;Akrofrom CHPS;;;;;
Techiman North;Aworowa;;Aworowa Health Centre;;;;;
Techiman North;Aworowa;;Ayeasu CHPS;;;;;
Techiman North;Aworowa;;Kokoago CHPS;;;;;
Techiman North;Aworowa;;Kokroko CHPS;;;;;
Techiman North;Buoyem;;Ahenfie-Gyaase CHPS;;;;;
Techiman North;Buoyem;;Akonkonti CHPS;;;;;
Techiman North;Buoyem;;Asueyi CHPS;;;;;
Techiman North;Buoyem;;Buoyem Health Centre;;;;;
Techiman North;Buoyem;;Mesidan CHPS;;;;;
Techiman North;Buoyem;;Tenabea CHPS;;;;;
Techiman North;Krobo;;Aworoano CHPS;;;;;
Techiman North;Krobo;;Gyebri CHPS;;;;;
Techiman North;Krobo;;Jama-Timponim CHPS;;;;;
Techiman North;Krobo;;Krobo CHPS;;;;;
Techiman North;Krobo;;Krobo Memorial Health Centre;;;;;
Techiman North;Offuman;;Abaase CHPS;;;;;
Techiman North;Offuman;;Asubinja CHPS;;;;;
Techiman North;Offuman;;Dampaso CHPS;;;;;
Techiman North;Offuman;;Ntoase CHPS;;;;;
Techiman North;Offuman;;Nyansuaka CHPS;;;;;
Techiman North;Offuman;;Offuman Health Centre;;;;;
Techiman North;Offuman;;Offuman-Zongo CHPS;;;;;
Techiman North;Tuobodom;;Adutwie CHPS;;;;;
Techiman North;Tuobodom;;Amangoase CHPS;;;;;
Techiman North;Tuobodom;;Ankaase CHPS;;;;;
Techiman North;Tuobodom;;Bonya CHPS;;;;;
Techiman North;Tuobodom;;Domeabra CHPS;;;;;
Techiman North;Tuobodom;;Dompoase CHPS;;;;;
Techiman North;Tuobodom;;Gyidim CHPS;;;;;
Techiman North;Tuobodom;;Kyiridiagya CHPS;;;;;
Techiman North;Tuobodom;;Nzema CHPS;;;;;
Techiman North;Tuobodom;;Tanoboase CHPS;;;;;
Techiman North;Tuobodom;;Tanoboase Presbyterian Clinic;;;;;
Techiman North;Tuobodom;;Tuobodom Health Centre;;;;;
Techiman North;Tuobodom;;Tuobodom-Zongo CHPS;;;;;
Wenchi;Asuogya;;Agubie CHPS;;;;;
Wenchi;Asuogya;;Beposo CHPS zone;;;;;
Wenchi;Asuogya;;Droboso Health Centre;;;;;
Wenchi;Asuogya;;Nkonsia CHPS zone;;;;;
Wenchi;Asuogya;;ST. Joseph Clinic;;;;;
Wenchi;Nchiraa;;Nchiraa Health Center;;;;;
Wenchi;Nchiraa;;Pramaso CHPS zone;;;;;
Wenchi;Subinso;;Abotareye CHPS;;;;;
Wenchi;Subinso;;Amposakrom CHPS;;;;;
Wenchi;Subinso;;Branam / Statefarm CHPS;;;;;
Wenchi;Subinso;;Subinso Camp CHPS;;;;;
Wenchi;Subinso;;Subinso Health Center;;;;;
Wenchi;Subinso;;Zongo/Proboe CHPS;;;;;
Wenchi;Tromeso;;Tromeso CHPS;;;;;
Wenchi;Wenchi East;;Awisa CHPS Cpd;;;;;
Wenchi;Wenchi East;;Bandaline CHPS;;;;;
Wenchi;Wenchi East;;Emil Memorial Hospital;;;;;
Wenchi;Wenchi East;;Ntoase CHPS;;;;;
Wenchi;Wenchi East;;Nyaase Royals Maternity Home;;;;;
Wenchi;Wenchi East;;Twum Barima Infirmary;;;;;
Wenchi;Wenchi East;;Wenchi Health Centre;;;;;
Wenchi;Wenchi East;;Wurompo/Akete CHPS;;;;;
Wenchi;Wenchi West;;Wenchi Government Maternity Home;;;;;
Wenchi;Wenchi West;;Wenchi Methodist Hospital;;;;;
