LGA;Ward;Settlement;Facility;Type;Ownership;Address;Longitude;Latitude
Abura-Asebu-Kwamankese;Abakrampa;;Abakrampa Health Centre;;;;;
Abura-Asebu-Kwamankese;Abakrampa;;New Ebu CHPS Zone;;;;;
Abura-Asebu-Kwamankese;Abakrampa;;Nkwantanan (abura Asebu Kwamankese) CHPS;;;;;
Abura-Asebu-Kwamankese;Abakrampa;;Papagya CHPS Zone;;;;;
Abura-Asebu-Kwamankese;Abura Dunkwa;;Abaka CHPS Zone;;;;;
Abura-Asebu-Kwamankese;Abura Dunkwa;;Abura Dunkwa District Hospital;;;;;
Abura-Asebu-Kwamankese;Abura Dunkwa;;Abura Dunkwa Rch;;;;;
Abura-Asebu-Kwamankese;Abura Dunkwa;;Nyanfeku Ekroful CHPS Zone;;;;;
Abura-Asebu-Kwamankese;Abura Dunkwa;;Tuakwa CHPS Zone;;;;;
Abura-Asebu-Kwamankese;Asuansi;;Asomdwee (abura Asebu Kwamankese) CHPS;;;;;
Abura-Asebu-Kwamankese;Asuansi;;Asuansi CHPS Zone;;;;;
Abura-Asebu-Kwamankese;Asuansi;;Asuansi Rural Clinic;;;;;
Abura-Asebu-Kwamankese;Asuansi;;Musunkwa CHPS;;;;;
Abura-Asebu-Kwamankese;Asuansi;;Okyiriku CHPS Zone;;;;;
Abura-Asebu-Kwamankese;Asuansi;;Srafa CHPS Zone;;;;;
Abura-Asebu-Kwamankese;Gyabankrom;;Ayeldo CHPS Zone;;;;;
Abura-Asebu-Kwamankese;Gyabankrom;;Gyabankrom CHPS;;;;;
Abura-Asebu-Kwamankese;Gyabankrom;;Korado CHPS Zone;;;;;
Abura-Asebu-Kwamankese;Gyabankrom;;Kwadoegya CHPS Zone;;;;;
Abura-Asebu-Kwamankese;Gyabankrom;;Kwamankese CHPS;;;;;
Abura-Asebu-Kwamankese;Gyabankrom;;Mpeseduadze CHPS Zone;;;;;
Abura-Asebu-Kwamankese;Gyabankrom;;Obohen CHPS;;;;;
Abura-Asebu-Kwamankese;Moree;;Abuenu CHPS Zone;;;;;
Abura-Asebu-Kwamankese;Moree;;Amosima CHPS Zone;;;;;
Abura-Asebu-Kwamankese;Moree;;Asebu CHPS Zone;;;;;
Abura-Asebu-Kwamankese;Moree;;Moree Health Centre;;;;;
Abura-Asebu-Kwamankese;Moree;;Putubiw CHPS Zone;;;;;
Abura-Asebu-Kwamankese;Moree;;Sorodofo/Abaasa CHPS Zone;;;;;
Ajumako-Enyan-Essiam;Abaasa;;Abaasa Health Centre;;;;;
Ajumako-Enyan-Essiam;Abaasa;;Kromaim CHPS;;;;;
Ajumako-Enyan-Essiam;Abaasa;;Mando Clinic;;;;;
Ajumako-Enyan-Essiam;Abaasa;;Nkojo CHPS;;;;;
Ajumako-Enyan-Essiam;Abaasa;;Obontsir CHPS;;;;;
Ajumako-Enyan-Essiam;Ajumako;;Ajumako District Hosp;;;;;
Ajumako-Enyan-Essiam;Ajumako;;Ajumako Rch;;;;;
Ajumako-Enyan-Essiam;Ajumako;;Ampiah-Ajumako CHPS;;;;;
Ajumako-Enyan-Essiam;Ajumako;;Anns Maternity Home;;;;;
Ajumako-Enyan-Essiam;Ajumako;;Baa Salvation Army Clinic;;;;;
Ajumako-Enyan-Essiam;Ajumako;;Essaman CHPS;;;;;
Ajumako-Enyan-Essiam;Ajumako;;Kwanyako (ajumako Enyan Esiam) Community Clinic;;;;;
Ajumako-Enyan-Essiam;Ajumako;;Mama Thes Maternity Home;;;;;
Ajumako-Enyan-Essiam;Ajumako;;Osedzi CHPS;;;;;
Ajumako-Enyan-Essiam;Ajumako;;Premier Care Medical Centre;;;;;
Ajumako-Enyan-Essiam;Ajumako;;Salvation Army Health Centre(Ochiso);;;;;
Ajumako-Enyan-Essiam;Ajumako;;UEW CLINIC;;;;;
Ajumako-Enyan-Essiam;Bisease;;Ayinasu CHPS;;;;;
Ajumako-Enyan-Essiam;Bisease;;Bisease Health Centre;;;;;
Ajumako-Enyan-Essiam;Nkwantanum;;Ahomakormbua CHPS;;;;;
Ajumako-Enyan-Essiam;Nkwantanum;;Enyanmaim Comm. Clinic;;;;;
Ajumako-Enyan-Essiam;Nkwantanum;;Nkwantanum (ajumako Enyan Esiam) Health Centre;;;;;
Ajumako-Enyan-Essiam;Sunkwa;;Abaka CHPS;;;;;
Ajumako-Enyan-Essiam;Sunkwa;;Ekukrom CHPS;;;;;
Ajumako-Enyan-Essiam;Sunkwa;;Ekwamase CHPS;;;;;
Ajumako-Enyan-Essiam;Sunkwa;;Etsii Fawomanye CHPS;;;;;
Ajumako-Enyan-Essiam;Sunkwa;;Nyamebekyere CHPS(Ajumako);;;;;
Ajumako-Enyan-Essiam;Sunkwa;;Sunkwa (ajumako Enyan Esiam) Health Centre;;;;;
Agona East;Asafo;;Asafo Health Centre;;;;;
Agona East;Asafo;;Brahabekum CHPS;;;;;
Agona East;Asafo;;Kwansakrom/Swiss CHPS;;;;;
Agona East;Asafo;;Tawora/Nantifa CHPS;;;;;
Agona East;Duakwa/Mensakrom;;Salvation Army Clinic;;;;;
Agona East;Duakwa/Mensakrom;;Jacob/Jukwafom CHPS;;;;;
Agona East;Duakwa/Mensakrom;;Mansofo CHPS;;;;;
Agona East;Duakwa/Mensakrom;;Mensakrom Clinic;;;;;
Agona East;Duakwa/Mensakrom;;Namanwora CHPS;;;;;
Agona East;Kwanyako;;El-shaddai Maternity;;;;;
Agona East;Kwanyako;;Grace Mercy Maternity Home;;;;;
Agona East;Kwanyako;;Jonof Maternity Home;;;;;
Agona East;Kwanyako;;Kokoado CHPS;;;;;
Agona East;Kwanyako;;Kwanyako Health Centre;;;;;
Agona East;Kwanyako;;Kwesitwikwa CHPS;;;;;
Agona East;Kwanyako;;Otwekwa CHPS;;;;;
Agona East;Mankrong;;Esusu CHPS;;;;;
Agona East;Mankrong;;Fante Bawjiase CHPS;;;;;
Agona East;Mankrong;;Kenyanko CHPS;;;;;
Agona East;Mankrong;;Mankrong Clinic;;;;;
Agona East;Mankrong;;Oboyambo CHPS;;;;;
Agona East;Nsaba;;District Health Directorate;;;;;
Agona East;Nsaba;;Duabone CHPS;;;;;
Agona East;Nsaba;;Kwesi Paintsil CHPS;;;;;
Agona East;Nsaba;;Ninta/Nampong CHPS;;;;;
Agona East;Nsaba;;Nkran Ekura CHPS;;;;;
Agona East;Nsaba;;Nsaba Health Centre;;;;;
Agona East;Nsaba;;Ofoase CHPS;;;;;
Agona West;ABODOM;;Abigyakrom CHPS;;;;;
Agona West;ABODOM;;Abodom Health Centre;;;;;
Agona West;ABODOM;;E.M.C.C. Maternity Home;;;;;
Agona West;Bobikuma;;Bobikuma Health Centre;;;;;
Agona West;Bobikuma;;Kwaman CHPS;;;;;
Agona West;Bobikuma;;Mansokwa CHPS;;;;;
Agona West;Nkum;;Nkum Health Centre;;;;;
Agona West;Nkum;;Nsuasa CHPS;;;;;
Agona West;Nkum;;Odom CHPS;;;;;
Agona West;Nyakrom;;Armah CHPS;;;;;
Agona West;Nyakrom;;Kwaman CHPS;;;;;
Agona West;Nyakrom;;Nyakrom Health Centre;;;;;
Agona West;Nyakrom;;Otsenkorang CHPS;;;;;
Agona West;Swedru;;Ahamadiyya Hospital;;;;;
Agona West;Swedru;;Artisan Village CHPS;;;;;
Agona West;Swedru;;Dergewa Maternity Home;;;;;
Agona West;Swedru;;Dwenho CHPS;;;;;
Agona West;Swedru;;Glaco Maternity Home;;;;;
Agona West;Swedru;;Maahodwe CHPS;;;;;
Agona West;Swedru;;Main Zongo CHPS;;;;;
Agona West;Swedru;;Nana Khadija CHPS;;;;;
Agona West;Swedru;;Nsusososo CHPS;;;;;
Agona West;Swedru;;Nyamendam CHPS;;;;;
Agona West;Swedru;;Swedru Government Hospital;;;;;
Agona West;Swedru;;Swedru Rch;;;;;
Agona West;Swedru;;Swedru Sti Clinic;;;;;
Agona West;Swedru;;Yaabem North CHPS;;;;;
Agona West;Swedru;;Yaabem South CHPS;;;;;
Agona West;Swedru;;Yelewa Zongo;;;;;
Assin North;Akoti;;Akoti Health Centre;;;;;
Assin North;Akoti;;Akropong -Odumase CHPS;;;;;
Assin North;Akoti;;AWORABO CHPS;;;;;
Assin North;Bediadua;;Sienchem CHPS;;;;;
Assin North;Bediadua;;Anhweinsu CHPS;;;;;
Assin North;Bediadua;;Basofi Ningo CHPS;;;;;
Assin North;Bediadua;;Bediadua Health Centre;;;;;
Assin North;Bediadua;;Gangan CHPS;;;;;
Assin North;Bereku;;Assin Bereku Health Centre;;;;;
Assin North;Bereku;;Assin Endwa CHPS;;;;;
Assin North;Bereku;;Gold Coast Camp CHPS;;;;;
Assin North;Foso;;Ebenezer Clinic;;;;;
Assin North;Foso;;Amoakrom CHPS;;;;;
Assin North;Foso;;Assin Awisem CHPS Compound;;;;;
Assin North;Foso;;Assin Foso Health Centre;;;;;
Assin North;Foso;;Cecilia & Sammy Maternity Home;;;;;
Assin North;Foso;;First Class Clinic;;;;;
Assin North;Foso;;Joy Emmanuel Medical Centre;;;;;
Assin North;Foso;;St Francis Xavier Hospital;;;;;
Assin North;Kushea;;Assin Kushea Health Centre;;;;;
Assin North;Praso;;Assin Praso Health Centre;;;;;
Assin North;Praso;;Rex Clinic;;;;;
Assin South;Anyinabrim (central);;Amanbete CHPS Zone;;;;;
Assin South;Anyinabrim (central);;Anyinabrim (assin South) Health Centre;;;;;
Assin South;Anyinabrim (central);;Bepokokoo CHPS;;;;;
Assin South;Jakai;;Amoabeng CHPS;;;;;
Assin South;Jakai;;Jakai Health Center;;;;;
Assin South;Jakai;;Kruwa CHPS;;;;;
Assin South;Jakai;;Mesormagor CHPS;;;;;
Assin South;Manso (central);;Abodweseso CHPS;;;;;
Assin South;Manso (central);;Manso Health Center;;;;;
Assin South;Manso (central);;Ochiso CHPS;;;;;
Assin South;Nsuta (central);;Homaho CHPS;;;;;
Assin South;Nsuta (central);;Nsuta (assin South) Presby Clinic;;;;;
Assin South;Nyankumasi Ahenkro;;Assin Kumasi CHPS Zone;;;;;
Assin South;Nyankumasi Ahenkro;;Nyankumasi Ahenkro Health Center;;;;;
Assin South;Ongwa;;Aboabo (assin South) CHPS;;;;;
Assin South;Ongwa;;Adiembra CHPS Zone;;;;;
Assin South;Ongwa;;Ongwa Health Center;;;;;
Asikuma-Odoben-Brakwa;Amanfopong;;Amanfopong CHPS;;;;;
Asikuma-Odoben-Brakwa;Amanfopong;;Fosuansa CHPS;;;;;
Asikuma-Odoben-Brakwa;Amanfopong;;Mante CHPS;;;;;
Asikuma-Odoben-Brakwa;Anhwiam;;Anhwiam CHPS;;;;;
Asikuma-Odoben-Brakwa;Anhwiam;;Edumenu CHPS;;;;;
Asikuma-Odoben-Brakwa;Anhwiam;;Sowotuom CHPS;;;;;
Asikuma-Odoben-Brakwa;Asikuma;;Asikuma Health Centre;;;;;
Asikuma-Odoben-Brakwa;Asikuma;;Baako CHPS;;;;;
Asikuma-Odoben-Brakwa;Asikuma;;BASS Community Clinic;;;;;
Asikuma-Odoben-Brakwa;Asikuma;;BOSOMASE CHPS;;;;;
Asikuma-Odoben-Brakwa;Asikuma;;Jamra CHPS;;;;;
Asikuma-Odoben-Brakwa;Asikuma;;Kawanopado CHPS;;;;;
Asikuma-Odoben-Brakwa;Asikuma;;Our Lady Of Grace Hospital;;;;;
Asikuma-Odoben-Brakwa;Asikuma;;Supunso CHPS;;;;;
Asikuma-Odoben-Brakwa;Bedum;;Amoanda CHPS;;;;;
Asikuma-Odoben-Brakwa;Bedum;;Ayipey CHPS;;;;;
Asikuma-Odoben-Brakwa;Bedum;;Bedum CHPS;;;;;
Asikuma-Odoben-Brakwa;Bedum;;Nwomaso CHPS;;;;;
Asikuma-Odoben-Brakwa;Bedum;;Ocran Maternity Home;;;;;
Asikuma-Odoben-Brakwa;Brakwa;;Jamra;;;;;
Asikuma-Odoben-Brakwa;Brakwa;;Afofosu CHPS;;;;;
Asikuma-Odoben-Brakwa;Brakwa;;Asarekwa CHPS;;;;;
Asikuma-Odoben-Brakwa;Brakwa;;Brakwa Health Centre;;;;;
Asikuma-Odoben-Brakwa;Brakwa;;Eduosia Sanford International Clinic;;;;;
Asikuma-Odoben-Brakwa;Odoben;;Domeabra CHPS Zone;;;;;
Asikuma-Odoben-Brakwa;Odoben;;Kuntanase CHPS;;;;;
Asikuma-Odoben-Brakwa;Odoben;;NANKESE SANFORD INTERNATIONAL CLINICS;;;;;
Asikuma-Odoben-Brakwa;Odoben;;Nkwanta-Nando CHPS;;;;;
Asikuma-Odoben-Brakwa;Odoben;;Odoben Health Centre;;;;;
Awutu-Senya East;Akwelley;;Akwelley CHPS;;;;;
Awutu-Senya East;Akwelley;;Alico / Oklunkwanta CHPS;;;;;
Awutu-Senya East;Akwelley;;Cross River CHPS;;;;;
Awutu-Senya East;Akwelley;;Gada CHPS;;;;;
Awutu-Senya East;Akwelley;;Marfred Maternity;;;;;
Awutu-Senya East;Akwelley;;Monta Clinic;;;;;
Awutu-Senya East;Akwelley;;Ofaakor CHPS;;;;;
Awutu-Senya East;Akwelley;;Otamens CHPS;;;;;
Awutu-Senya East;Akwelley;;Sanford International Clinic,Akwelley;;;;;
Awutu-Senya East;Akwelley;;St Joe's Specialist Clinic;;;;;
Awutu-Senya East;Kasoa Main;;Akubba Clinic;;;;;
Awutu-Senya East;Kasoa Main;;Bennetts Clinic;;;;;
Awutu-Senya East;Kasoa Main;;Blue Top CHPS;;;;;
Awutu-Senya East;Kasoa Main;;Justab Hospital;;;;;
Awutu-Senya East;Kasoa Main;;Kasoa Polyclinic;;;;;
Awutu-Senya East;Kasoa Main;;Peace Town CHPS;;;;;
Awutu-Senya East;Kasoa Main;;Rabenrich Maternity Home & Clinic;;;;;
Awutu-Senya East;Kasoa Main;;Tipper CHPS;;;;;
Awutu-Senya East;Kasoa Main;;Top Care Clinic;;;;;
Awutu-Senya East;Kasoa Main;;Walantu CHPS;;;;;
Awutu-Senya East;Kasoa Main;;Windy Hill CHPS;;;;;
Awutu-Senya East;Kasoa Main;;Winger/Poultry CHPS;;;;;
Awutu-Senya East;Kasoa North;;Adam Nana CHPS;;;;;
Awutu-Senya East;Kasoa North;;American Town CHPS;;;;;
Awutu-Senya East;Kasoa North;;Amuzukope CHPS;;;;;
Awutu-Senya East;Kasoa North;;Bethel Clinic;;;;;
Awutu-Senya East;Kasoa North;;Central Kasoa Clinic;;;;;
Awutu-Senya East;Kasoa North;;Comprehensive Care Clinic;;;;;
Awutu-Senya East;Kasoa North;;Connies Maternity Home;;;;;
Awutu-Senya East;Kasoa North;;Kaemebre CHPS;;;;;
Awutu-Senya East;Kasoa North;;Kpormetey CHPS;;;;;
Awutu-Senya East;Kasoa North;;Lamtey Mills CHPS;;;;;
Awutu-Senya East;Kasoa North;;Mighty-Crag Maternity Home;;;;;
Awutu-Senya East;Kasoa North;;New Market Health Centre;;;;;
Awutu-Senya East;Odupong Kpehe;;Holy Family Maternity Home;;;;;
Awutu-Senya East;Odupong Kpehe;;Ironcity / Dokukyekope CHPS;;;;;
Awutu-Senya East;Odupong Kpehe;;Jehovah Rapha Health Care Foundation;;;;;
Awutu-Senya East;Odupong Kpehe;;Kasoa Zongo CHPS;;;;;
Awutu-Senya East;Odupong Kpehe;;Newtown CHPS;;;;;
Awutu-Senya East;Odupong Kpehe;;St. Jude Medical Centre;;;;;
Awutu-Senya East;Opeikuma;;Amporful Clinic;;;;;
Awutu-Senya East;Opeikuma;;Krispol City CHPS;;;;;
Awutu-Senya East;Opeikuma;;Opeikuma CHPS;;;;;
Awutu-Senya East;Opeikuma;;Sapato CHPS;;;;;
Awutu-Senya East;Opeikuma;;Wesley Clinic;;;;;
Awutu-Senya;Awutu;;Ahentia CHPS;;;;;
Awutu-Senya;Awutu;;Awutu Health Centre;;;;;
Awutu-Senya;Awutu;;Chochoe CHPS;;;;;
Awutu-Senya;Awutu;;Christys Martenity Home;;;;;
Awutu-Senya;Awutu;;Humble Home Clinic;;;;;
Awutu-Senya;Awutu;;Thinking Clinic;;;;;
Awutu-Senya;Bawjiase;;Adom (awutu Senya) Maternity Home;;;;;
Awutu-Senya;Bawjiase;;Ayensuaku CHPS;;;;;
Awutu-Senya;Bawjiase;;Bawjiase Health Centre;;;;;
Awutu-Senya;Bawjiase;;Bewuenum CHPS;;;;;
Awutu-Senya;Bawjiase;;Fausty's Maternity Home;;;;;
Awutu-Senya;Bawjiase;;Fianko CHPS;;;;;
Awutu-Senya;Bawjiase;;Mayenda CHPS;;;;;
Awutu-Senya;Bawjiase;;Obrachire CHPS;;;;;
Awutu-Senya;Bawjiase;;Ofadaa CHPS;;;;;
Awutu-Senya;Bawjiase;;Okwampa CHPS;;;;;
Awutu-Senya;Bawjiase;;Tawiakwa CHPS;;;;;
Awutu-Senya;Bontrase;;Akrabong CHPS;;;;;
Awutu-Senya;Bontrase;;Bontrase Health Centre;;;;;
Awutu-Senya;Bontrase;;Mfadwen CHPS Zone;;;;;
Awutu-Senya;Papaase;;Adawukwao CHPS;;;;;
Awutu-Senya;Papaase;;Ayiresu CHPS;;;;;
Awutu-Senya;Papaase;;Mangoase CHPS;;;;;
Awutu-Senya;Papaase;;Margo Marternity Home;;;;;
Awutu-Senya;Papaase;;Papaase CHPS;;;;;
Awutu-Senya;Senya Breku;;Bonsuoku CHPS;;;;;
Awutu-Senya;Senya Breku;;Castle CHPS;;;;;
Awutu-Senya;Senya Breku;;Mantemankabi CHPS;;;;;
Awutu-Senya;Senya Breku;;Senya Health Centre;;;;;
Cape Coast;Adisadel;;Adisadel Urban Health Centre;;;;;
Cape Coast;Adisadel;;Baiden Ghartey Memorial Hospital;;;;;
Cape Coast;Adisadel;;C-Poly Clinic;;;;;
Cape Coast;Adisadel;;Cape Coast Teaching Hospital;;;;;
Cape Coast;Adisadel;;Christian Eye Centre;;;;;
Cape Coast;Adisadel;;DIS CLINIC;;;;;
Cape Coast;Adisadel;;Essuakyir CHPS;;;;;
Cape Coast;Adisadel;;EYIFUA AGED CLINIC;;;;;
Cape Coast;Adisadel;;Jesus of Nazareth Clinic;;;;;
Cape Coast;Adisadel;;Mpeasem CHPS;;;;;
Cape Coast;Adisadel;;PPAG Clinic;;;;;
Cape Coast;Adisadel;;Premium Clinic;;;;;
Cape Coast;Adisadel;;Regional Police Clinic;;;;;
Cape Coast;Adisadel;;Sanford International Clinic,Adisadel;;;;;
Cape Coast;Adisadel;;Tantri Clinic;;;;;
Cape Coast;Cape Coast Rch Central;;Aged Clinic;;;;;
Cape Coast;Cape Coast Rch Central;;Cape Coast Metropolitan Health Directorate;;;;;
Cape Coast;Cape Coast Rch Central;;Cape Coast Metropolitan Hospital;;;;;
Cape Coast;Cape Coast Rch Central;;Cape Coast RCH Centre;;;;;
Cape Coast;Cape Coast Rch Central;;Nutrition Rehabilitation Centre;;;;;
Cape Coast;Efutu;;DEHIA CHPS;;;;;
Cape Coast;Efutu;;Efutu Health Centre;;;;;
Cape Coast;Efutu;;EFUTU MAMPONG CHPS;;;;;
Cape Coast;Ewim;;Brofoyedur CHPS;;;;;
Cape Coast;Ewim;;Cape Deaf Clinic;;;;;
Cape Coast;Ewim;;Ekon CHPS;;;;;
Cape Coast;Ewim;;Ewim Polyclinic;;;;;
Cape Coast;Ewim;;Nkanfoa CHPS;;;;;
Cape Coast;Ewim;;Sanford Word Clinic;;;;;
Cape Coast;Ewim;;Tantri Clinic;;;;;
Cape Coast;Ewim;;The Saint Maternity Home;;;;;
Cape Coast;UCC;;Akotokyir CHPS;;;;;
Cape Coast;UCC;;Amamoma CHPS;;;;;
Cape Coast;UCC;;DUAKOR/ABAKAM CHPS;;;;;
Cape Coast;UCC;;Fellowship Chapel Clinic;;;;;
Cape Coast;UCC;;OLA CHPS;;;;;
Cape Coast;UCC;;University Hospital;;;;;
Efutu;Essuekyir-Gyahadze;;Essuekyir CHPS Zone;;;;;
Efutu;Essuekyir-Gyahadze;;Gyangyanadze CHPS;;;;;
Efutu;Kojo Beedu North - Low cost;;Ansaful CHPS;;;;;
Efutu;Kojo Beedu North - Low cost;;Klimovic Memorial Hospital;;;;;
Efutu;Kojo Beedu North - Low cost;;Trauma & Specialist Hospital;;;;;
Efutu;Winneba East;;Baptist Hospital;;;;;
Efutu;Winneba East;;Winneba Municipal Hospital;;;;;
Efutu;Winneba East;;Zongo CHPS;;;;;
Efutu;Winneba West;;Bethel (Effutu) Mat. Home;;;;;
Efutu;Winneba West;;Otoo Memorial Hospital;;;;;
Efutu;Winneba West;;University (efutu) Clinic;;;;;
Efutu;Winneba West;;Winneba Health Centre;;;;;
Ekumfi;Essuehyia;;Bethel (mfantsiman) Homeopathic Clinic;;;;;
Ekumfi;Essuehyia;;Ekrawfol CHPS;;;;;
Ekumfi;Essuehyia;;Ekumpoano CHPS;;;;;
Ekumfi;Essuehyia;;Essuehyia Health Center;;;;;
Ekumfi;Essuehyia;;Eyisam CHPS;;;;;
Ekumfi;Essuehyia;;Gods Gift Maternity Home;;;;;
Ekumfi;Narkwa;;Asaafa CHPS;;;;;
Ekumfi;Narkwa;;Ebuakwa CHPS;;;;;
Ekumfi;Narkwa;;Edumafa CHPS Zone;;;;;
Ekumfi;Narkwa;;Nanabeng CHPS;;;;;
Ekumfi;Narkwa;;Narkwa CHPS;;;;;
Ekumfi;Otuam;;Immuna CHPS;;;;;
Ekumfi;Otuam;;Otuam Health Center;;;;;
Ekumfi;Otuam;;Srafa Kokodo CHPS;;;;;
Gomoa East;Buduatta;;Buduatta Health Centre;;;;;
Gomoa East;Buduatta;;Dasum CHPS;;;;;
Gomoa East;Buduatta;;DOMINASE CHPS;;;;;
Gomoa East;Buduatta;;ODUMASE CHPS;;;;;
Gomoa East;Buduburam;;Becerota Maternity Home/Clinic;;;;;
Gomoa East;Buduburam;;Buduburam Rch;;;;;
Gomoa East;Buduburam;;Oduraa Maternity Home;;;;;
Gomoa East;Buduburam;;St Gregory Catholic Hospital;;;;;
Gomoa East;Buduburam;;The Lord is My Sheperd Maternity Home/Clinic;;;;;
Gomoa East;Nyanyano;;Central Kasoa Clinic, Annex;;;;;
Gomoa East;Nyanyano;;Nadom Maternity Home;;;;;
Gomoa East;Nyanyano;;Nyanyano Health Centre;;;;;
Gomoa East;Nyanyano;;SANDY CLINIC;;;;;
Gomoa East;Obuasi;;ABOSO CHPS ZONE;;;;;
Gomoa East;Obuasi;;DAHOM CHPS ZONE;;;;;
Gomoa East;Obuasi;;LOME CHPS;;;;;
Gomoa East;Obuasi;;Obuasi Health Centre;;;;;
Gomoa East;Ojobi;;Akramang CHPS Compound;;;;;
Gomoa East;Ojobi;;Fetteh CHPS Zone;;;;;
Gomoa East;Ojobi;;Hope Christian Hospital;;;;;
Gomoa East;Ojobi;;Ojobi Health Centre;;;;;
Gomoa East;Okyereko;;Aseibu CHPS Compound;;;;;
Gomoa East;Okyereko;;Sanford International Clinic,Okyereko;;;;;
Gomoa East;Potsin;;Adzentem CHPS Compound;;;;;
Gomoa East;Potsin;;Ekwemkrom CHPS;;;;;
Gomoa East;Potsin;;Manso CHPS Compound;;;;;
Gomoa East;Potsin;;Nsuaem CHPS Compound;;;;;
Gomoa East;Potsin;;Potsin CHPS;;;;;
Gomoa East;Potsin;;Sanford International Clinic Abasa;;;;;
Gomoa West;Apam;;Apam Rch;;;;;
Gomoa West;Apam;;Godfrey Martenity Home;;;;;
Gomoa West;Apam;;Nkoransa CHPS;;;;;
Gomoa West;Apam;;St Luke Catholic Hospital Apam;;;;;
Gomoa West;Brofo;;Brofo CHPS;;;;;
Gomoa West;Brofo;;Kyiren CHPS zone;;;;;
Gomoa West;Brofo;;Ngyriesi CHPS;;;;;
Gomoa West;Brofo;;Sampa (gomoa West) CHPS;;;;;
Gomoa West;Dago;;Assin CHPS Zone;;;;;
Gomoa West;Dago;;Dago Health centre;;;;;
Gomoa West;Dago;;Obiri CHPS;;;;;
Gomoa West;Mumford;;Mumford CHPS;;;;;
Gomoa West;Mumford;;Mumford Health centre;;;;;
Gomoa West;Oguaa;;Eshiem (gomoa West) CHPS;;;;;
Gomoa West;Oguaa;;Kumasi CHPS;;;;;
Gomoa West;Oguaa;;Oguaa Health Centre;;;;;
Gomoa West;Oguaa;;Tarkwa CHPS;;;;;
Gomoa West;Onyadze;;Abonko CHPS;;;;;
Gomoa West;Onyadze;;Abrekum CHPS;;;;;
Gomoa West;Onyadze;;Mankoadze;;;;;
Gomoa West;Onyadze;;Mprumem CHPS;;;;;
Gomoa West;Onyadze;;Noguchi Health Centre;;;;;
Gomoa West;Osedze;;Fomena CHPS;;;;;
Gomoa West;Osedze;;Kokofu CHPS;;;;;
Gomoa West;Osedze;;Osedzie Health centre;;;;;
Gomoa West;Osedze;;Wassa CHPS;;;;;
Komenda-Edina-Eguafo-Abirem;Agona (central);;Agona (keea) Health Centre;;;;;
Komenda-Edina-Eguafo-Abirem;Agona (central);;Bando Han Medical Centre;;;;;
Komenda-Edina-Eguafo-Abirem;Agona (central);;Benyadze CHPS;;;;;
Komenda-Edina-Eguafo-Abirem;Agona (central);;Berase CHPS;;;;;
Komenda-Edina-Eguafo-Abirem;Agona (central);;Egyeikrom Refugee Camp;;;;;
Komenda-Edina-Eguafo-Abirem;Agona (central);;Saman Abortar Park (SAP) CHPS;;;;;
Komenda-Edina-Eguafo-Abirem;Ankaful;;Ankaful Communicable Disease Prisons;;;;;
Komenda-Edina-Eguafo-Abirem;Ankaful;;Ankaful Gen Leprosy Hospital;;;;;
Komenda-Edina-Eguafo-Abirem;Ankaful;;Ankaful Psychiatry Hospital;;;;;
Komenda-Edina-Eguafo-Abirem;Ankaful;;Atonkwa CHPS;;;;;
Komenda-Edina-Eguafo-Abirem;Elmina;;Brenu Akyinim CHPS;;;;;
Komenda-Edina-Eguafo-Abirem;Elmina;;Bronyibima CHPS;;;;;
Komenda-Edina-Eguafo-Abirem;Elmina;;Elmina Urban Health Centre;;;;;
Komenda-Edina-Eguafo-Abirem;Elmina;;Good Shepherd Maternity Home;;;;;
Komenda-Edina-Eguafo-Abirem;Elmina;;Paa Watenberg Maternity;;;;;
Komenda-Edina-Eguafo-Abirem;Kissi;;Abeyee CHPS;;;;;
Komenda-Edina-Eguafo-Abirem;Kissi;;Antseambua CHPS;;;;;
Komenda-Edina-Eguafo-Abirem;Kissi;;Kissi Health Centre;;;;;
Komenda-Edina-Eguafo-Abirem;Komenda;;Aburansa CHPS Zone;;;;;
Komenda-Edina-Eguafo-Abirem;Komenda;;Komenda Health Centre;;;;;
Komenda-Edina-Eguafo-Abirem;Komenda;;NyameTsease (keea) Maternity Home;;;;;
Mfantsiman;Anomabo;;Anomabo Health Center;;;;;
Mfantsiman;Anomabo;;Nsanfo CHPS;;;;;
Mfantsiman;Anomabo;;Taido CHPS;;;;;
Mfantsiman;Biriwa;;Akatakyiwa CHPS Zone;;;;;
Mfantsiman;Biriwa;;Asafora CHPS;;;;;
Mfantsiman;Biriwa;;Biriwa Community Clinic;;;;;
Mfantsiman;Biriwa;;St Jude Clinic;;;;;
Mfantsiman;Dominase (central);;Akobima CHPS;;;;;
Mfantsiman;Dominase (central);;Dominase Health Centre;;;;;
Mfantsiman;Mankessim;;Fynnba Hospital;;;;;
Mfantsiman;Mankessim;;Mankessim Health Center;;;;;
Mfantsiman;Mankessim;;Mankessim Market CHPS Zone;;;;;
Mfantsiman;Mankessim;;Mercy (mfantsiman) Maternity And Women Centre;;;;;
Mfantsiman;Mankessim;;Peace (mfantsiman) Clinic;;;;;
Mfantsiman;Mankessim;;Prince Charles Clinic;;;;;
Mfantsiman;Mankessim;;SANFORD WORLD CLINIC;;;;;
Mfantsiman;Mankessim;;St Anthony Manternity Home;;;;;
Mfantsiman;Saltpond;;Ankaful CHPs;;;;;
Mfantsiman;Saltpond;;Hini CHPS;;;;;
Mfantsiman;Saltpond;;Kormantse Clinic;;;;;
Mfantsiman;Saltpond;;Kuntu CHPS;;;;;
Mfantsiman;Saltpond;;Saltpond Hospital;;;;;
Twifu-Hemang Lower Denkyira;Frami;;Frami Health Center;;;;;
Twifu-Hemang Lower Denkyira;Frami;;Mfoum CHPS;;;;;
Twifu-Hemang Lower Denkyira;Frami;;St Vincent Community Clinic;;;;;
Twifu-Hemang Lower Denkyira;Hemang;;Hemang (twifo-hemang Lower Denkyira) Health Centre;;;;;
Twifu-Hemang Lower Denkyira;Hemang;;Nsutem CHPS;;;;;
Twifu-Hemang Lower Denkyira;Hemang;;Shed CHPS;;;;;
Twifu-Hemang Lower Denkyira;Hemang;;Wawase CHPS;;;;;
Twifu-Hemang Lower Denkyira;Jukwa;;Jukwa Health Centre;;;;;
Twifu-Hemang Lower Denkyira;Jukwa;;Jukwa Watreso CHPS;;;;;
Twifu-Hemang Lower Denkyira;Jukwa;;Krobo (twifo-hemang Lower Denkyira) CHPS;;;;;
Twifu-Ati-Mokwa;Mokwa;;Adade Kofi CHPS;;;;;
Twifu-Ati-Mokwa;Mokwa;;Agona Pentecost Clinic;;;;;
Twifu-Ati-Mokwa;Mokwa;;Kotokye CHPS;;;;;
Twifu-Ati-Mokwa;Mokwa;;Mokwa Health Centre;;;;;
Twifu-Ati-Mokwa;Nyinase;;Kayeriku CHPS;;;;;
Twifu-Ati-Mokwa;Nyinase;;Nyinase CHPS;;;;;
Twifu-Ati-Mokwa;Praso;;DENYASE CHPS;;;;;
Twifu-Ati-Mokwa;Praso;;Mampong chps;;;;;
Twifu-Ati-Mokwa;Praso;;Ntiamoah CHPS;;;;;
Twifu-Ati-Mokwa;Praso;;Nuamakrom CHPS;;;;;
Twifu-Ati-Mokwa;Praso;;Praso Hospital;;;;;
Twifu-Ati-Mokwa;Praso;;St Florence (twifo-hemang Lower Denkyira) Mat;;;;;
Twifu-Ati-Mokwa;Praso;;TOPP Clinic;;;;;
Twifu-Ati-Mokwa;Wamaso;;Ayebeng CHPS;;;;;
Twifu-Ati-Mokwa;Wamaso;;Wamaso CHPS;;;;;
Upper Denkyira East;Asikuma(Denkyira East);;Achiase CHPS;;;;;
Upper Denkyira East;Asikuma(Denkyira East);;Asikumah (upper Denkyira East) CHPS;;;;;
Upper Denkyira East;Asikuma(Denkyira East);;Esaase CHPS;;;;;
Upper Denkyira East;Asikuma(Denkyira East);;Meretweso CHPS;;;;;
Upper Denkyira East;Dunkwa;;Buabin CHPS;;;;;
Upper Denkyira East;Dunkwa;;Buabinso CHPS;;;;;
Upper Denkyira East;Dunkwa;;Cecila Maternity Home;;;;;
Upper Denkyira East;Dunkwa;;Dunkwa Municipal Hospital;;;;;
Upper Denkyira East;Dunkwa;;Dunkwa Rch;;;;;
Upper Denkyira East;Dunkwa;;Great Redeemer Hospital;;;;;
Upper Denkyira East;Dunkwa;;Nkwanta(UDE) CHPS;;;;;
Upper Denkyira East;Dunkwa;;RIIS Clinic;;;;;
Upper Denkyira East;Dunkwa;;St Mark Hospital;;;;;
Upper Denkyira East;Dunkwa;;Tema East Comm. Clinic (Upper Denkyira East);;;;;
Upper Denkyira East;Dunkwa;;Zongo CHPS;;;;;
Upper Denkyira East;Imbraim;;Abudukrom CHPS;;;;;
Upper Denkyira East;Imbraim;;Denyase CHPS;;;;;
Upper Denkyira East;Imbraim;;Imbraim CHPS;;;;;
Upper Denkyira East;Imbraim;;Kramokrom CHPS (Upper Denkyira East);;;;;
Upper Denkyira East;Imbraim;;Sunkwa (upper Denkyira East) Clinic;;;;;
Upper Denkyira East;Kyekyewere;;Amoafo CHPS;;;;;
Upper Denkyira East;Kyekyewere;;Asmah Camp CHPS;;;;;
Upper Denkyira East;Kyekyewere;;Denkyira Fosu CHPS;;;;;
Upper Denkyira East;Kyekyewere;;Kyekyewere (upper Dekyira East) Health Centre;;;;;
Upper Denkyira East;Kyekyewere;;Praprababida CHPS;;;;;
Upper Denkyira East;Kyekyewere;;Zion Camp CHPS;;;;;
Upper Denkyira East;Oponso;;Agyempoma CHPS;;;;;
Upper Denkyira East;Oponso;;Atobiase CHPS;;;;;
Upper Denkyira East;Oponso;;Oponso Health Centre;;;;;
Upper Denkyira East;Pokukrom;;Compound CHPS;;;;;
Upper Denkyira East;Pokukrom;;Pokukrom Health Centre (UDE);;;;;
Upper Denkyira West;Ayanfuri;;Adwinpaye EA;;;;;
Upper Denkyira West;Ayanfuri;;Anhwiawia CHPS Compound;;;;;
Upper Denkyira West;Ayanfuri;;Ayanfuri CHPS;;;;;
Upper Denkyira West;Ayanfuri;;Breman/Brofoyedur CHPS;;;;;
Upper Denkyira West;Ayanfuri;;Dabiase/Wampeim EA;;;;;
Upper Denkyira West;Ayanfuri;;Dominase CHPS;;;;;
Upper Denkyira West;Ayanfuri;;Fobinso CHPS;;;;;
Upper Denkyira West;Ayanfuri;;Johns (upper Dekyira West) Clinic;;;;;
Upper Denkyira West;Ayanfuri;;Nkotumso/Nkasawura;;;;;
Upper Denkyira West;Ayanfuri;;Pentecost Health Centre;;;;;
Upper Denkyira West;Ayanfuri;;SDA Clinic;;;;;
Upper Denkyira West;Ayanfuri;;St Andrews Anglican Clinic;;;;;
Upper Denkyira West;Ayanfuri;;Treposo CHPS Compound;;;;;
Upper Denkyira West;Diaso;;Adonia Clinic;;;;;
Upper Denkyira West;Diaso;;Amenase CHPS zone;;;;;
Upper Denkyira West;Diaso;;Denkyira Obuasi CHPS Compound;;;;;
Upper Denkyira West;Diaso;;Diaso EA;;;;;
Upper Denkyira West;Diaso;;Diaso Health Centre;;;;;
Upper Denkyira West;Diaso;;Jameso Nkwanta CHPS;;;;;
Upper Denkyira West;Diaso;;Ntom Electoral Area;;;;;
Upper Denkyira West;Ntom;;Amoaman CHPS Compound;;;;;
Upper Denkyira West;Ntom;;Asuadei Clinic;;;;;
Upper Denkyira West;Ntom;;Bethlehem CHPS;;;;;
Upper Denkyira West;Ntom;;Nkronua CHPS Compound;;;;;
Upper Denkyira West;Ntom;;Ntom CHPS;;;;;
Upper Denkyira West;Subin (central);;Afiefiso/Ameyaw Electoral Area;;;;;
Upper Denkyira West;Subin (central);;Akwaboso CHPS;;;;;
Upper Denkyira West;Subin (central);;Ampabena/Betenase CHPS zone;;;;;
Upper Denkyira West;Subin (central);;Nyinawusu/Anhwiaso Electoral Area;;;;;
Upper Denkyira West;Subin (central);;Subin Health Centre;;;;;
Upper Denkyira West;Subin (central);;Subin Hill Electoral Area;;;;;
