LGA;Ward;Settlement;Facility;Type;Ownership;Address;Longitude;Latitude
Akyemansa;Abenase;;Abenase Health Centre;;;;;
Akyemansa;Abenase;;Gyaha Health Center;;;;;
Akyemansa;Abenase;;Mukyia CHPS;;;;;
Akyemansa;Akokoaso;;Adwafo CHPS;;;;;
Akyemansa;Akokoaso;;Akokoaso Health Center;;;;;
Akyemansa;Akokoaso;;Akyem Takyiman CHPS;;;;;
Akyemansa;Akokoaso;;Boso Villa CHPS;;;;;
Akyemansa;Anyinase;;Adwobue CHPS;;;;;
Akyemansa;Anyinase;;Anyinase Health Centre;;;;;
Akyemansa;Anyinase;;Zevor CHPS;;;;;
Akyemansa;Ayirebi;;Adubiase CHPS;;;;;
Akyemansa;Ayirebi;;Ayirebi Health Centre;;;;;
Akyemansa;Ayirebi;;Gyewani Nkwanta CHPS;;;;;
Akyemansa;Ayirebi;;Kofi Nimo CHPS;;;;;
Akyemansa;Ayirebi;;Nyamebekyere (akyemansa) CHPS;;;;;
Akyemansa;Ayirebi;;Odumase CHPS;;;;;
Akyemansa;Brenase;;Brenase Health Centre;;;;;
Akyemansa;Brenase;;Chia CHPS;;;;;
Akyemansa;Brenase;;Kotokuom (akyemansa) CHPS;;;;;
Akyemansa;Ofoase (eastern);;Asuboa North CHPS;;;;;
Akyemansa;Ofoase (eastern);;Bontodiase CHPS;;;;;
Akyemansa;Ofoase (eastern);;Holy Horniel Maternity Clinic;;;;;
Akyemansa;Ofoase (eastern);;Ofoase Urban CHPS;;;;;
Akyemansa;Ofoase (eastern);;St Johns (akyemansa) Clinic;;;;;
Akyemansa;Otwereso;;Akyekrom CHPS;;;;;
Akyemansa;Otwereso;;Asabidie CHPS;;;;;
Akyemansa;Otwereso;;Kwaboadi No 2 CHPS;;;;;
Akyemansa;Otwereso;;Otwereso CHPS;;;;;
Akwapim North;Adawso;;Aboabo CHPS;;;;;
Akwapim North;Adawso;;Adawso Health Center;;;;;
Akwapim North;Adawso;;Addo Nkwanta CHPS;;;;;
Akwapim North;Adawso;;Ahenkorase Zngo CHPS;;;;;
Akwapim North;Adawso;;BAWARE CHPS;;;;;
Akwapim North;Adawso;;Kwamoso CHPS;;;;;
Akwapim North;Adawso;;Tadankro CHPS;;;;;
Akwapim North;Adawso;;Tandakro CHPS;;;;;
Akwapim North;Adukrom;;ABONSE CHPS;;;;;
Akwapim North;Adukrom;;Adukrom Health Center;;;;;
Akwapim North;Adukrom;;AKUNI;;;;;
Akwapim North;Adukrom;;Apirede CHPS;;;;;
Akwapim North;Adukrom;;Aseseeso Clinic;;;;;
Akwapim North;Adukrom;;Bepoase Nifa CHPS;;;;;
Akwapim North;Adukrom;;Kwamanteng CHPS;;;;;
Akwapim North;Akropong (eastern);;Abiriw CHPS;;;;;
Akwapim North;Akropong (eastern);;Abiriw Clinic;;;;;
Akwapim North;Akropong (eastern);;Council Area CHPS;;;;;
Akwapim North;Akropong (eastern);;Daakye Aboasah CHPS;;;;;
Akwapim North;Akropong (eastern);;Dawu CHPS;;;;;
Akwapim North;Akropong (eastern);;Okuapeman East Orange Clinic;;;;;
Akwapim North;Akropong (eastern);;Yerewa CHPS;;;;;
Akwapim North;Larteh;;Bentum-Larteh Junction CHPS;;;;;
Akwapim North;Larteh;;Kubease-Ahease CHPS;;;;;
Akwapim North;Larteh;;Larteh Health Center;;;;;
Akwapim North;Larteh;;Manfe CHPS;;;;;
Akwapim North;Mampong;;Abotakyi CHPS;;;;;
Akwapim North;Mampong;;All Saint Mat Home;;;;;
Akwapim North;Mampong;;Amanokrom CHPS;;;;;
Akwapim North;Mampong;;Besease CHPS;;;;;
Akwapim North;Mampong;;Centre For Scientific Research Into Plant Medicine;;;;;
Akwapim North;Mampong;;MAMPONG URBAN CHPS;;;;;
Akwapim North;Mampong;;Medicas CHPS;;;;;
Akwapim North;Mampong;;MEDICAS HOSPITAL;;;;;
Akwapim North;Mampong;;Nameloc Clinic;;;;;
Akwapim North;Mampong;;Obosomase Clinic;;;;;
Akwapim North;Mampong;;RHI MEDICAL CENTER;;;;;
Akwapim North;Mampong;;Tetteh Quarshie Memorial Hospital;;;;;
Akwapim North;Mampong;;TUTU CHPS;;;;;
Akwapim North;Mangoase;;Behenase CHPS;;;;;
Akwapim North;Mangoase;;GBOLOO KOFI;;;;;
Akwapim North;Mangoase;;Mangoase (AKN) Health Center;;;;;
Akwapim North;Mangoase;;New Manguase Cementso CHPS;;;;;
Akwapim North;Mangoase;;Old Mangoase CHPS;;;;;
Akwapim North;Mangoase;;Sokwenya CHPS;;;;;
Akwapim North;Okrakwadjo;;Aboma CHPS;;;;;
Akwapim North;Okrakwadjo;;Akyeremateng CHPS;;;;;
Akwapim North;Okrakwadjo;;Amanfro Clinic;;;;;
Akwapim North;Okrakwadjo;;Asenema CHPS;;;;;
Akwapim North;Okrakwadjo;;Dawu Sanfo CHPS;;;;;
Akwapim North;Okrakwadjo;;Galikope-Dantiko CHPS;;;;;
Akwapim North;Okrakwadjo;;Lakpa CHPS;;;;;
Akwapim North;Okrakwadjo;;Nanabanin CHPS;;;;;
Akwapim North;Okrakwadjo;;Okrakwadjo CHPS;;;;;
Akwapim North;Okrakwadjo;;Okrakwadjo Health Centre;;;;;
Akwapim North;Okrakwadjo;;Sanfo Ano CHPS;;;;;
Akwapim North;Okrakwadjo;;Twum Guaso CHPS;;;;;
Akwapim North;Tinkong;;Ados Maternity;;;;;
Akwapim North;Tinkong;;Kentenkiren CHPS;;;;;
Akwapim North;Tinkong;;Konko CHPS;;;;;
Akwapim North;Tinkong;;Live Now Clinic;;;;;
Akwapim North;Tinkong;;Nyarkoa Mat Home;;;;;
Akwapim North;Tinkong;;Okorase CHPS;;;;;
Akwapim North;Tinkong;;OSABENE CHPS;;;;;
Akwapim North;Tinkong;;Tinkong CHPS;;;;;
Akwapim South;Aburi;;Adamorobe CHPS;;;;;
Akwapim South;Aburi;;Ahwerease CHPS;;;;;
Akwapim South;Aburi;;Amanfo CHPS;;;;;
Akwapim South;Aburi;;Asuafum CHPS;;;;;
Akwapim South;Aburi;;Jamaicaso CHPS;;;;;
Akwapim South;Aburi;;Kom Clinic;;;;;
Akwapim South;Berekuso;;Comet CHPS;;;;;
Akwapim South;Berekuso;;Agyementi CHPS;;;;;
Akwapim South;Berekuso;;Berekuso Health Centre;;;;;
Akwapim South;Berekuso;;Kitase CHPS;;;;;
Akwapim South;Berekuso;;Konkonuru CHPS;;;;;
Akwapim South;Obotwere;;Asheresu CHPS;;;;;
Akwapim South;Obotwere;;Dego CHPS;;;;;
Akwapim South;Obotwere;;Fahiakor CHPS;;;;;
Akwapim South;Obotwere;;Obotwere Health Centre;;;;;
Akwapim South;Pakro;;Abaase CHPS;;;;;
Akwapim South;Pakro;;Ankwensu/Tabankro CHPS;;;;;
Akwapim South;Pakro;;Fante Town CHPS;;;;;
Akwapim South;Pakro;;Obossono CHPS;;;;;
Akwapim South;Pakro;;Pakro Health Centre;;;;;
Akwapim South;Pakro;;Pakro Zongo CHPS;;;;;
Akwapim South;Pokrom;;Attakrom CHPS;;;;;
Akwapim South;Pokrom;;Nkumkrom CHPS;;;;;
Akwapim South;Pokrom;;Nsabaa CHPS;;;;;
Akwapim South;Pokrom;;Nsakye CHPS;;;;;
Akwapim South;Pokrom;;Oboadaka CHPS;;;;;
Akwapim South;Pokrom;;Obodan CHPS;;;;;
Akwapim South;Pokrom;;Pokrom Health Centre;;;;;
Akwapim South;Pokrom;;Yaw Duodu CHPS;;;;;
Afram Plains South;Agyata;;Agyata CHPS;;;;;
Afram Plains South;Agyata;;Gadorkope CHPS;;;;;
Afram Plains South;Agyata;;Takoratwene CHPS;;;;;
Afram Plains South;Asanyansu;;Nsuogyaso CHPS;;;;;
Afram Plains South;Asanyansu;;Asanyanso Health Centre;;;;;
Afram Plains South;Asanyansu;;Dome CHPS;;;;;
Afram Plains South;Asanyansu;;Hwanyanso CHPS;;;;;
Afram Plains South;Dim Sakabo;;Dim Sikabo CHPS;;;;;
Afram Plains South;Ekye;;Bumpata CHPS;;;;;
Afram Plains South;Ekye;;Ekye Central CHPS;;;;;
Afram Plains South;Ekye;;Ekye Health Centre;;;;;
Afram Plains South;Forifori;;Forifori Health Centre;;;;;
Afram Plains South;Forifori;;Fosu CHPS;;;;;
Afram Plains South;Forifori;;Kwame Dwamena CHPS;;;;;
Afram Plains South;Kwasi Fante;;Bonkrom CHPS;;;;;
Afram Plains South;Kwasi Fante;;Kwasi Fante Health Centre;;;;;
Afram Plains South;Mame Krobo;;Abundant Life Health Services;;;;;
Afram Plains South;Mame Krobo;;Dunkro CHPS;;;;;
Afram Plains South;Mame Krobo;;Maame Krobo Health Centre;;;;;
Afram Plains South;Samanhyia;;Koranteng CHPS;;;;;
Afram Plains South;Samanhyia;;Koranteng Krachi CHPS;;;;;
Afram Plains South;Samanhyia;;Kwasi Addae CHPS;;;;;
Afram Plains South;Samanhyia;;Kwesi Kumah CHPS;;;;;
Afram Plains South;Samanhyia;;Mmradan CHPS;;;;;
Afram Plains South;Samanhyia;;Samanhyia CHPS;;;;;
Afram Plains South;Tease;;Tease Health Centre;;;;;
Afram Plains South;Tease;;Tease Island CHPS;;;;;
Afram Plains South;Tease;;Twerefour Faaso CHPS;;;;;
Asuogyaman;Senchi;;Hedwigs Clinic;;;;;
Asuogyaman;Senchi;;New Akrade CHPS;;;;;
Asuogyaman;Senchi;;New Senchi RCH;;;;;
Asuogyaman;Senchi;;Old Akrade CHPS;;;;;
Asuogyaman;Senchi;;Senchi Ferry Asuogyaman;;;;;
Asuogyaman;Senchi;;South Senchi Clinic;;;;;
Asuogyaman;Adjena Gyakiti;;Adjena Health Center;;;;;
Asuogyaman;Adjena Gyakiti;;Gyakiti Clinic;;;;;
Asuogyaman;Adjena Gyakiti;;Kudi Kope CHPS;;;;;
Asuogyaman;Adjena Gyakiti;;Sappor CHPS;;;;;
Asuogyaman;Adjena Gyakiti;;Sedorm CHPS;;;;;
Asuogyaman;Akosombo;;Akosombo VRA Hospital;;;;;
Asuogyaman;Akosombo;;Naabs Clinic;;;;;
Asuogyaman;Akwamufie Apeguso;;Aboasa CHPS;;;;;
Asuogyaman;Akwamufie Apeguso;;Akwamufie Health Center;;;;;
Asuogyaman;Akwamufie Apeguso;;Apeguso Clinic;;;;;
Asuogyaman;Akwamufie Apeguso;;Ayensu CHPS;;;;;
Asuogyaman;Akwamufie Apeguso;;Frankadua Clinic;;;;;
Asuogyaman;Akwamufie Apeguso;;Mangoase (asuogyaman) CHPS;;;;;
Asuogyaman;Akwamufie Apeguso;;Osiabura CHPS;;;;;
Asuogyaman;Anum Boso;;Anum Boso Salvation Army Clinic;;;;;
Asuogyaman;Anum Boso;;Asikuma CHPS;;;;;
Asuogyaman;Anum Boso;;Boso Health Center;;;;;
Asuogyaman;Anum Boso;;Dodi Asantekrom CHPS;;;;;
Asuogyaman;Anum Boso;;New Dodi CHPS;;;;;
Asuogyaman;Atimpoku;;Atimpoku Rch;;;;;
Asuogyaman;Atimpoku;;Dzidzorkope CHPS;;;;;
Asuogyaman;Atimpoku;;Ghanakpe CHPS;;;;;
Asuogyaman;Atimpoku;;Small London;;;;;
Asuogyaman;Atimpoku;;Small London MW;;;;;
Asuogyaman;Atimpoku;;Tortibo CHPS;;;;;
Atiwa;Abomosu;;Abomosu Health Centre;;;;;
Atiwa;Abomosu;;Akakom CHPS;;;;;
Atiwa;Abomosu;;Akwaduusu CHPS;;;;;
Atiwa;Abomosu;;Asamanma CHPS;;;;;
Atiwa;Abomosu;;Asunafo (atiwa) CHPS;;;;;
Atiwa;Abomosu;;Ekoso CHPS;;;;;
Atiwa;Abomosu;;Sankubenase CHPS;;;;;
Atiwa;Abomosu;;Wekpeti CHPS;;;;;
Atiwa;Anyinam;;Adasawase CHPS;;;;;
Atiwa;Anyinam;;Aggie (atiwa) Maternity;;;;;
Atiwa;Anyinam;;Anyinam Health Centre;;;;;
Atiwa;Anyinam;;Asamang Tamfoe CHPS;;;;;
Atiwa;Anyinam;;Enyiresi Hospital;;;;;
Atiwa;Anyinam;;Healthline Medical Center;;;;;
Atiwa;Anyinam;;Moseaso(atiwa) CHPS;;;;;
Atiwa;Awenare;; Akropong (atiwa) CHPS;;;;;
Atiwa;Awenare;; Awenare Health Center;;;;;
Atiwa;Awenare;; Banso CHPS;;;;;
Atiwa;Awenare;; Larbikrom CHPS;;;;;
Atiwa;Awenare;; Pemeng CHPS;;;;;
Atiwa;Awenare;; Tumfa CHPS;;;;;
Atiwa;Kadewaso;; Kadewaso CHPS;;;;;
Atiwa;Kadewaso;; Tiawia CHPS;;;;;
Atiwa;Kwabeng;;Abrenya CHPS;;;;;
Atiwa;Kwabeng;;Akrofufu CHPS;;;;;
Atiwa;Kwabeng;;Bomaa CHPS;;;;;
Atiwa;Kwabeng;;Kwabeng (atiwa) Health Centre;;;;;
Atiwa;New Jejeti;;Abekwase CHPS;;;;;
Atiwa;New Jejeti;;Akutuase (atiwa) CHPS;;;;;
Atiwa;New Jejeti;;Aworensua CHPS;;;;;
Atiwa;New Jejeti;;Awosoase CHPS;;;;;
Atiwa;New Jejeti;;New Jejeti Health Centre;;;;;
Atiwa;New Jejeti;;Osoroase CHPS;;;;;
Atiwa;New Jejeti;;Sekyere CHPS;;;;;
Ayensuano;Amanase SD;;Aboabo CHPS;;;;;
Ayensuano;Amanase SD;;Amanase Health Centre;;;;;
Ayensuano;Amanase SD;;Ayekokooso CHPS;;;;;
Ayensuano;Anum Apapam;;Anum Apapam Rch;;;;;
Ayensuano;Anum Apapam;;Kwadwohum/Abeho CHPS;;;;;
Ayensuano;Anum Apapam;;Obuoho CHPS;;;;;
Ayensuano;Anum Apapam;;Obuohu CHPS;;;;;
Ayensuano;Asuboi;;Apau-wawase CHPS;;;;;
Ayensuano;Asuboi;;Asuboi Health Center;;;;;
Ayensuano;Asuboi;;Mankrong CHPS;;;;;
Ayensuano;Coaltar;;Bepoase Coaltar CHPS;;;;;
Ayensuano;Coaltar;;Coaltar Rch;;;;;
Ayensuano;Coaltar;;Dodukrom CHPS;;;;;
Ayensuano;Dorkrochiwa;;Dokrokyiwa Health Centre;;;;;
Ayensuano;Dorkrochiwa;;Yaw Donkor CHPS;;;;;
Ayensuano;Kofi Pare;;Kofi Pare Rch;;;;;
Ayensuano;Kofi Pare;;Kwaboanta CHPS;;;;;
Ayensuano;Kuano;;Achiansa CHPS;;;;;
Ayensuano;Kuano;;Dome CHPS(Ayen);;;;;
Ayensuano;Kuano;;Kuano CHPS;;;;;
Ayensuano;Kuano;;Mfranta CHPS;;;;;
Ayensuano;Kuano;;Sowatey CHPS;;;;;
Ayensuano;Marfo;;Marfo Rch;;;;;
Ayensuano;Marfo;;Otoase CHPS;;;;;
Ayensuano;Teacher Mante;;Amponsahene CHPS;;;;;
Ayensuano;Teacher Mante;;Govinakrom CHPS;;;;;
Ayensuano;Teacher Mante;;Teacher Mante CHPS;;;;;
Birim Central;Akroso;;Akroso CHPS;;;;;
Birim Central;Akroso;;Akroso Health Center;;;;;
Birim Central;Akroso;;Amanfrom (birim Central) CHPS;;;;;
Birim Central;Akroso;;Apeadam CHPS;;;;;
Birim Central;Akroso;;Teacher Atta CHPS;;;;;
Birim Central;Akroso;;Yaw Donkor CHPS;;;;;
Birim Central;Asene;;Aboabo CHPS;;;;;
Birim Central;Asene;;Asene CHPS;;;;;
Birim Central;Asene;;Batabi CHPS;;;;;
Birim Central;Asene;;Essam CHPS;;;;;
Birim Central;Asuboa;;Asanteman CHPS;;;;;
Birim Central;Asuboa;;Asuboa CHPS;;;;;
Birim Central;Asuboa;;Mofram CHPS;;;;;
Birim Central;Asuoso;;Asuoso CHPS;;;;;
Birim Central;Asuoso;;Emmanuel Maternity Clinic;;;;;
Birim Central;Asuoso;;Emmauel Maternity;;;;;
Birim Central;Asuoso;;Nyame Nti CHPS;;;;;
Birim Central;Asuoso;;St Theresa Hospital;;;;;
Birim Central;Attiankama Nkwanta;;Atiankama CHPS;;;;;
Birim Central;Attiankama Nkwanta;;Onomabo CHPS;;;;;
Birim Central;Attiankama Nkwanta;;Suponso CHPS;;;;;
Birim Central;Badukrom;;Apinto CHPS;;;;;
Birim Central;Badukrom;;Badukrom CHPS;;;;;
Birim Central;Badukrom;;Tabita CHPS;;;;;
Birim Central;Eshiem;;Asibirim CHPS;;;;;
Birim Central;Eshiem;;Bantama CHPS;;;;;
Birim Central;Eshiem;;Eshiem CHPS;;;;;
Birim Central;Eshiem;;Kyeremase CHPS;;;;;
Birim Central;Eshiem;;Mante CHPS;;;;;
Birim Central;Eshiem;;Otaipro CHPS;;;;;
Birim Central;Jamaica;;Boafo Mobile Clinic;;;;;
Birim Central;Jamaica;;EPL CHPS;;;;;
Birim Central;Jamaica;;Jamaica CHPS;;;;;
Birim Central;Jamaica;;Jubilee Hospital (BIC);;;;;
Birim Central;Jamaica;;O Right CHPS;;;;;
Birim Central;Jamaica;;Oda Hospital;;;;;
Birim Central;Manso (eastern);;Manso CHPS;;;;;
Birim Central;Manso (eastern);;Odumase CHPS;;;;;
Birim Central;Oda New Town;;Community 6 CHPS;;;;;
Birim Central;Oda New Town;;Herald Foundation CHPS;;;;;
Birim Central;Oda New Town;;Mawuli / Quarters CHPS;;;;;
Birim Central;Oda New Town;;Oda CHPS;;;;;
Birim Central;Oda New Town;;Old Premier CHPS;;;;;
Birim Central;Oda New Town;;THE COMMUNITY HOSPITAL;;;;;
Birim Central;Oda Nkwanta;;Gyadam CHPS;;;;;
Birim Central;Oda Nkwanta;;Oda Nkwanta CHPS;;;;;
Birim Central;Old Town;;Ahenbrono CHPS;;;;;
Birim Central;Old Town;;Asenee CHPS;;;;;
Birim Central;Old Town;;Nyankomasu CHPS;;;;;
Birim Central;Old Town;;Oda Old Town CHPS;;;;;
Birim Central;Old Town;;Old Premier CHPS;;;;;
Birim Central;Old Town;;South Town CHPS;;;;;
Birim North;Afosu;;Afosu Health Centre;;;;;
Birim North;Afosu;;Amenam CHPS;;;;;
Birim North;Afosu;;Mpintimpi CHPS;;;;;
Birim North;Afosu;;Praso Kuma CHPS;;;;;
Birim North;Akoase;;Akoase CHPS;;;;;
Birim North;Akoase;;Bramkrom CHPS;;;;;
Birim North;Akoase;;Kyenkyenku CHPS;;;;;
Birim North;Akoase;;Pankese CHPS;;;;;
Birim North;Amuana Praso;;Abokyikrom CHPS;;;;;
Birim North;Amuana Praso;;Amuana Praso Health Center;;;;;
Birim North;New Abirem;;Akyem Isos Clinic;;;;;
Birim North;New Abirem;;I & I clinic;;;;;
Birim North;New Abirem;;Mamanso CHPS;;;;;
Birim North;New Abirem;;New Abirem Hospital;;;;;
Birim North;New Abirem;;Okaikrom CHPS;;;;;
Birim North;Nkwateng;;Abodom CHPS;;;;;
Birim North;Nkwateng;;Adausena Health Center;;;;;
Birim North;Nkwateng;;Kuntunase CHPS;;;;;
Birim North;Nkwateng;;Nkwateng Health Centre;;;;;
Birim North;Nkwateng;;St Michaels Clinic;;;;;
Birim North;Tweapease (eastern);;Noyem CHPS;;;;;
Birim North;Tweapease (eastern);;Nyafoman CHPS;;;;;
Birim North;Tweapease (eastern);;Tweapease HC;;;;;
Birim South;Apoli;;Apoli Beposo CHPS;;;;;
Birim South;Apoli;;Apoli Health Center;;;;;
Birim South;Apoli;;Ningo CHPS;;;;;
Birim South;Achiase;;Nsuansa CHPS;;;;;
Birim South;Achiase;;Achiase Health Centre;;;;;
Birim South;Achiase;;Achiase Junction CHPS;;;;;
Birim South;Achiase;;Lab CHPS;;;;;
Birim South;Achiase;;Nya Asem Hwe CHPS;;;;;
Birim South;Achiase;;Yarewa CHPS;;;;;
Birim South;Aduasa;;Aduasa CHPS;;;;;
Birim South;Aduasa;;Akortekrom CHPS;;;;;
Birim South;Aduasa;;Oforikrom CHPS;;;;;
Birim South;Akenkausu;;Akenkensu CHPS;;;;;
Birim South;Akenkausu;;Akosombo CHPS;;;;;
Birim South;Akim Swedru;;Adiembra CHPS;;;;;
Birim South;Akim Swedru;;Awisa Health Center;;;;;
Birim South;Akim Swedru;;Swedru Catholic Clinic;;;;;
Birim South;Anamase;;Anamase CHPS;;;;;
Birim South;Anamase;;Bieni CHPS;;;;;
Birim South;Anamase;;Kokobeng CHPS;;;;;
Birim South;Aperade;;Aperade Health Centre;;;;;
Birim South;Aperade;;Duakon CHPS;;;;;
Birim South;Aperade;;Nyankomase CHPS;;;;;
Birim South;Aperade;;Takyi CHPS;;;;;
Birim South;Osoroase;;Anyinam CHPS;;;;;
Birim South;Osoroase;;Osoroase CHPS;;;;;
Birim South;Osoroase;;Teshieman CHPS;;;;;
Denkyembour;Akwatia;;Akwatia CHPS;;;;;
Denkyembour;Akwatia;;Anweaso No. 4 CHPS;;;;;
Denkyembour;Akwatia;;GCD Hospital;;;;;
Denkyembour;Akwatia;;St Dominic Hospital;;;;;
Denkyembour;Apinamang;;Apinamang CHPS;;;;;
Denkyembour;Apinamang;;Dwenease Health Centre;;;;;
Denkyembour;Apinamang;;St Dominic PHC;;;;;
Denkyembour;Boadua;;Bamanase CHPS;;;;;
Denkyembour;Boadua;;Boadua CHPS;;;;;
Denkyembour;Okumaning;;Aboabo CHPS (Denkyembou);;;;;
Denkyembour;Okumaning;;Apraku CHPS;;;;;
Denkyembour;Okumaning;;Okumaning CHPS;;;;;
Denkyembour;Takrowase;;Akim Wenchi Salvation Army Health Centre;;;;;
Denkyembour;Takrowase;;Kusi CHPS;;;;;
Denkyembour;Takrowase;;Takrowase Health Centre;;;;;
Denkyembour;Topremang;;Sakyikrom CHPS;;;;;
Denkyembour;Topremang;;Topremang CHPS;;;;;
East Akim;Amanfrom;;Akwadum/Domeabra CHPS;;;;;
East Akim;Amanfrom;;Amanfrom (East Akim) CHPS;;;;;
East Akim;Amanfrom;;Kwasikomfo CHPS;;;;;
East Akim;Amanfrom;;Odumase CHPS(East Akim);;;;;
East Akim;Amanfrom;;Potrase CHPS;;;;;
East Akim;Apedwa;;Akokoo CHPS;;;;;
East Akim;Apedwa;;Apedwa Health Centre;;;;;
East Akim;Apedwa;;Apedwa Junction CHPS;;;;;
East Akim;Apedwa;;Apedwa Town CHPS;;;;;
East Akim;Apedwa;;Nkronso CHPS;;;;;
East Akim;Asafo (eastern);;Abesim Yeboah CHPS;;;;;
East Akim;Asafo (eastern);;Addonkwanta CHPS;;;;;
East Akim;Asafo (eastern);;Agyapomaa CHPS;;;;;
East Akim;Asafo (eastern);;Asafo (east Akim) Health Centre;;;;;
East Akim;Asafo (eastern);;Asafo Town CHPS;;;;;
East Akim;Asafo (eastern);;Atwemamara CHPS;;;;;
East Akim;Asafo (eastern);;Boateh Fisher CHPS;;;;;
East Akim;Asiakwa;;Adukrom CHPS;;;;;
East Akim;Asiakwa;;Asiakwa Health Centre;;;;;
East Akim;Asiakwa;;Asiakwa Twafor CHPS;;;;;
East Akim;Asiakwa;;Sagyemase CHPS;;;;;
East Akim;Asiakwa;;SOS Clinic;;;;;
East Akim;Asiakwa;;Supong CHPS;;;;;
East Akim;Bunso;;Boso Odumase Kwamena CHPS;;;;;
East Akim;Bunso;;Bunso (East Akim) Health Centre;;;;;
East Akim;Bunso;;Bunso Town CHPS;;;;;
East Akim;Bunso;;Ettukrom CHPS;;;;;
East Akim;Bunso;;Hawa Memorial Saviour Hospital;;;;;
East Akim;Bunso;;Osiem AhienbronumCHPS;;;;;
East Akim;Bunso;;Osiem CHPS;;;;;
East Akim;Kibi;;Ahwenease/Adadientem CHPS;;;;;
East Akim;Kibi;;Apapam CHPS;;;;;
East Akim;Kibi;;Asikam CHPS;;;;;
East Akim;Kibi;;Kibi Government Hospital;;;;;
East Akim;Kibi;;Kibi New Town CHPS;;;;;
East Akim;Kibi;;Kibi Oman CHPS;;;;;
East Akim;Kibi;;Kibi Zongo CHPS;;;;;
East Akim;Kukurantumi;;Bomponso CHPS;;;;;
East Akim;Kukurantumi;;Bomponso No. 2 CHPS;;;;;
East Akim;Kukurantumi;;Esther Twum Maternity Home;;;;;
East Akim;Kukurantumi;;Kukurantumi Apotosu CHPS;;;;;
East Akim;Kukurantumi;;Kukurantumi CHPS;;;;;
East Akim;Kukurantumi;;Maase CHPS;;;;;
East Akim;Kukurantumi;;Sokode Juaso CHPS;;;;;
East Akim;Kukurantumi;;The Community Hospital Kukurantumi;;;;;
East Akim;Tafo;;Anweabeng CHPS;;;;;
East Akim;Tafo;;Anyinasin CHPS;;;;;
East Akim;Tafo;;Asiedukrom CHPS;;;;;
East Akim;Tafo;;Ati Amanfrom CHPS;;;;;
East Akim;Tafo;;CRIG Clinic;;;;;
East Akim;Tafo;;Mangoase CHPS;;;;;
East Akim;Tafo;;New Tafo Government Hospital;;;;;
East Akim;Tafo;;New Tafo Zongo CHPS;;;;;
East Akim;Tafo;;Nobi CHPS;;;;;
East Akim;Tafo;;Obodanse CHPS;;;;;
East Akim;Tafo;;Old Tafo Ahenbronum CHPS;;;;;
East Akim;Tafo;;Old Tafo CHPS;;;;;
East Akim;Tafo;;Reliance Maternity Home;;;;;
East Akim;Tafo;;Tontro CHPS;;;;;
East Akim;Tafo;;Willie Kings Maternity Home;;;;;
Fanteakwa;Abourso;;Abourso Clinic;;;;;
Fanteakwa;Abourso;;Amotare CHPS Zone;;;;;
Fanteakwa;Abourso;;Bosomtwe Upper CHPS Zone;;;;;
Fanteakwa;Abourso;;Dominase CHPS;;;;;
Fanteakwa;Ahomahomasu;;Ahomahomaso Clinic;;;;;
Fanteakwa;Ahomahomasu;;Akoradako CHPS Zone;;;;;
Fanteakwa;Ahomahomasu;;Otuater CHPS;;;;;
Fanteakwa;Ahomahomasu;;Papramanteng CHPS Zone;;;;;
Fanteakwa;Asirebuso;;Addokrom CHPS;;;;;
Fanteakwa;Asirebuso;;Asarekwao CHPS;;;;;
Fanteakwa;Asirebuso;;Asirebuso CHPS;;;;;
Fanteakwa;Begoro;;Adolescent Unit;;;;;
Fanteakwa;Begoro;;Akwanserem CHPS;;;;;
Fanteakwa;Begoro;;Ayensu CHPS Zone;;;;;
Fanteakwa;Begoro;;Begoro Clinic;;;;;
Fanteakwa;Begoro;;Begoro Hospital;;;;;
Fanteakwa;Begoro;;Begoro Salvation Army Clinic;;;;;
Fanteakwa;Begoro;;Begoro Zongo CHPS Zone;;;;;
Fanteakwa;Begoro;;Koradaso CHPS Zone;;;;;
Fanteakwa;Begoro;;Nkankama CHPS;;;;;
Fanteakwa;Begoro;;Obooho CHPS;;;;;
Fanteakwa;Begoro;;Obuase CHPS Zone;;;;;
Fanteakwa;Begoro;;Odumase East CHPS Zone;;;;;
Fanteakwa;Begoro;;Onuku CHPS Zone;;;;;
Fanteakwa;Bosuso;;Adjeikrom CHPS Zone;;;;;
Fanteakwa;Bosuso;;Asedja/Dorse CHPS;;;;;
Fanteakwa;Bosuso;;Bepoase CHPS Zone;;;;;
Fanteakwa;Bosuso;;Bosuso Health Centre;;;;;
Fanteakwa;Bosuso;;Ehiamankyene (fanteakwa) Clinic;;;;;
Fanteakwa;Bosuso;;Kplandey CHPS Zone;;;;;
Fanteakwa;Dedeso;;Adakope CHPS Zone;;;;;
Fanteakwa;Dedeso;;Dedeso Clinic;;;;;
Fanteakwa;Dedeso;;Odotorm CHPS;;;;;
Fanteakwa;Osino;;Abompe CHPS Zone;;;;;
Fanteakwa;Osino;;Ame Zion Health Centre;;;;;
Fanteakwa;Osino;;Dwenase (fanteakwa) CHPS;;;;;
Fanteakwa;Osino;;Hemang (fanteakwa) CHPS;;;;;
Fanteakwa;Osino;;His Grace Maternity Home;;;;;
Fanteakwa;Osino;;Nsutam CHPS;;;;;
Fanteakwa;Osino;;Saamang CHPS;;;;;
Kwaebibirem;Abaam;;Abaam CHPS;;;;;
Kwaebibirem;Abaam;;Abodom CHPS;;;;;
Kwaebibirem;Abaam;;Okyinso CHPS;;;;;
Kwaebibirem;Abenehease;;Abehenease CHPS;;;;;
Kwaebibirem;Abenehease;;Atobriso CHPS;;;;;
Kwaebibirem;Abenehease;;Larbikrom CHPS;;;;;
Kwaebibirem;Abenehease;;Old Ntronang CHPS;;;;;
Kwaebibirem;Asuom;;Apenkwa CHPS;;;;;
Kwaebibirem;Asuom;;Asuom Amanfrom CHPS;;;;;
Kwaebibirem;Asuom;;Asuom Health Centre;;;;;
Kwaebibirem;Asuom;;Bomso (Kbr) CHPS;;;;;
Kwaebibirem;Asuom;;Bowohomoden CHPS;;;;;
Kwaebibirem;Asuom;;Kwaebibirem Beposo CHPS;;;;;
Kwaebibirem;Asuom;;Tweapease (Kbr) CHPS;;;;;
Kwaebibirem;Kade;;Adankrono CHPS;;;;;
Kwaebibirem;Kade;;Kade Daakye CHPS;;;;;
Kwaebibirem;Kade;;Kade Govt Hospital;;;;;
Kwaebibirem;Kade;;Kade Guggisburg CHPS;;;;;
Kwaebibirem;Kade;;Kade Zongo CHPS;;;;;
Kwaebibirem;Otumi;;Anweam (Kbr) CHPS;;;;;
Kwaebibirem;Otumi;;James Town (Kbr) CHPS;;;;;
Kwaebibirem;Otumi;;Kwae CHPS;;;;;
Kwaebibirem;Otumi;;Mintabomeng Koka CHPS;;;;;
Kwaebibirem;Otumi;;Otumi CHPS;;;;;
Kwaebibirem;Otumi;;Total House Clinic;;;;;
Kwaebibirem;Pramkese;;Pramkese Health Centre;;;;;
Kwaebibirem;Pramkese;;Twumwusu CHPS;;;;;
Kwaebibirem;Subi;;Abompe CHPS;;;;;
Kwaebibirem;Subi;;Nkwantanang (Kbr) CHPS;;;;;
Kwaebibirem;Subi;;Subi Health Centre;;;;;
Kwaebibirem;Takyiman;;Abenaso CHPS;;;;;
Kwaebibirem;Takyiman;;Akim Kwamang CHPS;;;;;
Kwaebibirem;Takyiman;;Takyiman CHPS;;;;;
Kwahu East;Abetifi;;Abene CHPS;;;;;
Kwahu East;Abetifi;;Abetifi Health Centre;;;;;
Kwahu East;Akwasiho;;Aduhima CHPS;;;;;
Kwahu East;Akwasiho;;Akwasiho Health Centre;;;;;
Kwahu East;Akwasiho;;Ante Adwoa Maternity Home;;;;;
Kwahu East;Akwasiho;;Suminakese CHPS;;;;;
Kwahu East;Ankoma;;Ankoma CHPS;;;;;
Kwahu East;Ankoma;;Oframase Maternity Home;;;;;
Kwahu East;Ankoma;;Oworobong CHPS;;;;;
Kwahu East;Ankoma;;St Michaels (kwahu East) Maternity Home;;;;;
Kwahu East;Hweehwee;;Dwerebease CHPS;;;;;
Kwahu East;Hweehwee;;Hweehwee CHPS;;;;;
Kwahu East;Hweehwee;;Onyame Adom Maternity Home;;;;;
Kwahu East;Hweehwee;;Onyemso CHPS;;;;;
Kwahu East;Kotoso;;Bonkrase CHPS;;;;;
Kwahu East;Kotoso;;Kotoso CHPS;;;;;
Kwahu East;Kotoso;;Kotoso RH Clinic;;;;;
Kwahu East;Kwahu Tafo;;Amanfrom Urban CHPS;;;;;
Kwahu East;Kwahu Tafo;;St Joseph (kwE) Clinic;;;;;
Kwahu East;Nkwatia;;Aduamoa CHPS;;;;;
Kwahu East;Nkwatia;;Nkwatia Health Center;;;;;
Kwahu East;Pepease;;Hyewohoden CHPS;;;;;
Kwahu East;Pepease;;Nkwantanang CHPS;;;;;
Kwahu East;Pepease;;Pepease Health Center;;;;;
Kwahu East;Sempoa;;Aguadzekope CHPS;;;;;
Kwahu East;Sempoa;;Amanfrom Clinic;;;;;
Kwahu East;Sempoa;;Sempoa CHPS;;;;;
Kwahu North;Abomasarefo;;Abomasarefo CHPS;;;;;
Kwahu North;Abomasarefo;;Mafikope CHPS;;;;;
Kwahu North;Abomasarefo;;Supom CHPS;;;;;
Kwahu North;Amankwa;;Agordeke CHPS;;;;;
Kwahu North;Amankwa;;Amankwa CHPS;;;;;
Kwahu North;Amankwa;;Amankwa Tornu CHPS;;;;;
Kwahu North;Bruben;;Bruben CHPS;;;;;
Kwahu North;Bruben;;Madagasca CHPS;;;;;
Kwahu North;Cedikope Island;;Battorkope CHPS;;;;;
Kwahu North;Cedikope Island;;Cedikope CHPS;;;;;
Kwahu North;Digya Island;;Digya CHPS;;;;;
Kwahu North;Digya Island;;Dodi Island CHPS;;;;;
Kwahu North;Digya Island;;Kolikope CHPS;;;;;
Kwahu North;Digya Island;;Kpekudzi CHPS;;;;;
Kwahu North;Digya Island;;Manchare CHPS;;;;;
Kwahu North;Donkorkrom Central;;Adukrom CHPS;;;;;
Kwahu North;Donkorkrom Central;;Agortime CHPS;;;;;
Kwahu North;Donkorkrom Central;;Asikasu CHPS;;;;;
Kwahu North;Donkorkrom Central;;Atiwulame CHPS;;;;;
Kwahu North;Donkorkrom Central;;Donkorkrom Central CHPS;;;;;
Kwahu North;Donkorkrom Central;;Kayera CHPS;;;;;
Kwahu North;Donkorkrom North;;Abotanso CHPS;;;;;
Kwahu North;Donkorkrom North;;Adiemmbra CHPS;;;;;
Kwahu North;Donkorkrom North;;Donkorkrom RCH;;;;;
Kwahu North;Donkorkrom North;;Kodidi CHPS;;;;;
Kwahu North;Donkorkrom North;;Presbyterian Hospital -Donkorkrom;;;;;
Kwahu North;Donkorkrom South;;Atakora CHPS;;;;;
Kwahu North;Donkorkrom South;;DASHS CHPS;;;;;
Kwahu North;Donkorkrom South;;Kwaekese CHPS;;;;;
Kwahu North;Dwarf Island;;Avoukope CHPS;;;;;
Kwahu North;Dwarf Island;;Dwarf Island CHPS;;;;;
Kwahu North;Dwarf Island;;Galelia CHPS;;;;;
Kwahu North;Dwarf Island;;Kokrobuta CHPS;;;;;
Kwahu North;Dwarf Island;;Menekope CHPS;;;;;
Kwahu North;Dwarf Island;;Nyankuikope CHPS;;;;;
Kwahu North;Faaso Battor;;Faaso Battor CHPS;;;;;
Kwahu North;Memchemfre;;Anidzi CHPS;;;;;
Kwahu North;Memchemfre;;Memchemfre Island CHPS;;;;;
Kwahu North;Memchemfre;;Memchenfre Health Centre;;;;;
Kwahu North;Ntonaboma;;Ntonaboma Health Center;;;;;
Kwahu North;Tsetsekpo;;Kpala CHPS;;;;;
Kwahu North;Tsetsekpo;;Tsetsekpo CHPS;;;;;
Kwahu South;Asakraka;;Asakraka Health Center;;;;;
Kwahu South;Asakraka;;Asakraka Town CHPS;;;;;
Kwahu South;Asakraka;;Asikam CHPS;;;;;
Kwahu South;Bepong;;Bepong HC;;;;;
Kwahu South;Bepong;;Christian Quarters CHPS;;;;;
Kwahu South;Bepong;;Gyaekasa CHPS;;;;;
Kwahu South;Bepong;;Ntomem CHPS;;;;;
Kwahu South;Kwahu Amanfrom;;Amartey CHPS;;;;;
Kwahu South;Kwahu Amanfrom;;Kwahu Amanfrom CHPS;;;;;
Kwahu South;Kwahu Amanfrom;;Nketepa CHPS;;;;;
Kwahu South;Kwahu Amanfrom;;Nketepa Comfort Maternity Home;;;;;
Kwahu South;Kwahu Praso;;Atuobikrom CHPS;;;;;
Kwahu South;Kwahu Praso;;Besease CHPS;;;;;
Kwahu South;Kwahu Praso;;Kwahu Praso CHPS;;;;;
Kwahu South;Kwahu Praso;;Kwahu Praso Presby Health Center;;;;;
Kwahu South;Kwahu Praso;;Mframa CHPS;;;;;
Kwahu South;Kwahu Praso;;Osubeng CHPS;;;;;
Kwahu South;Kwahu Praso;;Sukwa CHPS;;;;;
Kwahu South;Mpraeso;;Atibie CHPS;;;;;
Kwahu South;Mpraeso;;Kwahu Government Hospital;;;;;
Kwahu South;Mpraeso;;Kwasifori CHPS;;;;;
Kwahu South;Mpraeso;;Mpraeso CHPS;;;;;
Kwahu South;Mpraeso;;Mpraeso General Hospital;;;;;
Kwahu South;Mpraeso;;Obo Health Center;;;;;
Kwahu South;Mpraeso;;Obomeng CHPS;;;;;
Kwahu South;Mpraeso;;Twenedurase CHPS;;;;;
Kwahu South;Nkyenenkyene;;Adawso CHPS;;;;;
Kwahu South;Nkyenenkyene;;Asubone CHPS;;;;;
Kwahu South;Nkyenenkyene;;Nkyenenkyene Health Center;;;;;
Kwahu South;Nkyenenkyene;;Pitiku CHPS;;;;;
Kwahu West;Apradang;;Ampeha CHPS;;;;;
Kwahu West;Apradang;;Apradang Heath Centre;;;;;
Kwahu West;Apradang;;Esaase CHPS;;;;;
Kwahu West;Apradang;;Owusukrom CHPS;;;;;
Kwahu West;Apradang;;Saafi CHPS;;;;;
Kwahu West;Asuboni;;Asuboni Rails Health Centre;;;;;
Kwahu West;Asuboni;;Atibie Nkwanta CHPS;;;;;
Kwahu West;Asuboni;;Ekawso CHPS;;;;;
Kwahu West;Asuboni;;Kwadwo Nkansah CHPS;;;;;
Kwahu West;Asuboni;;Ohene Akura CHPS;;;;;
Kwahu West;Aweregya;;Atwedie CHPS;;;;;
Kwahu West;Aweregya;;Aweregya Heath Centre;;;;;
Kwahu West;Aweregya;;Fodoa CHPS;;;;;
Kwahu West;Aweregya;;Jamasi No 1 CHPS;;;;;
Kwahu West;Aweregya;;Jamasi No 2 CHPS;;;;;
Kwahu West;Aweregya;;Kwahu Daa CHPS;;;;;
Kwahu West;Aweregya;;Kwame Omari CHPS;;;;;
Kwahu West;Denteng;;Asona CHPS;;;;;
Kwahu West;Denteng;;Awenade CHPS;;;;;
Kwahu West;Denteng;;Danteng Health Centre;;;;;
Kwahu West;Denteng;;Kofi Dede CHPS;;;;;
Kwahu West;Jejeti;;Atawase CHPS;;;;;
Kwahu West;Jejeti;;Kwahu Jejeti Health Centre;;;;;
Kwahu West;Jejeti;;Monsie CHPS;;;;;
Kwahu West;Jejeti;;Nkawanda No 1 CHPS;;;;;
Kwahu West;Jejeti;;Nkawanda No 2 Health Center;;;;;
Kwahu West;Nkawkaw East;;Agyakwa Hospital;;;;;
Kwahu West;Nkawkaw East;;Ampekrom CHPS;;;;;
Kwahu West;Nkawkaw East;;Aprabonsu CHPS;;;;;
Kwahu West;Nkawkaw East;;Kenop Care Hospital;;;;;
Kwahu West;Nkawkaw East;;Kwahu Nsaba CHPS1;;;;;
Kwahu West;Nkawkaw East;;Kwahu West MHA;;;;;
Kwahu West;Nkawkaw East;;New Shepherd Maternity Home;;;;;
Kwahu West;Nkawkaw East;;Nkawkaw Atta Ne Atta CHPS;;;;;
Kwahu West;Nkawkaw East;;Nkawkaw Domeabra CHPS;;;;;
Kwahu West;Nkawkaw East;;Nkawkaw Health Centre;;;;;
Kwahu West;Nkawkaw East;;Nkawkaw Zongo CHPS;;;;;
Kwahu West;Nkawkaw East;;Oframase CHPS;;;;;
Kwahu West;Nkawkaw East;;Trado CHPS;;;;;
Kwahu West;Nkawkaw West;;Abepotia CHPS;;;;;
Kwahu West;Nkawkaw West;;Holy Family (Kwahu West) District Hospital;;;;;
Kwahu West;Nkawkaw West;;Holy Family (Kwahu West) PHC;;;;;
Kwahu West;Nkawkaw West;;Market Square Medical Center;;;;;
Kwahu West;Nkawkaw West;;Nkawkaw Amanfrom CHPS;;;;;
Kwahu West;Nkawkaw West;;Nkawkaw Asuboni CHPS;;;;;
Kwahu West;Nkawkaw West;;Nkawkaw Asuogya CHPS;;;;;
Kwahu West;Nkawkaw West;;Nkawkaw New Town CHPS;;;;;
Kwahu West;Nkawkaw West;;Nkawkaw Nsuta CHPS;;;;;
Kwahu West;Nkawkaw West;;Nya Akoma Maternity Home;;;;;
Kwahu West;Nkawkaw West;;Sitey Kesse CHPS;;;;;
Kwahu West;Nkawkaw West;;Wawase CHPS;;;;;
Kwahu West;Nkawkaw West;;Wisiwisi CHPS;;;;;
Lower Manya-Krobo;Agormanya;;Abanse CHPS;;;;;
Lower Manya-Krobo;Agormanya;;Ablotsi CHPS;;;;;
Lower Manya-Krobo;Agormanya;;Agbom East CHPS;;;;;
Lower Manya-Krobo;Agormanya;;Agbom West CHPS;;;;;
Lower Manya-Krobo;Agormanya;;Agormanya Health Centre;;;;;
Lower Manya-Krobo;Agormanya;;Agormanya South CHPS;;;;;
Lower Manya-Krobo;Agormanya;;Kpongunor South CHPS;;;;;
Lower Manya-Krobo;Agormanya;;Kporgunor CHPS;;;;;
Lower Manya-Krobo;Agormanya;;St Martin's (lower Manya) Hospital;;;;;
Lower Manya-Krobo;Agormanya;;Yokwenor CHPS;;;;;
Lower Manya-Krobo;Akuse;;Akuse Government Hospital;;;;;
Lower Manya-Krobo;Akuse;;Akuse RCH;;;;;
Lower Manya-Krobo;Akuse;;Akuse VRA Clinic;;;;;
Lower Manya-Krobo;Akuse;;Akuse-Zongo CHPS;;;;;
Lower Manya-Krobo;Akuse;;Akutue CHPS;;;;;
Lower Manya-Krobo;Akuse;;Bangalow CHPS;;;;;
Lower Manya-Krobo;Akuse;;Okwenya CHPS;;;;;
Lower Manya-Krobo;Akuse;;Osorkutu CHPS;;;;;
Lower Manya-Krobo;Akuse;;Salom CHPS;;;;;
Lower Manya-Krobo;Asitey;;Asitey Health Centre;;;;;
Lower Manya-Krobo;Asitey;;Ayermesu CHPS;;;;;
Lower Manya-Krobo;Asitey;;Partehunya CHPS;;;;;
Lower Manya-Krobo;Kpong;;Ayermesu K CHPS;;;;;
Lower Manya-Krobo;Kpong;;K Wawase CHPS;;;;;
Lower Manya-Krobo;Kpong;;Kpong Health Centre;;;;;
Lower Manya-Krobo;Kpong;;Kpong West CHPS;;;;;
Lower Manya-Krobo;Kpong;;Kpong- Ahundzo CHPS;;;;;
Lower Manya-Krobo;Kpong;;Kpong-Zongo CHPS;;;;;
Lower Manya-Krobo;Kpong;;Nuaso CHPS (Anglesi);;;;;
Lower Manya-Krobo;Kpong;;Nuaso New Town CHPS;;;;;
Lower Manya-Krobo;Kpong;;Nuaso Old Town CHPS;;;;;
Lower Manya-Krobo;Kpong;;Parkson;;;;;
Lower Manya-Krobo;Kpong;;Tseledorm CHPS;;;;;
Lower Manya-Krobo;Oborpa;;Djekiti CHPS;;;;;
Lower Manya-Krobo;Oborpa;;Oborpa Health Centre;;;;;
Lower Manya-Krobo;Oborpa;;Yonguase CHPS;;;;;
Lower Manya-Krobo;Odumase (Eastern);;Atua CHPS;;;;;
Lower Manya-Krobo;Odumase (Eastern);;Atua Government Hospital;;;;;
Lower Manya-Krobo;Odumase (Eastern);;Kodjonya CHPS;;;;;
Lower Manya-Krobo;Odumase (Eastern);;Koletsom CHPS;;;;;
Lower Manya-Krobo;Odumase (Eastern);;Lydia Maternity Home;;;;;
Lower Manya-Krobo;Odumase (Eastern);;Mampong CHPS;;;;;
Lower Manya-Krobo;Odumase (Eastern);;Odumase (LMKM) Health Centre;;;;;
Lower Manya-Krobo;Odumase (Eastern);;Odumase North CHPS;;;;;
New Juaben;Adweso;;Abogiri Chps;;;;;
New Juaben;Adweso;;Abotanso CHPS;;;;;
New Juaben;Adweso;;Adweso Clinic;;;;;
New Juaben;Adweso;;Adweso Estate (SSNIT) CHPS;;;;;
New Juaben;Adweso;;Agavenya CHPS;;;;;
New Juaben;Adweso;;Anglican CHPS;;;;;
New Juaben;Adweso;;Asuofiri-Betom CHPS;;;;;
New Juaben;Adweso;;Bornya Chps;;;;;
New Juaben;Adweso;;Cosmos/Damien Clinic;;;;;
New Juaben;Adweso;;Dr. Asomani Clinic;;;;;
New Juaben;Adweso;;Eunice Memorial Clinic;;;;;
New Juaben;Adweso;;Koforidua Poly School Clinic;;;;;
New Juaben;Adweso;;Korle-Abansoro CHPS;;;;;
New Juaben;Adweso;;Medical Village Rch;;;;;
New Juaben;Adweso;;Mile50-Kyakyea Chps;;;;;
New Juaben;Adweso;;New Juabeng Police Clinic;;;;;
New Juaben;Adweso;;Ohenmaa Park CHPS;;;;;
New Juaben;Adweso;;Providence Clinic;;;;;
New Juaben;Adweso;;Residential-atekyem CHPS;;;;;
New Juaben;Adweso;;School Town CHPS;;;;;
New Juaben;Adweso;;Sempoamiensa CHPS;;;;;
New Juaben;Adweso;;Two Stream CHPS;;;;;
New Juaben;Asokore-akwadum;;Akwadum Health Center;;;;;
New Juaben;Asokore-akwadum;;Asokore CHPS;;;;;
New Juaben;Asokore-akwadum;;Asokore Fofie CHPS;;;;;
New Juaben;Asokore-akwadum;;Asokore Kuma CHPS;;;;;
New Juaben;Asokore-akwadum;;Asokore Zongo CHPS;;;;;
New Juaben;Asokore-akwadum;;Asokore-abrodua CHPS;;;;;
New Juaben;Asokore-akwadum;;Eddiemensah CHPS;;;;;
New Juaben;Asokore-akwadum;;Gyemfikrom CHPS;;;;;
New Juaben;Effiduase (eastern);;Damang CHPS;;;;;
New Juaben;Effiduase (eastern);;Effiduase Oguaa CHPS;;;;;
New Juaben;Effiduase (eastern);;Effiduase Sukuumu CHPS;;;;;
New Juaben;Effiduase (eastern);;New Juabeng Effiduase CHPS;;;;;
New Juaben;Effiduase (eastern);;St Joseph's (new Juabeng) Hospital;;;;;
New Juaben;Effiduase (eastern);;Standard Specialist Clinic;;;;;
New Juaben;Jumapo;;Asikasu (new Juabeng) CHPS;;;;;
New Juaben;Jumapo;;Jumapo Health Centre;;;;;
New Juaben;Jumapo;;Jumapo Yeene CHPS;;;;;
New Juaben;Jumapo;;Suhyen CHPS;;;;;
New Juaben;Koforidua;;Anglo Town CHPS;;;;;
New Juaben;Koforidua;;Anglo Town South CHPS;;;;;
New Juaben;Koforidua;;Ankwesu Asibey CHPS;;;;;
New Juaben;Koforidua;;Bonna Clinic;;;;;
New Juaben;Koforidua;;Central Market CHPS;;;;;
New Juaben;Koforidua;;Debrakrom CHPS;;;;;
New Juaben;Koforidua;;Eastern Regional Hospital;;;;;
New Juaben;Koforidua;;Kantudu CHPS;;;;;
New Juaben;Koforidua;;Koforidua Poly Clinic;;;;;
New Juaben;Koforidua;;Oman Clinic;;;;;
New Juaben;Koforidua;;Social Welfare CHPS;;;;;
New Juaben;Koforidua;;Tanoso CHPS;;;;;
New Juaben;Koforidua;;Yaw Kyerema CHPS;;;;;
New Juaben;Old Estate-densuano;;Densuano CHPS;;;;;
New Juaben;Old Estate-densuano;;Koforidua Clinic;;;;;
New Juaben;Old Estate-densuano;;Koforidua SDA Hospital;;;;;
New Juaben;NEWLANDS MEDICAL CLINIC;;Nsukwawso CHPS;;;;;
New Juaben;NEWLANDS MEDICAL CLINIC;;Nyamekrom CHPS;;;;;
New Juaben;NEWLANDS MEDICAL CLINIC;;Old Estate Abotanso CHPS;;;;;
New Juaben;NEWLANDS MEDICAL CLINIC;;Old Estate CHPS;;;;;
New Juaben;NEWLANDS MEDICAL CLINIC;;Old Estate Ogua CHPS;;;;;
New Juaben;NEWLANDS MEDICAL CLINIC;;Old Estates Railway CHPS;;;;;
New Juaben;NEWLANDS MEDICAL CLINIC;;Pats Maternity Home;;;;;
New Juaben;Oyoko;;Adaniagya CHPS;;;;;
New Juaben;Oyoko;;Asaman CHPS;;;;;
New Juaben;Oyoko;;Nifa-Nifa Chps;;;;;
New Juaben;Oyoko;;Oyoko (new Juabeng) Health Centre;;;;;
New Juaben;Oyoko;;Oyoko Zongo CHPS;;;;;
New Juaben;Zongo;;Magazine (new Juabeng) CHPS;;;;;
New Juaben;Zongo;;Zongo (new Juabeng) Health Centre;;;;;
New Juaben;Zongo;;Zongo Community A & B CHPS;;;;;
New Juaben;Zongo;;Zongo Community C CHPS;;;;;
New Juaben;Zongo;;Zongo Community D & E CHPS;;;;;
Nsawam-Adoagyiri;Adoagyiri;;Kofisah CHPS;;;;;
Nsawam-Adoagyiri;Adoagyiri;;Adoagyiri Health Centre;;;;;
Nsawam-Adoagyiri;Adoagyiri;;Akyinaso CHPS;;;;;
Nsawam-Adoagyiri;Adoagyiri;;Darmang CHPS;;;;;
Nsawam-Adoagyiri;Adoagyiri;;Densuso CHPS;;;;;
Nsawam-Adoagyiri;Adoagyiri;;Duayeden Anoff CHPS;;;;;
Nsawam-Adoagyiri;Adoagyiri;;New Life Hospital;;;;;
Nsawam-Adoagyiri;Adoagyiri;;Notre Dame Clinic;;;;;
Nsawam-Adoagyiri;Adoagyiri;;Sakyikrom CHPS;;;;;
Nsawam-Adoagyiri;Adoagyiri;;Zabon-Zongo CHPS;;;;;
Nsawam-Adoagyiri;Djankrom;;Asante Akura CHPS;;;;;
Nsawam-Adoagyiri;Djankrom;;Djankrom Health Centre;;;;;
Nsawam-Adoagyiri;Djankrom;;Djankrom West CHPS;;;;;
Nsawam-Adoagyiri;Djankrom;;Oparekrom CHPS;;;;;
Nsawam-Adoagyiri;Djankrom;;Wofapaye CHPS;;;;;
Nsawam-Adoagyiri;Dobro;;Akramang CHPS;;;;;
Nsawam-Adoagyiri;Dobro;;Ankwa Dobro CHPS;;;;;
Nsawam-Adoagyiri;Dobro;;Blue Skies Clinic;;;;;
Nsawam-Adoagyiri;Dobro;;Chinto CHPS;;;;;
Nsawam-Adoagyiri;Dobro;;Dobro Elshadai CHPS;;;;;
Nsawam-Adoagyiri;Dobro;;Lantei CHPS;;;;;
Nsawam-Adoagyiri;Dobro;;Nacolis Medical Center;;;;;
Nsawam-Adoagyiri;Fotobi;;Ahodjo Okobeyeye CHPS;;;;;
Nsawam-Adoagyiri;Fotobi;;Cannary Quarters CHPS;;;;;
Nsawam-Adoagyiri;Fotobi;;Fotobi CHPS;;;;;
Nsawam-Adoagyiri;Fotobi;;Yaw Adipa/Asiyaw CHPS;;;;;
Nsawam-Adoagyiri;Kwakyekrom;;Bowkrom CHPS;;;;;
Nsawam-Adoagyiri;Kwakyekrom;;Kwakyekrom CHPS;;;;;
Nsawam-Adoagyiri;Kwakyekrom;;Kwasikrom Kwame Boafo CHPS;;;;;
Nsawam-Adoagyiri;Kwakyekrom;;Nkyenekyene Amanfro CHPS;;;;;
Nsawam-Adoagyiri;Kwakyekrom;;Otukwadjo CHPS;;;;;
Nsawam-Adoagyiri;Nsawam;;Banner Hill Clinic;;;;;
Nsawam-Adoagyiri;Nsawam;;Duayeden CHPS;;;;;
Nsawam-Adoagyiri;Nsawam;;Emelia Maternity Home;;;;;
Nsawam-Adoagyiri;Nsawam;;Nartey Complex Clinic;;;;;
Nsawam-Adoagyiri;Nsawam;;Nsawam Central CHPS;;;;;
Nsawam-Adoagyiri;Nsawam;;Nsawam Government Hospital;;;;;
Nsawam-Adoagyiri;Nsawam;;Nsawam Health Centre;;;;;
Nsawam-Adoagyiri;Nsawam;;Papito CHPS;;;;;
Nsawam-Adoagyiri;Nsawam;;Prisons Clinic;;;;;
Nsawam-Adoagyiri;Nsawam;;Prisons Clinic;;;;;
Nsawam-Adoagyiri;Panpanso;;Krokese CHPS;;;;;
Nsawam-Adoagyiri;Panpanso;;Ningo CHPS;;;;;
Nsawam-Adoagyiri;Panpanso;;Ntoaso CHPS;;;;;
Nsawam-Adoagyiri;Panpanso;;Obregyima Health Centre;;;;;
Nsawam-Adoagyiri;Panpanso;;Signboard CHPS;;;;;
Suhum;Akorabo;;Akorabo Health Center;;;;;
Suhum;Akorabo;;Jato CHPS;;;;;
Suhum;Akote;;Akote CHPS;;;;;
Suhum;Akote;;Trotor CHPS;;;;;
Suhum;Ayekotse;;Gojiase CHPS;;;;;
Suhum;Ayekotse;;Mgbetsonya CHPS;;;;;
Suhum;Ayekotse;;Okorase CHPS;;;;;
Suhum;Ayekotse;;Providence Medical Centre;;;;;
Suhum;Ayekotse;;Suhum District Hospital;;;;;
Suhum;Kukua;;Asarekrom CHPS;;;;;
Suhum;Kukua;;Koransang CHPS;;;;;
Suhum;Kukua;;Kukua CHPS;;;;;
Suhum;Nankese;;Ayisaa Herbal Clinic;;;;;
Suhum;Nankese;;Dawa CHPS;;;;;
Suhum;Nankese;;Nankese Health Center;;;;;
Suhum;Nankese;;Obomofodensua CHPS;;;;;
Suhum;Obretema;;Ntunkum CHPS;;;;;
Suhum;Obretema;;Obretema CHPS;;;;;
Suhum;Obretema;;Omenako CHPS;;;;;
Suhum;Sra;;Aponoapono CHPS;;;;;
Suhum;Sra;;Okanta CHPS;;;;;
Suhum;Sra;;Sra Health Centre;;;;;
Suhum;Suhum;;Abenabo CHPS;;;;;
Suhum;Suhum;;Amanhyia CHPS;;;;;
Suhum;Suhum;;Chocho Herbal Clinic;;;;;
Suhum;Suhum;;Frida Memorial Clinic;;;;;
Suhum;Suhum;;REV. BIDI-S MEMORIAL HOSPITAL;;;;;
Suhum;Suhum;;Round About CHPS;;;;;
Suhum;Suhum;;Suhum Health Center;;;;;
Suhum;Suhum;;Suhum Urban CHPS;;;;;
Suhum;Supresu;;Obourtumpan CHPS;;;;;
Suhum;Supresu;;Supresu Health Center;;;;;
Upper Manya-Krobo;Akateng;;Akateng Health Center;;;;;
Upper Manya-Krobo;Akateng;;Akotoe CHPS;;;;;
Upper Manya-Krobo;Akateng;;Akrusu CHPS;;;;;
Upper Manya-Krobo;Anyaboni;;Akokoma Sisi CHPS;;;;;
Upper Manya-Krobo;Anyaboni;;Anyaboni Health Center;;;;;
Upper Manya-Krobo;Anyaboni;;Apimsu CHPS;;;;;
Upper Manya-Krobo;Anyaboni;;Bisa CHPS;;;;;
Upper Manya-Krobo;Anyaboni;;Fatem CHPS;;;;;
Upper Manya-Krobo;Asesewa;;Abesre CHPS;;;;;
Upper Manya-Krobo;Asesewa;;Adensu CHPS;;;;;
Upper Manya-Krobo;Asesewa;;Akohia CHPS;;;;;
Upper Manya-Krobo;Asesewa;;Alidor Maternity Home;;;;;
Upper Manya-Krobo;Asesewa;;Asasehene CHPS;;;;;
Upper Manya-Krobo;Asesewa;;Asesewa Government Hospital;;;;;
Upper Manya-Krobo;Asesewa;;Asesewa Rch;;;;;
Upper Manya-Krobo;Asesewa;;Battor CHPS;;;;;
Upper Manya-Krobo;Asesewa;;Fefe CHPS;;;;;
Upper Manya-Krobo;Asesewa;;Konkoney CHPS;;;;;
Upper Manya-Krobo;Asesewa;;Maryend Maternity Home;;;;;
Upper Manya-Krobo;Asesewa;;Sisiamang CHPS;;;;;
Upper Manya-Krobo;Dzamam;;Dzamam CHPS;;;;;
Upper Manya-Krobo;Dzamam;;Nyankomase CHPS UMK;;;;;
Upper Manya-Krobo;Otrokper;;Akatawia CHPS;;;;;
Upper Manya-Krobo;Otrokper;;Aketebour CHPS;;;;;
Upper Manya-Krobo;Otrokper;;Daales Maternity Home;;;;;
Upper Manya-Krobo;Otrokper;;Otrokper Health Center;;;;;
Upper Manya-Krobo;Otrokper;;Samlesi CHPS;;;;;
Upper Manya-Krobo;Sekesua;;Dawa CHPS;;;;;
Upper Manya-Krobo;Sekesua;;Osonson CHPS;;;;;
Upper Manya-Krobo;Sekesua;;Sekesua Dzamam CHPS;;;;;
Upper Manya-Krobo;Sekesua;;Sekesua Health Center;;;;;
Upper Manya-Krobo;Sekesua;;Sutapong CHPS;;;;;
Upper Manya-Krobo;Sekesua;;Terguanya CHPS;;;;;
Upper West Akim;Abamkrom;;Abamkrom Central CHPS;;;;;
Upper West Akim;Abamkrom;;Abamkrom Health Center;;;;;
Upper West Akim;Abamkrom;;Agyirkwa CHPS;;;;;
Upper West Akim;Abamkrom;;Kumikrom CHPS;;;;;
Upper West Akim;Adeiso;;Adeiso Central CHPS;;;;;
Upper West Akim;Adeiso;;Adeiso Health Centre;;;;;
Upper West Akim;Adeiso;;Amonkrom CHPS;;;;;
Upper West Akim;Adeiso;;Asuaba CHPS;;;;;
Upper West Akim;Adeiso;;Ayigbe Town CHPS;;;;;
Upper West Akim;Adeiso;;Edith (Upper west Akim) Maternity Home;;;;;
Upper West Akim;Adeiso;;Kofi Dogbo CHPS;;;;;
Upper West Akim;Adeiso;;Kwesi Nyarko CHPS;;;;;
Upper West Akim;Adeiso;;Paerl Saviour Clinic;;;;;
Upper West Akim;Adeiso;;Roman Ridge CHPS;;;;;
Upper West Akim;Adeiso;;Victory Clinic;;;;;
Upper West Akim;Asikasu;;Asikasu (Upper West Akim) CHPS;;;;;
Upper West Akim;Asikasu;;Asuotwene CHPS;;;;;
Upper West Akim;Asikasu;;Ayisikrom CHPS;;;;;
Upper West Akim;Asuokaw;;Asuokaw CHPS;;;;;
Upper West Akim;Asuokaw;;Home Mission Clinic;;;;;
Upper West Akim;Asuokaw;;Owurakessim CHPS;;;;;
Upper West Akim;Mepom;;Mepom Central CHPS;;;;;
Upper West Akim;Mepom;;Mepom Health Centre;;;;;
Upper West Akim;Mepom;;Sukrong Awamfi CHPS;;;;;
Upper West Akim;Nyanoa;;Breman CHPS;;;;;
Upper West Akim;Nyanoa;;Nyanua CHPS;;;;;
Upper West Akim;Odumkyere Darmang;;Adu Kofi CHPS;;;;;
Upper West Akim;Odumkyere Darmang;;Afabeng CHPS;;;;;
Upper West Akim;Odumkyere Darmang;;Atimatim CHPS;;;;;
Upper West Akim;Odumkyere Darmang;;Odumkere Darmang CHPS;;;;;
Upper West Akim;Odumkyere Darmang;;Odumkyere Health Center;;;;;
Upper West Akim;Okurase;;Danso CHPS;;;;;
Upper West Akim;Okurase;;End Well Clinic;;;;;
Upper West Akim;Okurase;;Okurase CHPS;;;;;
Upper West Akim;Okurase;;Oppong CHPS;;;;;
Upper West Akim;Okurase;;St. Paul Roland Clinic;;;;;
Upper West Akim;Akanteng;;Akanteng Central CHPS;;;;;
Upper West Akim;Akanteng;;Akanteng Health Center;;;;;
Upper West Akim;Akanteng;;Asuofori CHPS;;;;;
Upper West Akim;Akanteng;;Kobriso CHPS;;;;;
Upper West Akim;Amanfrom;;Amanfrom (west Akim) CHPS;;;;;
Upper West Akim;Amanfrom;;Anum CHPS;;;;;
Upper West Akim;Amanfrom;;Asamanketewa CHPS;;;;;
Upper West Akim;Amanfrom;;Bunsu (west Akim) CHPS;;;;;
Upper West Akim;Amanfrom;;St Anthony (asamankese) Maternity Home;;;;;
West Akim;Asamankese;;Asamankese Central CHPS;;;;;
West Akim;Asamankese;;Asamankese Health Centre;;;;;
West Akim;Asamankese;;St Luke (west Akim) Clinic;;;;;
West Akim;Asamankese;;St. Thomas Area CHPS;;;;;
West Akim;Aworasa;;Aworasa CHPS;;;;;
West Akim;Aworasa;;Krofofrom CHPS;;;;;
West Akim;Aworasa;;Odjarde CHPS;;;;;
West Akim;Blue Diamond;;Abaase CHPS;;;;;
West Akim;Blue Diamond;;Adiembra CHPS;;;;;
West Akim;Blue Diamond;;Asamankese Government Hospital;;;;;
West Akim;Blue Diamond;;Blue Diamond CHPS;;;;;
West Akim;Blue Diamond;;Bronoso CHPS;;;;;
West Akim;Blue Diamond;;St Patrick Solo (west Akim) Clinic;;;;;
West Akim;Brekumanso;;Brekumanso Central CHPS;;;;;
West Akim;Brekumanso;;Brekumanso Health Center;;;;;
West Akim;Brekumanso;;Yaw Tano CHPS;;;;;
West Akim;Ekoso Quashie;;Ekoso CHPS;;;;;
West Akim;Ekoso Quashie;;Quarshie CHPS;;;;;
West Akim;Ekoso Quashie;;Topease CHPS;;;;;
West Akim;Ekoso Quashie;;Vision View Clinic;;;;;
West Akim;Osenase;;Anoma Kojo CHPS;;;;;
West Akim;Osenase;;Aprampramu CHPS;;;;;
West Akim;Osenase;;Awaham CHPS;;;;;
West Akim;Osenase;;Osenase Central CHPS;;;;;
West Akim;Osenase;;Osenase Health Centre;;;;;
West Akim;Pabi;;Ammarko CHPS;;;;;
West Akim;Pabi;;Health For All Herbal Clininc;;;;;
West Akim;Pabi;;Kwametia CHPS;;;;;
West Akim;Pabi;;Oworam CHPS;;;;;
West Akim;Pabi;;Pabi CHPS;;;;;
West Akim;Sabong Zongo;;Anum-Asaman Health Centre;;;;;
West Akim;Sabong Zongo;;Asikafo Amantem CHPS;;;;;
West Akim;Sabong Zongo;;Roman Down CHPS;;;;;
West Akim;Sabong Zongo;;Sabon Zongo CHPS;;;;;
Yilo-Krobo;Agogo (eastern);;Bethel (yilo Krobo) Maternity Home;;;;;
Yilo-Krobo;Agogo (eastern);;Brukum CHPS;;;;;
Yilo-Krobo;Agogo (eastern);;Klo Akwapem CHPS;;;;;
Yilo-Krobo;Agogo (eastern);;Klo-Agogo (yilo Krobo) Polyclinic;;;;;
Yilo-Krobo;Agogo (eastern);;Obawale Health Centre;;;;;
Yilo-Krobo;Agogo (eastern);;Oluahai CHPS;;;;;
Yilo-Krobo;Agogo (eastern);;Osuboi CHPS;;;;;
Yilo-Krobo;Agogo (eastern);;Trawa CHPS;;;;;
Yilo-Krobo;Agogo (eastern);;Tsebi Teryi CHPS;;;;;
Yilo-Krobo;Agogo (eastern);;Tsetseku CHPS;;;;;
Yilo-Krobo;Agogo (eastern);;Tsosingua CHPS;;;;;
Yilo-Krobo;Boti;;Aboa Besease CHPS;;;;;
Yilo-Krobo;Boti;;Akorwu Bana;;;;;
Yilo-Krobo;Boti;;Akorwu Bana CHPS;;;;;
Yilo-Krobo;Boti;;Akpamu CHPS;;;;;
Yilo-Krobo;Boti;;Akpo CHPS;;;;;
Yilo-Krobo;Boti;;Bosotwi CHPS;;;;;
Yilo-Krobo;Boti;;Boti Health Centre;;;;;
Yilo-Krobo;Boti;;Opersika Health Centre;;;;;
Yilo-Krobo;Boti;;Ponponse CHPS;;;;;
Yilo-Krobo;Boti;;Terkpounya CHPS;;;;;
Yilo-Krobo;Boti;;Wurapong CHPS;;;;;
Yilo-Krobo;Bukunor;;Bukunor Health Centre;;;;;
Yilo-Krobo;Bukunor;;Obenyemi CHPS;;;;;
Yilo-Krobo;Bukunor;;Onumaku CHPS;;;;;
Yilo-Krobo;Bukunor;;Oterkpolu Health Centre;;;;;
Yilo-Krobo;Bukunor;;Pleyo Nyewer CHPS;;;;;
Yilo-Krobo;Nkurakan;;Aboabo (yilo Krobo) CHPS;;;;;
Yilo-Krobo;Nkurakan;;Abrewankor CHPS (YILO);;;;;
Yilo-Krobo;Nkurakan;;Apersua CHPS;;;;;
Yilo-Krobo;Nkurakan;;Huhunya Health Centre;;;;;
Yilo-Krobo;Nkurakan;;Labolabo Health Centre;;;;;
Yilo-Krobo;Nkurakan;;Nkurakan Health Centre;;;;;
Yilo-Krobo;Nkurakan;;Nkurakan Zongo CHPS;;;;;
Yilo-Krobo;Nkurakan;;Okornya CHPS;;;;;
Yilo-Krobo;Nkurakan;;Ponponya CHPS;;;;;
Yilo-Krobo;Nkurakan;;Torgodo CHPS;;;;;
Yilo-Krobo;Nkurakan;;Tyerenmanti Dornguanor CHPS;;;;;
Yilo-Krobo;Nkurakan;;Winners Clinic;;;;;
Yilo-Krobo;Nsutapong;;Ahinkwa CHPS;;;;;
Yilo-Krobo;Nsutapong;;Koryire CHPS;;;;;
Yilo-Krobo;Nsutapong;;Nsutapong Health Centre;;;;;
Yilo-Krobo;Nsutapong;;Samilesi CHPS;;;;;
Yilo-Krobo;Nsutapong;;Tenguanya Yilo CHPS;;;;;
Yilo-Krobo;Somanya;;Adjikpo CHPS;;;;;
Yilo-Krobo;Somanya;;Agavenya CHPS (YILO);;;;;
Yilo-Krobo;Somanya;;Akorley CHPS;;;;;
Yilo-Krobo;Somanya;;Asinesi CHPS;;;;;
Yilo-Krobo;Somanya;;Elshadai (yilo Krobo) Maternity Home;;;;;
Yilo-Krobo;Somanya;;Gberkormanya CHPS;;;;;
Yilo-Krobo;Somanya;;New Life (yilo Krobo) Clinic;;;;;
Yilo-Krobo;Somanya;;New Somanya CHPS (YILO);;;;;
Yilo-Krobo;Somanya;;Odave CHPS;;;;;
Yilo-Krobo;Somanya;;Ogome CHPS;;;;;
Yilo-Krobo;Somanya;;Okperpiem CHPS;;;;;
Yilo-Krobo;Somanya;;Okweny CHPS;;;;;
Yilo-Krobo;Somanya;;Plau CHPS;;;;;
Yilo-Krobo;Somanya;;Sawer CHPS;;;;;
Yilo-Krobo;Somanya;;Somanya Health Centre;;;;;
Yilo-Krobo;Somanya;;Somanya Polyclinic;;;;;
Yilo-Krobo;Somanya;;Sotech Sick Bay;;;;;
Yilo-Krobo;Somanya;;Sra CHPS;;;;;
Yilo-Krobo;Somanya;;Unity Maternity Home;;;;;
