LGA;Ward;Settlement;Facility;Type;Ownership;Address;Longitude;Latitude
Accra;Ablekuma;;Abodwe Clinic;;;;;
Accra;Ablekuma;;Adaamaami CHPS Zone;;;;;
Accra;Ablekuma;;Adam Family Mat Home;;;;;
Accra;Ablekuma;;Amoah Memorial Hospital;;;;;
Accra;Ablekuma;;Armah Memorial Clinic;;;;;
Accra;Ablekuma;;Asomdwoe-Hene Mat Home;;;;;
Accra;Ablekuma;;Brazza Maternity Home;;;;;
Accra;Ablekuma;;Central Dansoman Clinic;;;;;
Accra;Ablekuma;;Dam Side Maternity and Clinic;;;;;
Accra;Ablekuma;;Dansoman Polyclinic;;;;;
Accra;Ablekuma;;Darkuman CHPS ZONE;;;;;
Accra;Ablekuma;;Ebenezer Down CHPS Zone;;;;;
Accra;Ablekuma;;El-shaddai Clinic;;;;;
Accra;Ablekuma;;Emmanuel Maternity Home;;;;;
Accra;Ablekuma;;Eric Herman Clinic;;;;;
Accra;Ablekuma;;Family Maternity;;;;;
Accra;Ablekuma;;Felidan Maternity Home;;;;;
Accra;Ablekuma;;First Foundation Clinic;;;;;
Accra;Ablekuma;;Glefe CHPS Compound;;;;;
Accra;Ablekuma;;Hanson Mem. Med. Centre;;;;;
Accra;Ablekuma;;Holycross Clinic and Mat. Home;;;;;
Accra;Ablekuma;;Joy Clinic;;;;;
Accra;Ablekuma;;Karikari Brobbey Hospital;;;;;
Accra;Ablekuma;;Korle Gonno Polyclinic;;;;;
Accra;Ablekuma;;Korle-bu Teaching Hospital;;;;;
Accra;Ablekuma;;Laura's Maternity Home;;;;;
Accra;Ablekuma;;Link Road Hospital;;;;;
Accra;Ablekuma;;Lower Zongo CHPS Zone;;;;;
Accra;Ablekuma;;MAB International;;;;;
Accra;Ablekuma;;Mamprobi Polyclinic;;;;;
Accra;Ablekuma;;May Fair Maternity;;;;;
Accra;Ablekuma;;Mercy Clinic;;;;;
Accra;Ablekuma;;New Generation Maternity Home;;;;;
Accra;Ablekuma;;Nightingale Clinic;;;;;
Accra;Ablekuma;;Nyame Adom Mat Home;;;;;
Accra;Ablekuma;;Odokor CHPS Zone;;;;;
Accra;Ablekuma;;Opoku Ware Hospital;;;;;
Accra;Ablekuma;;Paradise Agape;;;;;
Accra;Ablekuma;;Paradise Maternity Home;;;;;
Accra;Ablekuma;;PPAG;;;;;
Accra;Ablekuma;;Prime Care;;;;;
Accra;Ablekuma;;Rehoboth Maternity and Clinic;;;;;
Accra;Ablekuma;;Rose Clinic;;;;;
Accra;Ablekuma;;Royal Community Clinic;;;;;
Accra;Ablekuma;;Shukura CHPS;;;;;
Accra;Ablekuma;;Specialist Hospital;;;;;
Accra;Ablekuma;;St. Gloria Clinic;;;;;
Accra;Ablekuma;;Star Academy CHPS Zone;;;;;
Accra;Ablekuma;;Suhuyini Maternity Home;;;;;
Accra;Ablekuma;;Sukura Community Clinic;;;;;
Accra;Ablekuma;;Sukura Community Hospital;;;;;
Accra;Ablekuma;;Sunrise Clinic;;;;;
Accra;Ablekuma;;The Rock Hospital;;;;;
Accra;Ablekuma;;University of Ghana Medical School Clinic;;;;;
Accra;Ablekuma;;Vicom Specialist Hospital;;;;;
Accra;Ablekuma;;Zamarama CHPS ZONE;;;;;
Accra;Ablekuma;;Zoti Medical Centre;;;;;
Accra;Ashiedu Keteke;;Adehye Clinic;;;;;
Accra;Ashiedu Keteke;;Adormens Community Clinic;;;;;
Accra;Ashiedu Keteke;;Adormens Comunty Clinic;;;;;
Accra;Ashiedu Keteke;;Bukom (Cathedral Clinic);;;;;
Accra;Ashiedu Keteke;;Cathedral Clinic;;;;;
Accra;Ashiedu Keteke;;Chalton Clinic;;;;;
Accra;Ashiedu Keteke;;Club Road Clinic;;;;;
Accra;Ashiedu Keteke;;Dr Plange Memorial Clinic;;;;;
Accra;Ashiedu Keteke;;Fire Medical Centre;;;;;
Accra;Ashiedu Keteke;;Ghana Post Clinic;;;;;
Accra;Ashiedu Keteke;;James Town (accra) Maternity Home;;;;;
Accra;Ashiedu Keteke;;James Town Beach Clinic;;;;;
Accra;Ashiedu Keteke;;Judicial Service Clinic;;;;;
Accra;Ashiedu Keteke;;Kokomba CHPS Zone;;;;;
Accra;Ashiedu Keteke;;Living Clinic;;;;;
Accra;Ashiedu Keteke;;Makola Clinic;;;;;
Accra;Ashiedu Keteke;;May Day Clinic;;;;;
Accra;Ashiedu Keteke;;Memorial Clinic;;;;;
Accra;Ashiedu Keteke;;Pml Hospital;;;;;
Accra;Ashiedu Keteke;;Ramzie Medical Centre;;;;;
Accra;Ashiedu Keteke;;Ramzie Medical centre;;;;;
Accra;Ashiedu Keteke;;Sea View Clinic;;;;;
Accra;Ashiedu Keteke;;Static Clinic (Ussher);;;;;
Accra;Ashiedu Keteke;;Ussher Polyclinic;;;;;
Accra;Ashiedu Keteke;;Ayawaso;;;;;
Accra;Ashiedu Keteke;;37 Military Hospital;;;;;
Accra;Ashiedu Keteke;;Abelekpe CHPS;;;;;
Accra;Ashiedu Keteke;;Agblashie CHPS;;;;;
Accra;Ashiedu Keteke;;Agblasie CHPS;;;;;
Accra;Ashiedu Keteke;;Airport Women's Hospital;;;;;
Accra;Ashiedu Keteke;;Alajo Clinic;;;;;
Accra;Ashiedu Keteke;;Alajo Park CHPS;;;;;
Accra;Ashiedu Keteke;;Alaska CHPS Zone;;;;;
Accra;Ashiedu Keteke;;Amanda Mat. Home;;;;;
Accra;Ashiedu Keteke;;Anthon Medicare;;;;;
Accra;Ashiedu Keteke;;Asamoah Clinic;;;;;
Accra;Ashiedu Keteke;;Ayidiki CHPS Zone;;;;;
Accra;Ashiedu Keteke;;Bennet Clinic;;;;;
Accra;Ashiedu Keteke;;Cyndan Clinic;;;;;
Accra;Ashiedu Keteke;;Delape Clinic;;;;;
Accra;Ashiedu Keteke;;Dell International Hospital;;;;;
Accra;Ashiedu Keteke;;Effan Victory Clinic;;;;;
Accra;Ashiedu Keteke;;Egon Clinic;;;;;
Accra;Ashiedu Keteke;;GIMPA Clinic;;;;;
Accra;Ashiedu Keteke;;Hajia Damata Mat. Home;;;;;
Accra;Ashiedu Keteke;;Henrieta Maternity Home;;;;;
Accra;Ashiedu Keteke;;James Fort Borstal Clinic;;;;;
Accra;Ashiedu Keteke;;Jophat Clinic;;;;;
Accra;Ashiedu Keteke;;King David;;;;;
Accra;Ashiedu Keteke;;Kotobabi;;;;;
Accra;Ashiedu Keteke;;Kwaotsuru CHPS Zone;;;;;
Accra;Ashiedu Keteke;;Ladidi CHPS Zone;;;;;
Accra;Ashiedu Keteke;;Legon Hospital;;;;;
Accra;Ashiedu Keteke;;Maamobi General Hospital;;;;;
Accra;Ashiedu Keteke;;Mallam Atta Clinic;;;;;
Accra;Ashiedu Keteke;;Martins Med. Clinic;;;;;
Accra;Ashiedu Keteke;;Medifem Hospital;;;;;
Accra;Ashiedu Keteke;;Mrs Dua Maternity Home;;;;;
Accra;Ashiedu Keteke;;Nima 441 CHPS Zone;;;;;
Accra;Ashiedu Keteke;;Nima Government Clinic;;;;;
Accra;Ashiedu Keteke;;North Dzorwulu CHPS Zone;;;;;
Accra;Ashiedu Keteke;;Nyaho Hospital;;;;;
Accra;Ashiedu Keteke;;Obaatanpa Womens Hospital;;;;;
Accra;Ashiedu Keteke;;Pigfarm CHPS Zone;;;;;
Accra;Ashiedu Keteke;;Queens Medical Centre;;;;;
Accra;Ashiedu Keteke;;Riverside CHPS Zone;;;;;
Accra;Ashiedu Keteke;;Roman Ridge CHPS;;;;;
Accra;Ashiedu Keteke;;Ruga CHPS Zone;;;;;
Accra;Ashiedu Keteke;;Salvation Army Clinic;;;;;
Accra;Ashiedu Keteke;;Sape Agbo Hospital;;;;;
Accra;Ashiedu Keteke;;St Martins Clinic;;;;;
Accra;Ashiedu Keteke;;Sulemana Memorial Hospital;;;;;
Accra;Ashiedu Keteke;;Tesano CHPS;;;;;
Accra;Ashiedu Keteke;;Urban Aid;;;;;
Accra;Ashiedu Keteke;;Vics Maternity Home;;;;;
Accra;Ashiedu Keteke;;Westland Clinic;;;;;
Accra;Okai Koi;;Accra Police Depo Clinic;;;;;
Accra;Okai Koi;;Achimota Hospital;;;;;
Accra;Okai Koi;;Achimota School Sickbay;;;;;
Accra;Okai Koi;;Achimota Transport Terminal Clinic;;;;;
Accra;Okai Koi;;Al Ayar Clinic ITC;;;;;
Accra;Okai Koi;;Alogboshie CHPS;;;;;
Accra;Okai Koi;;Ankam (Accra) Medicare Centre;;;;;
Accra;Okai Koi;;Apenkwa CHPS Zone;;;;;
Accra;Okai Koi;;Ark Clinic;;;;;
Accra;Okai Koi;;Avenor CHPS;;;;;
Accra;Okai Koi;;Becky's Chemist;;;;;
Accra;Okai Koi;;Blessing Clinic;;;;;
Accra;Okai Koi;;Cocoa Clinic;;;;;
Accra;Okai Koi;;Eden Family Hospital;;;;;
Accra;Okai Koi;;Emmanuel Community Clinic;;;;;
Accra;Okai Koi;;Faith (Accra) Mission Hospital;;;;;
Accra;Okai Koi;;Greenhand Clinic;;;;;
Accra;Okai Koi;;Hobats Clinic;;;;;
Accra;Okai Koi;;Holy Trinity Hospital;;;;;
Accra;Okai Koi;;Kaneshie Polyclinic;;;;;
Accra;Okai Koi;;Lakeside Clinic;;;;;
Accra;Okai Koi;;Lapaz Community Hopital;;;;;
Accra;Okai Koi;;Lighthouse Mission Hospital;;;;;
Accra;Okai Koi;;Love Community Clinic;;;;;
Accra;Okai Koi;;Megavest Medical Centre;;;;;
Accra;Okai Koi;;Midway Clinic;;;;;
Accra;Okai Koi;;Modern Care Clinic;;;;;
Accra;Okai Koi;;Opman Clinic;;;;;
Accra;Okai Koi;;Optimum Medical Clinic;;;;;
Accra;Okai Koi;;Prince of Peace Maternity Home;;;;;
Accra;Okai Koi;;Rabenrich Maternity;;;;;
Accra;Okai Koi;;Sight for Africa Clinic;;;;;
Accra;Okai Koi;;Theresa Maternity Home;;;;;
Accra;Osu Klottey;;Accra Mental Hospital;;;;;
Accra;Osu Klottey;;Adabraka CHPS Zone;;;;;
Accra;Osu Klottey;;Adabraka Polyclinic;;;;;
Accra;Osu Klottey;;Amanda Maternity Home;;;;;
Accra;Osu Klottey;;Art Center CHPS;;;;;
Accra;Osu Klottey;;Asylum Down CHPS Zone;;;;;
Accra;Osu Klottey;;Bank Of Ghana Clinic;;;;;
Accra;Osu Klottey;;C & J Medicare Hospital;;;;;
Accra;Osu Klottey;;Castle Clinic;;;;;
Accra;Osu Klottey;;Civil Service Clinic;;;;;
Accra;Osu Klottey;;Dr Morton Clinic;;;;;
Accra;Osu Klottey;;Dua (accra) Clinic;;;;;
Accra;Osu Klottey;;Family Clinic;;;;;
Accra;Osu Klottey;;Goodwill Maternity Home;;;;;
Accra;Osu Klottey;;Graphic Clinic;;;;;
Accra;Osu Klottey;;Hajia Maternity Home;;;;;
Accra;Osu Klottey;;Iran Clinic;;;;;
Accra;Osu Klottey;;North Ridge Clinic;;;;;
Accra;Osu Klottey;;Odorna Clinic;;;;;
Accra;Osu Klottey;;Osu CHPS Zone;;;;;
Accra;Osu Klottey;;Osu Government Maternity Home;;;;;
Accra;Osu Klottey;;Osu Klottey Rabito Clinic;;;;;
Accra;Osu Klottey;;Osu Klottey VRA Hospital;;;;;
Accra;Osu Klottey;;Parliament Clinic;;;;;
Accra;Osu Klottey;;Rabenrich Maternity Home;;;;;
Accra;Osu Klottey;;Ridge Regional Hospital;;;;;
Accra;Osu Klottey;;Rige CHPS Zone;;;;;
Accra;Osu Klottey;;SIC/Bob Freeman Clinic;;;;;
Accra;Osu Klottey;;Tema Station Health Clinic;;;;;
Accra;Osu Klottey;;Trust Hospital(Osu);;;;;
Accra;Osu Klottey;;Tuc Clinic;;;;;
Accra;Osu Klottey;;Tudu CHPS Zone;;;;;
Ada East;Ada;;Ada Health Center;;;;;
Ada East;Ada;;Adedetsekope CHPS;;;;;
Ada East;Ada;;Agorkpo CHPS;;;;;
Ada East;Ada;;Azizanya CHPS;;;;;
Ada East;Ada;;Pute CHPS;;;;;
Ada East;Ada;;Teyekpitikope CHPS;;;;;
Ada East;Kasseh;;Ada East District Hospital;;;;;
Ada East;Kasseh;;Asigbeykope CHPS;;;;;
Ada East;Kasseh;;Dogo CHPS;;;;;
Ada East;Kasseh;;Health Star Clinic;;;;;
Ada East;Kasseh;;Kasseh Health Center;;;;;
Ada East;Kasseh;;Tamatoku CHPS;;;;;
Ada East;Pediatorkope;;Pediatorkope Health Center;;;;;
Adentan;Gbentanaa;;Adenta Clinic;;;;;
Adentan;Gbentanaa;;ADENTA OLD TOWN CHPS ZONE;;;;;
Adentan;Gbentanaa;;Basel Clinic And Maternity Home;;;;;
Adentan;Gbentanaa;;Commandos CHPS;;;;;
Adentan;Gbentanaa;;Crystal Eye Clinic;;;;;
Adentan;Gbentanaa;;Frafraha CHPS;;;;;
Adentan;Gbentanaa;;Frafraha Health Center;;;;;
Adentan;Gbentanaa;;Grace And Peace Clinic And Maternity Home;;;;;
Adentan;Gbentanaa;;Housing Down Clinic;;;;;
Adentan;Gbentanaa;;Mother Love Clinic;;;;;
Adentan;Gbentanaa;;Mother-love Hospital;;;;;
Adentan;Gbentanaa;;NEW LEGON CHPS ZONE;;;;;
Adentan;Gbentanaa;;Oyoko Clinic;;;;;
Adentan;Gbentanaa;;Ritz Area CHPS;;;;;
Adentan;Gbentanaa;;Trust Clinic;;;;;
Adentan;Koose;;Adenta-Amanfrom Health centre;;;;;
Adentan;Koose;;Amanfrom CHPS;;;;;
Adentan;Koose;;Amrahia chps zone;;;;;
Adentan;Koose;;Amrahia Health Center;;;;;
Adentan;Koose;;Ashiyie CHPS;;;;;
Adentan;Koose;;Ashyie Community Clinic;;;;;
Adentan;Koose;;Fulani Kope chps zone;;;;;
Adentan;Koose;;Health Gate Clinic;;;;;
Adentan;Koose;;Malejor CHPS;;;;;
Adentan;Koose;;Owusu Ansah CHPS;;;;;
Adentan;Koose;;Rci Mission Clinic And Laboratory;;;;;
Adentan;Koose;;St. John Of God clinic;;;;;
Adentan;Nii Ashale;;Aben woha CHPS zone;;;;;
Adentan;Nii Ashale;;Adaman chps Zones;;;;;
Adentan;Nii Ashale;;Agric Station Clinic;;;;;
Adentan;Nii Ashale;;Ashale Botwe Health Center;;;;;
Adentan;Nii Ashale;;Dr. Rose Clinic;;;;;
Adentan;Nii Ashale;;Grace And Peace Maternity Home;;;;;
Adentan;Nii Ashale;;Japan Down CHPS;;;;;
Adentan;Nii Ashale;;Liberty Maternity Home;;;;;
Adentan;Nii Ashale;;Nana Yaa Memorial Maternity Home;;;;;
Adentan;Nii Ashale;;Nanakrom CHPS;;;;;
Adentan;Nii Ashale;;New Nmai Dzor chps zone;;;;;
Adentan;Nii Ashale;;Nii Ashale Township CHPS;;;;;
Adentan;Nii Ashale;;Nsuo Anu CHPS;;;;;
Adentan;Nii Ashale;;Ogbojo chps zone;;;;;
Adentan;Nii Ashale;;Ogbojo Polyclinic;;;;;
Adentan;Nii Ashale;;OLD TOWN CHPS ZONE;;;;;
Adentan;Nii Ashale;;Peace Be Consultancy Clinic;;;;;
Adentan;Nii Ashale;;Robert Martins Clinic;;;;;
Adentan;Nii Ashale;;Tree of Life Clinic;;;;;
Adentan;Nii Ashale;;Universal Bethesda Clinic;;;;;
Adentan;Sutsurunaa;;Adjiringano Health Centre;;;;;
Adentan;Sutsurunaa;;Ghana Canada Medical Centre;;;;;
Adentan;Sutsurunaa;;Otano chps zone;;;;;
Adentan;Sutsurunaa;;Otinshie chps zone;;;;;
Adentan;Sutsurunaa;;Rinat Clinic;;;;;
Adentan;Sutsurunaa;;Rose Better Maternity Home;;;;;
Adentan;Sutsurunaa;;Twumasiwaa Memorial Clinic;;;;;
Ada West;Anyamam;;Anyaman Health Center;;;;;
Ada West;Anyamam;;Lolonya CHPS;;;;;
Ada West;Bornikope;;Bonikope Health Center;;;;;
Ada West;Bornikope;;Matsekope CHPS;;;;;
Ada West;Sege;;Afaideyegba CHPS;;;;;
Ada West;Sege;;Ceasekope CHPS;;;;;
Ada West;Sege;;Koni CHPS;;;;;
Ada West;Sege;;Luhuor CHPS;;;;;
Ada West;Sege;;Madavunu CHPS;;;;;
Ada West;Sege;;Sege Health Center;;;;;
Ashaiman;Amui Jor;;Aggiemay Maternity/Clinic;;;;;
Ashaiman;Amui Jor;;Comprehensive Abortion Care (CAC) Unit;;;;;
Ashaiman;Amui Jor;;Fitter Line CHPS;;;;;
Ashaiman;Amui Jor;;Marie Stopes;;;;;
Ashaiman;Amui Jor;;Middle East CHPS;;;;;
Ashaiman;Amui Jor;;Middle East Star Clinic;;;;;
Ashaiman;Amui Jor;;New Tulaku CHPS;;;;;
Ashaiman;Amui Jor;;St. Bernard Clinic;;;;;
Ashaiman;Blakpatsona;;Adakordzi CHPS Zone;;;;;
Ashaiman;Blakpatsona;;Big Bola CHPS Zone;;;;;
Ashaiman;Blakpatsona;;Jericho Clinic;;;;;
Ashaiman;Blakpatsona;;Official Town CHPS Zone;;;;;
Ashaiman;Blakpatsona;;St Mina Clinic;;;;;
Ashaiman;Blakpatsona;;Taabo Line CHPS Zone;;;;;
Ashaiman;Gbemi;;Adonai Clinic;;;;;
Ashaiman;Gbemi;;Ashaiman Community Hospital;;;;;
Ashaiman;Gbemi;;General Family Hospital;;;;;
Ashaiman;Gbemi;;Lebanon Zone 3 CHPS;;;;;
Ashaiman;Gbemi;;Lebanon Zone 4 CHPS;;;;;
Ashaiman;Gbemi;;Lebanon Zone 5 CHPS;;;;;
Ashaiman;Gbemi;;Lebanon Zone 5(2) CHPS;;;;;
Ashaiman;Maamomo;;Afenyo Memorial Clinic;;;;;
Ashaiman;Maamomo;;Asensu CHPS Zone;;;;;
Ashaiman;Maamomo;;Maamomo CHPS Zone;;;;;
Ashaiman;Maamomo;;Mexioco CHPS Zone;;;;;
Ashaiman;Maamomo;;Okanta Clinic;;;;;
Ashaiman;Maamomo;;Roman Down CHPS Zone;;;;;
Ashaiman;Mantseman;;Adarkope CHPS Zone;;;;;
Ashaiman;Mantseman;;Adarkorpe CHPS;;;;;
Ashaiman;Mantseman;;Jericho CHPS Zone;;;;;
Ashaiman;Mantseman;;Lebanon Zone One CHPS;;;;;
Ashaiman;Mantseman;;Lebanon Zone Two CHPS;;;;;
Ashaiman;Mantseman;;Mother Of God Clinic;;;;;
Ashaiman;Mantseman;;Nyame Adom Clinic;;;;;
Ashaiman;Mantseman;;Nyame Bekyre Mat Clinic;;;;;
Ashaiman;Mantseman;;St Mina Annex;;;;;
Ashaiman;Mantseman;;Trinity Community Hospital;;;;;
Ashaiman;Mantseman;;Valco Flat Down CHPS Zone;;;;;
Ashaiman;Niiman;;Christian Village CHPS Zone;;;;;
Ashaiman;Niiman;;Community 21 & 22 CHPS Zone;;;;;
Ashaiman;Niiman;;Eden Maternity Home;;;;;
Ashaiman;Niiman;;Mother Love Clinic;;;;;
Ashaiman;Niiman;;New Town CHPS Zone;;;;;
Ashaiman;Niiman;;Taifa CHPS Zone;;;;;
Ashaiman;Tsinai-agber;;Ashaiman Polyclinic;;;;;
Ashaiman;Tsinai-agber;;Ashiaman New Crystal Clinic;;;;;
Ashaiman;Tsinai-agber;;Darbem Clinic;;;;;
Ashaiman;Tsinai-agber;;Low Cost Estate/New Quarters CHPS;;;;;
Ashaiman;Tsinai-agber;;Nii Anan Adjor CHPS;;;;;
Ashaiman;Tsinai-agber;;Outreach HTC;;;;;
Ashaiman;Tsinai-agber;;St Florence Clinic;;;;;
Ashaiman;Tsinai-agber;;Tsinaiagber CHPS;;;;;
Ashaiman;Tsinai-agber;;Voice Of The Lord Clinic;;;;;
Ashaiman;Tsinai-agber;;Zongo Laka One CHPS;;;;;
Ga Central;Ablekuma;;Ablekuma RCH;;;;;
Ga Central;Ablekuma;;Agape Paradise;;;;;
Ga Central;Ablekuma;;Dam Side Clinic;;;;;
Ga Central;Ablekuma;;Emmanuel Maternity;;;;;
Ga Central;Ablekuma;;MAB Medicare Annex;;;;;
Ga Central;Ablekuma;;Mab Medicare Clinic;;;;;
Ga Central;Ablekuma;;Paradise Clinic & Maternity Home;;;;;
Ga Central;Ablekuma;;Resurrection Power Maternity Home;;;;;
Ga Central;Ablekuma;;Suhuyiri Maternity Home;;;;;
Ga Central;Ablekuma;;Tender Care Clinic;;;;;
Ga Central;Anyaa;;Anyaa;;;;;
Ga Central;Anyaa;;ANYAA CHPS;;;;;
Ga Central;Anyaa;;Dr Amoah Memorial Hospital;;;;;
Ga Central;Anyaa;;El-Bethel Clinic;;;;;
Ga Central;Anyaa;;Hill Top clinic;;;;;
Ga Central;Anyaa;;Mary Lucy Hospital;;;;;
Ga Central;Anyaa;;Mega Care Clinic;;;;;
Ga Central;Anyaa;;Nation Builders Maternity Home;;;;;
Ga Central;Anyaa;;PA Health Care;;;;;
Ga Central;Anyaa;;Walmart Medical Center;;;;;
Ga Central;Chantan;;Betmis Clinic;;;;;
Ga Central;Chantan;;Chantan RCH;;;;;
Ga Central;Chantan;;Eme"s Clinic/ Maternity Home;;;;;
Ga Central;Chantan;;Emyquart;;;;;
Ga Central;Chantan;;Israel Health Center;;;;;
Ga Central;Chantan;;Maame Kateina Memorial Health Center;;;;;
Ga Central;Chantan;;Nii Kokroko Memorial Clinic;;;;;
Ga Central;Chantan;;Race Course Maternity Home;;;;;
Ga Central;Chantan;;Rahina Clinic;;;;;
Ga Central;Chantan;;Sabina Clinic;;;;;
Ga Central;Sowutuom;;Agbeve Herbal Clinic;;;;;
Ga Central;Sowutuom;;Deseret Hospital;;;;;
Ga Central;Sowutuom;;Ga Central Municipal Clinic;;;;;
Ga Central;Sowutuom;;Joy Maternity Home;;;;;
Ga Central;Sowutuom;;Mab Medicare Clinic;;;;;
Ga Central;Sowutuom;;Sowutuom RCH;;;;;
Ga Central;Sowutuom;;Trinity Clinic;;;;;
Ga East;Abokobi;;Abokobi Health Center;;;;;
Ga East;Abokobi;;Adenkrebi CHPS;;;;;
Ga East;Abokobi;;Adenkrebi CHPS;;;;;
Ga East;Abokobi;;Agogba Community Clinic;;;;;
Ga East;Abokobi;;Akporman Boi CHPS;;;;;
Ga East;Abokobi;;Ashongman 1 CHPS;;;;;
Ga East;Abokobi;;Ashongman 2 CHPS;;;;;
Ga East;Abokobi;;Community Hospital;;;;;
Ga East;Abokobi;;Kponkpo CHPS;;;;;
Ga East;Abokobi;;Medilove Clinic;;;;;
Ga East;Abokobi;;Van Medical Centre;;;;;
Ga East;Dome;;Afganistan (Ga East) CHPS;;;;;
Ga East;Dome;;Agogba CHPS;;;;;
Ga East;Dome;;Aunty Mary 1,2,3 CHPS;;;;;
Ga East;Dome;;Begywwoahuom CHPS;;;;;
Ga East;Dome;;Busanga (Ga East) CHPS;;;;;
Ga East;Dome;;Dome Ayigbe Town 1 CHPS;;;;;
Ga East;Dome;;Dome Ayigbe Town 2 CHPS;;;;;
Ga East;Dome;;Dome RCH Clinic;;;;;
Ga East;Dome;;Faith (Ga East) Maternity;;;;;
Ga East;Dome;;Grushie 1 (Ga East) CHPS;;;;;
Ga East;Dome;;Grushie 2 (Ga East) CHPS;;;;;
Ga East;Dome;;Jilac Specialist Hospital;;;;;
Ga East;Dome;;Oko (Ga East) CHPS;;;;;
Ga East;Dome;;Otobea Memorial Clinic;;;;;
Ga East;Dome;;Royal MMR Clinic;;;;;
Ga East;Dome;;Sefam Clinic;;;;;
Ga East;Dome;;St Clement Clinic;;;;;
Ga East;Dome;;Superior Medical Centre;;;;;
Ga East;Dome;;Trust Clinic;;;;;
Ga East;Haatso;;Cedar Medical Centre;;;;;
Ga East;Haatso;;Cmrf-medical Center;;;;;
Ga East;Haatso;;Atomic CHPS;;;;;
Ga East;Haatso;;Ghana Atomic Energy Commission Clinic;;;;;
Ga East;Haatso;;International Health Care Centre;;;;;
Ga East;Haatso;;Sam J;;;;;
Ga East;Taifa;;Beams Clinic;;;;;
Ga East;Taifa;;Jubilee (ga East) Maternity;;;;;
Ga East;Taifa;;Kwabenya 1 CHPS;;;;;
Ga East;Taifa;;Kwabenya 2 CHPS;;;;;
Ga East;Taifa;;Kwabenya Ayigbe Town CHPS;;;;;
Ga East;Taifa;;Musuku CHPS;;;;;
Ga East;Taifa;;Taifa Medical Centre;;;;;
Ga East;Taifa;;Taifa Polyclinic (RCH);;;;;
Ga South;Amanfro;;Amanfro Health Centre;;;;;
Ga South;Amanfro;;Elikem Clinic;;;;;
Ga South;Amanfro;;Galilea Hospital;;;;;
Ga South;Amanfro;;Manheam CHPS;;;;;
Ga South;Amanfro;;Rabneich Maternity Home;;;;;
Ga South;Amanfro;;The Lord Is My Shepherd Maternity Home;;;;;
Ga South;Amanfro;;Tomefa CHPS;;;;;
Ga South;Amanfro;;Vital Assurance Health Centre;;;;;
Ga South;Bortianor;;Accra West Medical Centre;;;;;
Ga South;Bortianor;;All Faith Hospital;;;;;
Ga South;Bortianor;;Aplaku Family Fittness Clinic;;;;;
Ga South;Bortianor;;Botianor Health Centre;;;;;
Ga South;Bortianor;;Community Health Mat. Home;;;;;
Ga South;Bortianor;;Harmony Mat. Home;;;;;
Ga South;Bortianor;;New Bortianor CHPS;;;;;
Ga South;Bortianor;;Sampa Valley;;;;;
Ga South;Bortianor;;St. Anns Maternity Home and Clinic;;;;;
Ga South;Bortianor;;Tsokomey CHPS;;;;;
Ga South;Bortianor;;Walk In Clinic;;;;;
Ga South;Kokrobite;;Finney Hospital;;;;;
Ga South;Kokrobite;;Grace Kokrobite Mat Home;;;;;
Ga South;Kokrobite;;Kokrobite Health Centre;;;;;
Ga South;Kokrobite;;Laigonno CHPS;;;;;
Ga South;Kokrobite;;Oshiee CHPS;;;;;
Ga South;Kokrobite;;Tuba Community Clinic;;;;;
Ga South;Mallam;;Adom Mat. Home;;;;;
Ga South;Mallam;;Aseda Maternity Home;;;;;
Ga South;Mallam;;Blossom Mat. Home;;;;;
Ga South;Mallam;;Dalton Clinic;;;;;
Ga South;Mallam;;Dora Memorial Clinic;;;;;
Ga South;Mallam;;Ga Sda Clinic;;;;;
Ga South;Mallam;;Gbawe Mat. Home;;;;;
Ga South;Mallam;;Judith Mat. And Clinic;;;;;
Ga South;Mallam;;Mallam Demo. Clinic;;;;;
Ga South;Mallam;;Masalachi CHPS;;;;;
Ga South;Mallam;;Rejosh Women Clinic;;;;;
Ga South;Mallam;;Samala Mat.and Clinic;;;;;
Ga South;Mallam;;Seventh Days Adventist;;;;;
Ga South;Mallam;;Zion Maternity Home and Clinic;;;;;
Ga South;Obom;;Amurtel Maternity Home;;;;;
Ga South;Obom;;Ashalaja CHPS Zone;;;;;
Ga South;Obom;;Asuom Osofo Larte;;;;;
Ga South;Obom;;Balagonno CHPS Zones;;;;;
Ga South;Obom;;Horbor CHPS;;;;;
Ga South;Obom;;Kofi Kwei CHPS;;;;;
Ga South;Obom;;Margo Maternity Home;;;;;
Ga South;Obom;;Obom Health Centre;;;;;
Ga South;Weija;;Abotare Clinic;;;;;
Ga South;Weija;;Anthony Clinic;;;;;
Ga South;Weija;;Anyaa Maternity Home;;;;;
Ga South;Weija;;Betmis Maternity Home;;;;;
Ga South;Weija;;Dzokem Medical Centre;;;;;
Ga South;Weija;;El Bethel Clinic;;;;;
Ga South;Weija;;Emes Maternity Home;;;;;
Ga South;Weija;;Felidan Maternity Home;;;;;
Ga South;Weija;;Ga South Municipal Hospital;;;;;
Ga South;Weija;;Gas Clinic;;;;;
Ga South;Weija;;Happy Home Clinic;;;;;
Ga South;Weija;;Kokroko Clinic;;;;;
Ga South;Weija;;Lord J Homeopathic Specialist Clinic;;;;;
Ga South;Weija;;Mighty Victory Haemopathic Clinic;;;;;
Ga South;Weija;;Oblogo Health Centre;;;;;
Ga South;Weija;;Prayer Preaching Camp Maternity Home;;;;;
Ga South;Weija;;Race Course Medical Centre;;;;;
Ga South;Weija;;Ramseyer Clinic;;;;;
Ga South;Weija;;Rehoboh Maternity Home;;;;;
Ga South;Weija;;Royal Good Shepherd Hospital;;;;;
Ga South;Weija;;Savan Clinic;;;;;
Ga South;Weija;;St Barnabas Family Clinic;;;;;
Ga South;Weija;;St. Anthony Clinic;;;;;
Ga South;Weija;;Vine Medical Centre;;;;;
Ga South;Weija;;Walmart Memorial Clinic;;;;;
Ga South;Weija;;Weija CHPS;;;;;
Ga South;Weija;;Weija Clinic Gicel Scc;;;;;
Ga South;Weija;;Wiaboman CHPS;;;;;
Ga South;Weija;;Yawin Clinic;;;;;
Ga West;Amasaman;;Amasaman Outreach Clinic;;;;;
Ga West;Amasaman;;Fise CHPS;;;;;
Ga West;Amasaman;;Ga West Municipal Hospital;;;;;
Ga West;Amasaman;;M&D Clinic;;;;;
Ga West;Kotoku;;Ahiabukorpe CHPS;;;;;
Ga West;Kotoku;;Dom Sampaman CHPS;;;;;
Ga West;Kotoku;;Edith Maternity Home;;;;;
Ga West;Kotoku;;Kojo Ashong Community Clinic;;;;;
Ga West;Kotoku;;Kotoku Health Centre;;;;;
Ga West;Kotoku;;Kotoku Outreach Clinic;;;;;
Ga West;Mayera;;Mayera Faase Health Centre;;;;;
Ga West;Mayera;;Otsrikomfo Health Centre;;;;;
Ga West;Mayera;;Samsam Community Clinic;;;;;
Ga West;Mayera;;Vesta Foundation Clinic;;;;;
Ga West;Oduman;;Akramaman CHPS;;;;;
Ga West;Oduman;;Kemet Hospital;;;;;
Ga West;Oduman;;Manhean CHPS;;;;;
Ga West;Oduman;;Nsakina CHPS;;;;;
Ga West;Oduman;;Oduman Health Centre;;;;;
Ga West;Ofankor;;Amamorley Community Clinic;;;;;
Ga West;Ofankor;;Betmis Maternity Clinic;;;;;
Ga West;Ofankor;;John Tei CHPS;;;;;
Ga West;Ofankor;;Lizzie (ga West) Maternity Home;;;;;
Ga West;Ofankor;;Lucy Memorial Hospital;;;;;
Ga West;Ofankor;;Ofankor CHPS;;;;;
Ga West;Ofankor;;Ofankor Outreach Clinic;;;;;
Ga West;Ofankor;;Ofankor South CHPS;;;;;
Ga West;Ofankor;;Tantra Community Clinic;;;;;
Ga West;Ofankor;;Unimed Clinic;;;;;
Ga West;Pokuase;;Afiaman Outreach Clinic;;;;;
Ga West;Pokuase;;MAXBETH Maternity Home;;;;;
Ga West;Pokuase;;Pats Mat Home;;;;;
Ga West;Pokuase;;Pokuase CHPS;;;;;
Ga West;Pokuase;;Pokuase Community Specialist Medical Center;;;;;
Ga West;Pokuase;;St. Moses Clinic;;;;;
Ga West;Trobu;;Alhaji CHPS;;;;;
Ga West;Trobu;;Aneeja Hospital;;;;;
Ga West;Trobu;;Holy Dove Hospital;;;;;
Ga West;Trobu;;Maranatha Health Services;;;;;
Ga West;Trobu;;Rahma Maternity Home;;;;;
Ga West;Trobu;;St Mattew Clinic;;;;;
Ga West;Trobu;;St. Johns Hospital;;;;;
Ga West;Trobu;;Trobu Outreach Clinic;;;;;
Ga West;Trobu;;Urgent Care Hospital;;;;;
Kpone-Katamanso;Appolonia;;Appolonia CHPS Compound;;;;;
Kpone-Katamanso;Appolonia;;Katamanso CHPS;;;;;
Kpone-Katamanso;Appolonia;;Katamanso Clinic;;;;;
Kpone-Katamanso;Appolonia;;Kuberkro CHPS;;;;;
Kpone-Katamanso;Appolonia;;Santeo CHPS;;;;;
Kpone-Katamanso;Kpone;;1 Medical Reception Station(1MRS);;;;;
Kpone-Katamanso;Kpone;;All Care Medical Centre;;;;;
Kpone-Katamanso;Kpone;;APEMAMI CHPS Zone;;;;;
Kpone-Katamanso;Kpone;;Atlantis Clinic;;;;;
Kpone-Katamanso;Kpone;;Bediako CHPS Zone;;;;;
Kpone-Katamanso;Kpone;;Bethlehem CHPS Zone;;;;;
Kpone-Katamanso;Kpone;;Ecclessia Hospital;;;;;
Kpone-Katamanso;Kpone;;Faith (tema) Clinic;;;;;
Kpone-Katamanso;Kpone;;Faith Medical Centre;;;;;
Kpone-Katamanso;Kpone;;Gbetsile CHPS Zone;;;;;
Kpone-Katamanso;Kpone;;GOLF CITY CHPS Zone;;;;;
Kpone-Katamanso;Kpone;;Halleluya CHPS Zone;;;;;
Kpone-Katamanso;Kpone;;KAKASUNANKA 1 CHPS ZONE;;;;;
Kpone-Katamanso;Kpone;;KAKASUNANKA 2 CHPS Zone;;;;;
Kpone-Katamanso;Kpone;;Kpoi-ete CHPS Zone;;;;;
Kpone-Katamanso;Kpone;;Kpone Health Centre;;;;;
Kpone-Katamanso;Kpone;;Mercy Mat Home & Clinic;;;;;
Kpone-Katamanso;Kpone;;Nadela Hospital;;;;;
Kpone-Katamanso;Kpone;;New Crystal Clinic(Kakasunaka Branch);;;;;
Kpone-Katamanso;Kpone;;Shangai CHPS Zone;;;;;
Kpone-Katamanso;Kpone;;Speed Medical;;;;;
Kpone-Katamanso;Kpone;;Sunrise Clinic;;;;;
Kpone-Katamanso;Oyibi;;Kpone Bawaleshie Clinic;;;;;
Kpone-Katamanso;Oyibi;;Oyibi Health Centre;;;;;
Kpone-Katamanso;Oyibi;;Seduase CHPS;;;;;
Kpone-Katamanso;Oyibi;;Valley View University Hospital;;;;;
Kpone-Katamanso;Zenu;;AKPENE MATERNITY HOME;;;;;
Kpone-Katamanso;Zenu;;Akpene Maternity Home;;;;;
Kpone-Katamanso;Zenu;;Ankasa 2 CHPS Zone;;;;;
Kpone-Katamanso;Zenu;;Ankasa CHPS;;;;;
Kpone-Katamanso;Zenu;;General Family Hospital;;;;;
Kpone-Katamanso;Zenu;;Glady Gabbie Maternity Home/Clinic;;;;;
Kpone-Katamanso;Zenu;;Josa Clinic;;;;;
Kpone-Katamanso;Zenu;;Lebanon Community Hospital;;;;;
Kpone-Katamanso;Zenu;;Sraha 2 CHPS Zone;;;;;
Kpone-Katamanso;Zenu;;Zenu Polyclinic;;;;;
Kpone-Katamanso;Zenu;;Zenu RCH/Sraha;;;;;
La-Dade-Kotopon;La North;;Adobetor CWC;;;;;
La-Dade-Kotopon;La North;;Arakan Maternity Home;;;;;
La-Dade-Kotopon;La North;;Fulani CHPS;;;;;
La-Dade-Kotopon;La North;;Kojo Sardine CHPS;;;;;
La-Dade-Kotopon;La North;;Kpeshie Maternity Home;;;;;
La-Dade-Kotopon;La North;;Mama Juliet CHPS;;;;;
La-Dade-Kotopon;La North;;Nativity Clinic;;;;;
La-Dade-Kotopon;La North;;Philips Memorial Clinic;;;;;
La-Dade-Kotopon;La North;;Primecare Clinic;;;;;
La-Dade-Kotopon;La North;;S&S Medical Centre;;;;;
La-Dade-Kotopon;La North;;Tse Addo CHPS Last Stop;;;;;
La-Dade-Kotopon;La South;;Abafum Kowe CWC;;;;;
La-Dade-Kotopon;La South;;Agbawe CHPS;;;;;
La-Dade-Kotopon;La South;;Agyeman CHPS Zone;;;;;
La-Dade-Kotopon;La South;;Hebron Maternity Home;;;;;
La-Dade-Kotopon;La South;;Kojo Abesse CHPS;;;;;
La-Dade-Kotopon;La South;;La Mansaamo Kpee;;;;;
La-Dade-Kotopon;La South;;La Maternal Clinic;;;;;
La-Dade-Kotopon;La South;;Labone CWC;;;;;
La-Dade-Kotopon;La South;;Tees Maternity Home;;;;;
La-Dade-Kotopon;Tenashie;;Ababio Clinic;;;;;
La-Dade-Kotopon;Tenashie;;Accra Police Hospital;;;;;
La-Dade-Kotopon;Tenashie;;Acheampong Clinic;;;;;
La-Dade-Kotopon;Tenashie;;Achempong Memorial Clinic;;;;;
La-Dade-Kotopon;Tenashie;;Airport Clinic;;;;;
La-Dade-Kotopon;Tenashie;;Akai house Clinnic;;;;;
La-Dade-Kotopon;Tenashie;;Ako Adjei CWC;;;;;
La-Dade-Kotopon;Tenashie;;Ayifua Clinic;;;;;
La-Dade-Kotopon;Tenashie;;Cantoment CWC;;;;;
La-Dade-Kotopon;Tenashie;;Gak Clinic;;;;;
La-Dade-Kotopon;Tenashie;;Jordan Maternity Home;;;;;
La-Dade-Kotopon;Tenashie;;Kaajaano CHPS;;;;;
La-Dade-Kotopon;Tenashie;;La General Hospital;;;;;
La-Dade-Kotopon;Tenashie;;Police Workshop;;;;;
La-Dade-Kotopon;Tenashie;;St Maurice Maternity Home;;;;;
La-Dade-Kotopon;Tenashie;;Swan Clinic;;;;;
Ledzokuku-Krowor;Nungua;;Akpeeshika CHPS Zone;;;;;
Ledzokuku-Krowor;Nungua;;Christian Medical Centre;;;;;
Ledzokuku-Krowor;Nungua;;LEKMA POLYCLINIC;;;;;
Ledzokuku-Krowor;Nungua;;Negba CHPS Zone;;;;;
Ledzokuku-Krowor;Nungua;;Robert Martins;;;;;
Ledzokuku-Krowor;Nungua;;Sharon Clinic;;;;;
Ledzokuku-Krowor;Nungua;;Spinal Clinic;;;;;
Ledzokuku-Krowor;Nungua;;Taiwan Herbal Clinic;;;;;
Ledzokuku-Krowor;Teshie North;;Giesabi Maternity Home;;;;;
Ledzokuku-Krowor;Teshie North;;LEKMA Hospital;;;;;
Ledzokuku-Krowor;Teshie North;;Lister Hospital;;;;;
Ledzokuku-Krowor;Teshie North;;Manna Mission Hospital;;;;;
Ledzokuku-Krowor;Teshie North;;North Clinic;;;;;
Ledzokuku-Krowor;Teshie North;;Opec Clinic;;;;;
Ledzokuku-Krowor;Teshie North;;Unicom Clinic;;;;;
Ledzokuku-Krowor;Teshie South;;Family Health Hospital;;;;;
Ledzokuku-Krowor;Teshie South;;Finger Of God Maternity Home;;;;;
Ledzokuku-Krowor;Teshie South;;Oak Street Clinic;;;;;
Ledzokuku-Krowor;Teshie South;;Teshie Community Clinic;;;;;
La-Nkwantanang-Madina;Danfa;;Ayimensah CHPS;;;;;
La-Nkwantanang-Madina;Danfa;;Danfa Health Center;;;;;
La-Nkwantanang-Madina;Danfa;;Divine Maternity Home;;;;;
La-Nkwantanang-Madina;Danfa;;Ghana Flag CHPS;;;;;
La-Nkwantanang-Madina;Danfa;;Kweiman CHPS;;;;;
La-Nkwantanang-Madina;Nkwantanang;;Africa Moslem Clinic;;;;;
La-Nkwantanang-Madina;Nkwantanang;;Dela Clinic;;;;;
La-Nkwantanang-Madina;Nkwantanang;;Dela-Redco CHPS zone;;;;;
La-Nkwantanang-Madina;Nkwantanang;;Doku CHPS zone;;;;;
La-Nkwantanang-Madina;Nkwantanang;;Doku Clinic;;;;;
La-Nkwantanang-Madina;Nkwantanang;;Madina Central Clinic;;;;;
La-Nkwantanang-Madina;Nkwantanang;;Madina Polyclinic (Kekele);;;;;
La-Nkwantanang-Madina;Nkwantanang;;Mighty Clinic;;;;;
La-Nkwantanang-Madina;Nkwantanang;;Nkwantanang CHPS zone;;;;;
La-Nkwantanang-Madina;Pantang;;Agbogba Maternity Home;;;;;
La-Nkwantanang-Madina;Pantang;;Akatsi-Abor CHPS;;;;;
La-Nkwantanang-Madina;Pantang;;Barrier New Site CHPS;;;;;
La-Nkwantanang-Madina;Pantang;;Focos CHPS;;;;;
La-Nkwantanang-Madina;Pantang;;Gloria Family Health Clinic;;;;;
La-Nkwantanang-Madina;Pantang;;Greater Grace Hospital;;;;;
La-Nkwantanang-Madina;Pantang;;Medi-Clinic;;;;;
La-Nkwantanang-Madina;Pantang;;Oyarifa CHPS;;;;;
La-Nkwantanang-Madina;Pantang;;Pantang Community CHPS;;;;;
La-Nkwantanang-Madina;Pantang;;Pantang Hospital;;;;;
La-Nkwantanang-Madina;Pantang;;Pantang Rch Clinic;;;;;
La-Nkwantanang-Madina;Pantang;;Pentecost CHPS;;;;;
La-Nkwantanang-Madina;Pantang;;Sakora CHPS;;;;;
La-Nkwantanang-Madina;Pantang;;Sanford World Clinic;;;;;
La-Nkwantanang-Madina;Pantang;;Swan Clinic (LANMA);;;;;
La-Nkwantanang-Madina;Pantang;;Teiman CHPS;;;;;
La-Nkwantanang-Madina;Social Welfare;;Agbogbloshie (LNM) CHPS zone;;;;;
La-Nkwantanang-Madina;Social Welfare;;Bennette Memorial Clinic;;;;;
La-Nkwantanang-Madina;Social Welfare;;Esidem Hospital;;;;;
La-Nkwantanang-Madina;Social Welfare;;Light Industrial (LNM) CHPS zone;;;;;
La-Nkwantanang-Madina;Social Welfare;;Passion Clinic;;;;;
La-Nkwantanang-Madina;Social Welfare;;Pentecost Hospital;;;;;
La-Nkwantanang-Madina;Social Welfare;;Prilway Specialist Hospital;;;;;
La-Nkwantanang-Madina;Tatanaa;;Care Clinic And Maternity;;;;;
La-Nkwantanang-Madina;Tatanaa;;Fransko Maternity;;;;;
La-Nkwantanang-Madina;Tatanaa;;Global Medical Center;;;;;
La-Nkwantanang-Madina;Tatanaa;;International Health Care Center Annex;;;;;
La-Nkwantanang-Madina;Tatanaa;;Leonado Hospital;;;;;
La-Nkwantanang-Madina;Tatanaa;;Libya (LNM) CHPS zone;;;;;
La-Nkwantanang-Madina;Tatanaa;;Madina Polyclinic (Rawlings Circle);;;;;
La-Nkwantanang-Madina;Tatanaa;;Melcom (LNM) CHPS zone;;;;;
La-Nkwantanang-Madina;Tatanaa;;Modern Atomic Clinic;;;;;
La-Nkwantanang-Madina;Tatanaa;;North Legon (LNM) CHPS zone;;;;;
La-Nkwantanang-Madina;Tatanaa;;North Legon Hospital;;;;;
La-Nkwantanang-Madina;Tatanaa;;UPSA Clinic;;;;;
La-Nkwantanang-Madina;Tatanaa;;Vicktoria Clinic;;;;;
La-Nkwantanang-Madina;Tatanaa;;Zongo (LNM) CHPS zone;;;;;
Ningo-Prampram;Afienya Mataheko;;Afienya CHPS;;;;;
Ningo-Prampram;Afienya Mataheko;;Afienya Community Based Clinic;;;;;
Ningo-Prampram;Afienya Mataheko;;Emells Maternity Home;;;;;
Ningo-Prampram;Afienya Mataheko;;Gloria Maternity Home;;;;;
Ningo-Prampram;Afienya Mataheko;;Kofi-Kope CHPS;;;;;
Ningo-Prampram;Afienya Mataheko;;Mangotsonya CHPS;;;;;
Ningo-Prampram;Afienya Mataheko;;Mobole CHPS;;;;;
Ningo-Prampram;Afienya Mataheko;;New Prampram CHPS;;;;;
Ningo-Prampram;Afienya Mataheko;;Omari Clinic;;;;;
Ningo-Prampram;Dawhenya;;Central University Clinic;;;;;
Ningo-Prampram;Dawhenya;;Dawhenya Medical Centre;;;;;
Ningo-Prampram;Dawhenya;;Dawhenya North CHPS;;;;;
Ningo-Prampram;Dawhenya;;Dawhenya South CHPS;;;;;
Ningo-Prampram;Dawhenya;;Godia Clinic;;;;;
Ningo-Prampram;Dawhenya;;Greenville Hospital;;;;;
Ningo-Prampram;Dawhenya;;Laluekpo CHPS;;;;;
Ningo-Prampram;Dawhenya;;Mount Camel Hospital and Fertility Center;;;;;
Ningo-Prampram;Dawhenya;;St. Rita Clinic and Maternity Home;;;;;
Ningo-Prampram;Lekpongunor;;Lekpongunor CHPS;;;;;
Ningo-Prampram;Nyigbenya Dawa;;Dawa CHPS;;;;;
Ningo-Prampram;Nyigbenya Dawa;;Lakpleku CHPS;;;;;
Ningo-Prampram;Nyigbenya Dawa;;Nyigbenya CHPS;;;;;
Ningo-Prampram;Nyigbenya Dawa;;Some Kpankyeredor CHPS;;;;;
Ningo-Prampram;Old Ningo;;Ahwiam CHPS;;;;;
Ningo-Prampram;Old Ningo;;Ayetepa CHPS;;;;;
Ningo-Prampram;Old Ningo;;Bantama CHPS;;;;;
Ningo-Prampram;Old Ningo;;Djangmaku CHPS;;;;;
Ningo-Prampram;Old Ningo;;Kungortsitsa CHPS;;;;;
Ningo-Prampram;Old Ningo;;Old Ningo Health Centre;;;;;
Ningo-Prampram;Old Ningo;;Supreme Trust Community Hospital;;;;;
Ningo-Prampram;Prampram;;Dangme Community Hospital;;;;;
Ningo-Prampram;Prampram;;Lower East Prampram CHPS;;;;;
Ningo-Prampram;Prampram;;Lower Prampram West CHPS;;;;;
Ningo-Prampram;Prampram;;New Ningo CHPS;;;;;
Ningo-Prampram;Prampram;;Prampram Ebenezer Clinic;;;;;
Ningo-Prampram;Prampram;;Prampram Polyclinic;;;;;
Ningo-Prampram;Prampram;;Upper East Prampram CHPS;;;;;
Ningo-Prampram;Prampram;;Upper Prampram West CHPS;;;;;
Shai-Osudoku;Dodowa;;Agomeda Health Centre;;;;;
Shai-Osudoku;Dodowa;;Akukuanor CHPS;;;;;
Shai-Osudoku;Dodowa;;Asutuare Junction CHPS;;;;;
Shai-Osudoku;Dodowa;;Ayernya CHPS;;;;;
Shai-Osudoku;Dodowa;;Ayikuma CHPS;;;;;
Shai-Osudoku;Dodowa;;Dangme West Clinic;;;;;
Shai-Osudoku;Dodowa;;Doryumu CHPS;;;;;
Shai-Osudoku;Dodowa;;Grace Dodowa Maternity Home;;;;;
Shai-Osudoku;Dodowa;;Kordiabe CHPS;;;;;
Shai-Osudoku;Dodowa;;Kordiabe St Andrews Catholic Clinic;;;;;
Shai-Osudoku;Dodowa;;Lower Dodowa CHPS;;;;;
Shai-Osudoku;Dodowa;;Mampong Shai CHPS;;;;;
Shai-Osudoku;Dodowa;;Odumse CHPS;;;;;
Shai-Osudoku;Dodowa;;Salem CHPS;;;;;
Shai-Osudoku;Dodowa;;Shai Osudoku Hospital;;;;;
Shai-Osudoku;Dodowa;;Sota CHPS;;;;;
Shai-Osudoku;Dodowa;;Wedokum CHPS;;;;;
Shai-Osudoku;Osudoku;;Abuvienu CHPS;;;;;
Shai-Osudoku;Osudoku;;Adakope CHPS;;;;;
Shai-Osudoku;Osudoku;;Agbekotsekpo CHPS;;;;;
Shai-Osudoku;Osudoku;;Agortor CHPS;;;;;
Shai-Osudoku;Osudoku;;Asutuare SDA CHPS;;;;;
Shai-Osudoku;Osudoku;;Duffor Health Centre;;;;;
Shai-Osudoku;Osudoku;;GOLDEN EXOTICS LIMITED FARM CLINIC;;;;;
Shai-Osudoku;Osudoku;;Kadjanya CHPS;;;;;
Shai-Osudoku;Osudoku;;Kasunya CHPS;;;;;
Shai-Osudoku;Osudoku;;Klebuse CHPS;;;;;
Shai-Osudoku;Osudoku;;Natriku CHPS;;;;;
Shai-Osudoku;Osudoku;;Osudoku Health Centre;;;;;
Shai-Osudoku;Osudoku;;Osuwem CHPS;;;;;
Shai-Osudoku;Osudoku;;Tokpo CHPS;;;;;
Shai-Osudoku;Osudoku;;Volivo CHPS;;;;;
Tema;Tema Central;;A Road CHPS Zone;;;;;
Tema;Tema Central;;Bengali Clinic;;;;;
Tema;Tema Central;;Bethel Hospital;;;;;
Tema;Tema Central;;Black Cat CHPS Zone;;;;;
Tema;Tema Central;;Bs Maternity Home;;;;;
Tema;Tema Central;;Caiquo Hospital;;;;;
Tema;Tema Central;;Calvary Cross Clinic;;;;;
Tema;Tema Central;;Community 4, 7, & 8 (Zone);;;;;
Tema;Tema Central;;Community 6, 10, & 11 (Zone);;;;;
Tema;Tema Central;;Community 8&9 Zone;;;;;
Tema;Tema Central;;Dzatagon CHPS Zone;;;;;
Tema;Tema Central;;Gods Mother Clinic;;;;;
Tema;Tema Central;;Horticulture CHPS Zone;;;;;
Tema;Tema Central;;Low Cost CHPS Zone;;;;;
Tema;Tema Central;;Narh-bita Hospital;;;;;
Tema;Tema Central;;Ottowa CHPS Zone;;;;;
Tema;Tema Central;;Provita Hospital;;;;;
Tema;Tema Central;;Rapha Medical Centre;;;;;
Tema;Tema Central;;Republic Road CHPS Zone;;;;;
Tema;Tema Central;;Sinel Hospital;;;;;
Tema;Tema Central;;Solace Hospital;;;;;
Tema;Tema Central;;SOS (Tema) Clinic;;;;;
Tema;Tema Central;;Sraha CHPS Zone;;;;;
Tema;Tema Central;;St Marys (tema) Maternity Home;;;;;
Tema;Tema Central;;Tema General Hospital;;;;;
Tema;Tema Central;;Tema New Crystal Clinic;;;;;
Tema;Tema Central;;Tema Women Hospital;;;;;
Tema;Tema Central;;Uhuru CHPS Zone;;;;;
Tema;Tema Central;;Union CHPS Zone;;;;;
Tema;Tema Central;;Valco CHPS Zone;;;;;
Tema;Tema Central;;Women Hospital;;;;;
Tema;Tema East;;Ashiboye CHPS Zone;;;;;
Tema;Tema East;;Bankuman CHPS Zone;;;;;
Tema;Tema East;;Community 1 (Zone);;;;;
Tema;Tema East;;Crocodile Matchete Clinic;;;;;
Tema;Tema East;;Dade-Agbo;;;;;
Tema;Tema East;;Habour CHPS Zone;;;;;
Tema;Tema East;;Homowo CHPS Zone;;;;;
Tema;Tema East;;Kwesi Plange CHPS Zone;;;;;
Tema;Tema East;;Lagoon Hospital;;;;;
Tema;Tema East;;Manhean Health Centre;;;;;
Tema;Tema East;;Manko Clinic;;;;;
Tema;Tema East;;Meridian Clinic;;;;;
Tema;Tema East;;Oklo Kofi CHPS Zone;;;;;
Tema;Tema East;;Oninku CHPS Zone;;;;;
Tema;Tema East;;Padmore CHPS Zone;;;;;
Tema;Tema East;;Pioneer Food Canery Clinic;;;;;
Tema;Tema East;;Port Health;;;;;
Tema;Tema East;;Port Medical Centre;;;;;
Tema;Tema East;;Sacred Heart Clinic_Tema;;;;;
Tema;Tema East;;Sea Light CHPS Zone;;;;;
Tema;Tema East;;Tema Naval Base Clinic;;;;;
Tema;Tema East;;Tema Valco Hospital;;;;;
Tema;Tema East;;TMA Maternity;;;;;
Tema;Tema East;;U Compound CHPS;;;;;
Tema;Tema East;;Unilever Clinic;;;;;
Tema;Tema East;;Valco Hospital_Manhean;;;;;
Tema;Tema West;;Adjei Kojo CHPS Zone;;;;;
Tema;Tema West;;Aponche Memorial Herbal Clinic;;;;;
Tema;Tema West;;Ayape Maternity Home;;;;;
Tema;Tema West;;Baatsona CHPS Zone;;;;;
Tema;Tema West;;Batsonaa Medical Centre;;;;;
Tema;Tema West;;Bernice (tema) Maternity Home;;;;;
Tema;Tema West;;Bethseda Pool Maternity;;;;;
Tema;Tema West;;Biney Medical Centre;;;;;
Tema;Tema West;;C & J Diagnostic Hospital;;;;;
Tema;Tema West;;Cambodia CHPS Zone;;;;;
Tema;Tema West;;Community 2, 3, & 5 (Zone);;;;;
Tema;Tema West;;Dzata-Bu CHPS Zone;;;;;
Tema;Tema West;;Fiden Medical Centre;;;;;
Tema;Tema West;;GPHA Clinic;;;;;
Tema;Tema West;;Hacrow CHPS Zone;;;;;
Tema;Tema West;;Jubail Specialist Hospital;;;;;
Tema;Tema West;;Kaizer CHPS Zone;;;;;
Tema;Tema West;;Kanewu CHPS Zone;;;;;
Tema;Tema West;;Kasadjan CHPS Zone;;;;;
Tema;Tema West;;Klagon CHPS Zone;;;;;
Tema;Tema West;;Klagon Medical Centre;;;;;
Tema;Tema West;;Lashibi CHPS Zone;;;;;
Tema;Tema West;;Maldey Medical Centre;;;;;
Tema;Tema West;;Railways CHPS Zone;;;;;
Tema;Tema West;;Resolve Medical Centre;;;;;
Tema;Tema West;;Sakumono Community Hospital;;;;;
Tema;Tema West;;Sakumono Estate CHPS Zone;;;;;
Tema;Tema West;;Sakumono_Main CHPS Zone;;;;;
Tema;Tema West;;SSNIT Hospital (Tema);;;;;
Tema;Tema West;;Sun City Medical Centre;;;;;
Tema;Tema West;;Suncity CHPS Zone;;;;;
Tema;Tema West;;Suncity CHPS Zone;;;;;
Tema;Tema West;;Tema Polyclinic;;;;;
Tema;Tema West;;Tema Trust Clinic;;;;;
