LGA;Ward;Settlement;Facility;Type;Ownership;Address;Longitude;Latitude
Bole;Bamboi;;Babator CHPS;;;;;
Bole;Bamboi;;Bamboi Health Centre;;;;;
Bole;Bamboi;;Carpenter CHPS;;;;;
Bole;Bamboi;;Chibriyoa CHPS;;;;;
Bole;Bole;;Bole District Hospital;;;;;
Bole;Bole;;Bole Health Centre;;;;;
Bole;Bole;;Catholic Phc (bole);;;;;
Bole;Bole;;Dakuripe CHPS;;;;;
Bole;Bole;;Kalidu CHPS;;;;;
Bole;Bole;;Gbenfu CHPS;;;;;
Bole;Bole;;Sakpa CHPS;;;;;
Bole;Bole;;Seripe CHPS;;;;;
Bole;Bole;;Sonyo CHPS;;;;;
Bole;Jama;;Banda Nkwanta CHPS;;;;;
Bole;Jama;;Jama Health Centre;;;;;
Bole;Mandari;;Chache CHPS;;;;;
Bole;Mandari;;Mandari Health Centre;;;;;
Bole;Mankuma;;Kakiasi CHPS;;;;;
Bole;Mankuma;;Mankuma Health Centre;;;;;
Bole;Tinga;;Kui CHPS;;;;;
Bole;Tinga;;Kwame Kwesi CHPS;;;;;
Bole;Tinga;;Kambatiak CHPS;;;;;
Bole;Tinga;;Maluwe CHPS;;;;;
Bole;Tinga;;Tinga Health Centre;;;;;
Bole;Tinga;;Wakawaka CHPS;;;;;
Bunkpurugu-Yunyuo;Binde;;Binde Rural Hospital;;;;;
Bunkpurugu-Yunyuo;Binde;;Gbankoni Chps;;;;;
Bunkpurugu-Yunyuo;Binde;;Kambatiak CHPS;;;;;
Bunkpurugu-Yunyuo;Binde;;Kunkwadaan CHPS;;;;;
Bunkpurugu-Yunyuo;Binde;;Najon 1 &2 CHPS;;;;;
Bunkpurugu-Yunyuo;Binde;;Ngama Chps;;;;;
Bunkpurugu-Yunyuo;Bunkpurugu;;Bunkpurugu Health Centre;;;;;
Bunkpurugu-Yunyuo;Bunkpurugu;;Gbankurugu CHPS;;;;;
Bunkpurugu-Yunyuo;Bunkpurugu;;Gbingbani Health Centre;;;;;
Bunkpurugu-Yunyuo;Bunkpurugu;;Kambagu CHPS;;;;;
Bunkpurugu-Yunyuo;Bunkpurugu;;Pagnatic CHPS;;;;;
Bunkpurugu-Yunyuo;Bunkpurugu;;Kinkango CHPS;;;;;
Bunkpurugu-Yunyuo;Bunkpurugu;;Rabito (Bunkpurugu) Clinic;;;;;
Bunkpurugu-Yunyuo;Bunkpurugu;;Tojing CHPS;;;;;
Bunkpurugu-Yunyuo;Nakpanduri;;Bimbagu CHPS;;;;;
Bunkpurugu-Yunyuo;Nakpanduri;;Boatelegu CHPS;;;;;
Bunkpurugu-Yunyuo;Nakpanduri;;Gbingbananchet CHPS;;;;;
Bunkpurugu-Yunyuo;Nakpanduri;;Faith Community Clinic;;;;;
Bunkpurugu-Yunyuo;Nakpanduri;;Nakpanduri Health Centre;;;;;
Bunkpurugu-Yunyuo;Nakpanduri;;Nakpantibauk CHPS;;;;;
Bunkpurugu-Yunyuo;Nakpanduri;;Tusuk CHPS;;;;;
Bunkpurugu-Yunyuo;Nasuan;;Montana CHPS;;;;;
Bunkpurugu-Yunyuo;Nasuan;;Namongo CHPS;;;;;
Bunkpurugu-Yunyuo;Nasuan;;Nasuan Health Centre;;;;;
Bunkpurugu-Yunyuo;Nasuan;;Temaa Chps;;;;;
Bunkpurugu-Yunyuo;Nasuan;;Tuna CHPS;;;;;
Bunkpurugu-Yunyuo;Yunyoo;;Bumnuna CHPS;;;;;
Bunkpurugu-Yunyuo;Yunyoo;;Jimbale CHPS;;;;;
Bunkpurugu-Yunyuo;Yunyoo;;Mozio CHPS;;;;;
Bunkpurugu-Yunyuo;Yunyoo;;Sambik CHPS;;;;;
Bunkpurugu-Yunyuo;Yunyoo;;Yunyoo Health Centre;;;;;
Central Gonja;Buipe;;Boachipe CHPS;;;;;
Central Gonja;Buipe;;Buipe Polyclinic;;;;;
Central Gonja;Buipe;;Domeabra CHPS;;;;;
Central Gonja;Buipe;;Holistic Medicare;;;;;
Central Gonja;Buipe;;Kabilpe CHPS;;;;;
Central Gonja;Buipe;;Lito CHPS;;;;;
Central Gonja;Buipe;;Mankpan CHPS;;;;;
Central Gonja;Kusawgu;;Zanzugu Yipala CHPS;;;;;
Central Gonja;Kusawgu;;Wambong CHPS;;;;;
Central Gonja;Kusawgu;;Sankpala Health Center;;;;;
Central Gonja;Kusawgu;;Kusawgu Health Centre;;;;;
Central Gonja;Kusawgu;;Jukuku CHPS;;;;;
Central Gonja;Mpaha;;Kpasara CHPS;;;;;
Central Gonja;Mpaha;;Mpaha Health Centre;;;;;
Central Gonja;Mpaha;;Sheri Chps;;;;;
Central Gonja;Tulwei;;Tulwei CHPS;;;;;
Central Gonja;Tulwei;;Chama CHPS;;;;;
Central Gonja;Yala;;Yala CHPS;;;;;
Central Gonja;Yapei;;Amedzrovi CHPS;;;;;
Central Gonja;Yapei;;Bonyase CHPS;;;;;
Central Gonja;Yapei;;Fufulso Juction CHPS;;;;;
Central Gonja;Yapei;;Yapei Health Centre;;;;;
Chereponi;Bumburiga;;Bumburiga CHPS;;;;;
Chereponi;Bumburiga;;Tigenga CHPS;;;;;
Chereponi;Bumburiga;;Kwabena Kabosu CHPS;;;;;
Chereponi;Chereponi;;Chereponi Government Hospital;;;;;
Chereponi;Chereponi;;Chereponi Health Center;;;;;
Chereponi;Chereponi;;Kpamamba CHPS;;;;;
Chereponi;Chereponi;;Nansoni CHPS;;;;;
Chereponi;Chereponi;;Tusunga CHPS;;;;;
Chereponi;Garinkuka;;Garinkuka CHPS;;;;;
Chereponi;Garinkuka;;Mabanbori CHPS;;;;;
Chereponi;Garinkuka;;Naduni CHPS;;;;;
Chereponi;Garinkuka;;Tachieku CHPS;;;;;
Chereponi;Garinkuka;;Tiekasu CHPS;;;;;
Chereponi;Garinkuka;;Tombu CHPS;;;;;
Chereponi;Wenchiki;;Kwanu Nansoni CHPS;;;;;
Chereponi;Wenchiki;;Naja CHPS;;;;;
Chereponi;Wenchiki;;Nyagbandi CHPS;;;;;
Chereponi;Wenchiki;;Tambong CHPS;;;;;
Chereponi;Wenchiki;;Waku CHPS;;;;;
Chereponi;Wenchiki;;Wenchiki Health Centre;;;;;
Chereponi;Wonjuga;;Famisah CHPS;;;;;
Chereponi;Wonjuga;;Kudani CHPS;;;;;
Chereponi;Wonjuga;;Wonjuga CHPS;;;;;
Chereponi;Wonjuga;;Yorgu CHPS;;;;;
East Gonja;Banjai;;Bunjai CHPS;;;;;
East Gonja;Banjai;;Latinkpa chps;;;;;
East Gonja;Buma;;Abrumase Clinic;;;;;
East Gonja;Buma;;Akomade chps;;;;;
East Gonja;Buma;;Buma Clinic;;;;;
East Gonja;Buma;;Kigbatitu chps;;;;;
East Gonja;Buma;;Kijewu chps;;;;;
East Gonja;Buma;;Talkpa chps;;;;;
East Gonja;Jantong;;Dashe chps;;;;;
East Gonja;Jantong;;Dashe chps;;;;;
East Gonja;Jantong;;Jantong CHPS;;;;;
East Gonja;Jantong;;Jantong Chps1;;;;;
East Gonja;Jantong;;Kpenchila chps;;;;;
East Gonja;Jantong;;Kpinchila Chps;;;;;
East Gonja;Kpalbe;;Fuu CHPS;;;;;
East Gonja;Kpalbe;;Kpalbe Health Centre;;;;;
East Gonja;Kpalbe;;Gidanturi chps;;;;;
East Gonja;Kpalbe;;Kpanshegu Chps;;;;;
East Gonja;Kpalbe;;Libi chps;;;;;
East Gonja;Kpalbe;;Nyashila chps;;;;;
East Gonja;Kpalbe;;Makango Sub;;;;;
East Gonja;Kpalbe;;Gbetekpo chps;;;;;
East Gonja;Kpalbe;;Gbetikpo chps;;;;;
East Gonja;Kpalbe;;Kafaba CHPS;;;;;
East Gonja;Kpalbe;;Kpembu CHPS;;;;;
East Gonja;Kpalbe;;Makango Fame Clinic;;;;;
East Gonja;Salaga;;Catholic PHC (East Gonja);;;;;
East Gonja;Salaga;;Grusheizong chps;;;;;
East Gonja;Salaga;;Kayereso CHPS;;;;;
East Gonja;Salaga;;Kultei chps;;;;;
East Gonja;Salaga;;Kuwani chps;;;;;
East Gonja;Salaga;;Precious Life Clinic;;;;;
East Gonja;Salaga;;Salaga District Hospital;;;;;
East Gonja;Salaga;;Salaga Rch;;;;;
East Gonja;Salaga;;Sispe chp;;;;;
East Gonja;Salaga;;yahayil chps;;;;;
East Mamprusi;Gambaga;;Bongbini CHPS;;;;;
East Mamprusi;Gambaga;;Dagbiriboari CHPS;;;;;
East Mamprusi;Gambaga;;Gambaga Health Centre;;;;;
East Mamprusi;Gambaga;;Gbangu CHPS;;;;;
East Mamprusi;Gambaga;;Nanori-Tinsungu CHPS;;;;;
East Mamprusi;Gambaga;;Zaari CHPS;;;;;
East Mamprusi;Gbintiri;;Gbintiri Health Centre;;;;;
East Mamprusi;Gbintiri;;Jagoo CHPS;;;;;
East Mamprusi;Gbintiri;;Nagbai CHPS;;;;;
East Mamprusi;Langbensi;;Bowku CHPS;;;;;
East Mamprusi;Langbensi;;Buzulungu CHPS;;;;;
East Mamprusi;Langbensi;;Namangu CHPS;;;;;
East Mamprusi;Langbensi;;Presby (East Mamprusi) Clinic;;;;;
East Mamprusi;Langbensi;;Samini CHPS;;;;;
East Mamprusi;Langbensi;;Wundua CHPS;;;;;
East Mamprusi;Nalerigu;;Baptist Medical Centre;;;;;
East Mamprusi;Nalerigu;;Barinya CHPS;;;;;
East Mamprusi;Nalerigu;;Gbandabila CHPS;;;;;
East Mamprusi;Nalerigu;;Jablajo CHPS;;;;;
East Mamprusi;Nalerigu;;Jawani CHPS;;;;;
East Mamprusi;Nalerigu;;Kolinvai CHPS;;;;;
East Mamprusi;Nalerigu;;Kulgona CHPS;;;;;
East Mamprusi;Nalerigu;;Lumu CHPS;;;;;
East Mamprusi;Nalerigu;;Nagbo CHPS;;;;;
East Mamprusi;Nalerigu;;Namori CHPS;;;;;
East Mamprusi;Nalerigu;;Tuni CHPS;;;;;
East Mamprusi;Nalerigu;;Yankazia CHPS;;;;;
East Mamprusi;Sakogu;;Dabare CHPS;;;;;
East Mamprusi;Sakogu;;Gadantinga CHPS;;;;;
East Mamprusi;Sakogu;;Jerigitinga CHPS;;;;;
East Mamprusi;Sakogu;;Nakpanbon CHPS;;;;;
East Mamprusi;Sakogu;;Sakogu Health Centre;;;;;
East Mamprusi;Sakogu;;Soansobgi CHPS;;;;;
East Mamprusi;Sakogu;;Sumniboma CHPS;;;;;
East Mamprusi;Sakogu;;Zambulugu CHPS;;;;;
Gushiegu;Galwei;;Galwei CHPS;;;;;
Gushiegu;Galwei;;Kpanashei Chps;;;;;
Gushiegu;Galwei;;Zinindo CHPS;;;;;
Gushiegu;Gushiegu;;Borgu CHPS;;;;;
Gushiegu;Gushiegu;;Damankung CHPS;;;;;
Gushiegu;Gushiegu;;Garichefong CHPS;;;;;
Gushiegu;Gushiegu;;Gushiegu chps;;;;;
Gushiegu;Gushiegu;;Gushiegu District Hospital;;;;;
Gushiegu;Gushiegu;;Kunnaayili CHPS;;;;;
Gushiegu;Gushiegu;;Nakorgufong CHPS;;;;;
Gushiegu;Gushiegu;;Nasandi CHPS;;;;;
Gushiegu;Gushiegu;;Nayilifong CHPS;;;;;
Gushiegu;Gushiegu;;Neesim Nutrition Center;;;;;
Gushiegu;Gushiegu;;Salaa CHPS;;;;;
Gushiegu;Gushiegu;;Zamashegu CHPS;;;;;
Gushiegu;Gushiegu;;Zanteli CHPS;;;;;
Gushiegu;Katani;;Katani CHPS;;;;;
Gushiegu;Katani;;Nawuhugu CHPS;;;;;
Gushiegu;Kpatinga;;Gaa Chps;;;;;
Gushiegu;Kpatinga;;Kpatinga Health Centre;;;;;
Gushiegu;Nabuli;;Kolig CHPS;;;;;
Gushiegu;Nabuli;;Nabuli Health Centre;;;;;
Gushiegu;Nabuli;;Namangbani CHPS;;;;;
Gushiegu;Nabuli;;Nasuwei CHPS;;;;;
Karaga;Karaga;;Guma CHPS;;;;;
Karaga;Karaga;;Gunayili CHPS;;;;;
Karaga;Karaga;;Karaga District Hospital;;;;;
Karaga;Karaga;;Karaga Health Center;;;;;
Karaga;Karaga;;Kumuayili CHPS;;;;;
Karaga;Karaga;;Namburugu CHPS;;;;;
Karaga;Karaga;;Nyingali CHPS;;;;;
Karaga;Karaga;;Sakulo CHPS;;;;;
Karaga;Karaga;;Tong CHPS;;;;;
Karaga;Karaga;;Yemo chps;;;;;
Karaga;Pishigu;;Bagurugu CHPS;;;;;
Karaga;Pishigu;;Didogi Tamalgu CHPS;;;;;
Karaga;Pishigu;;Kpatariborgu CHPS;;;;;
Karaga;Pishigu;;Nyong CHPS;;;;;
Karaga;Pishigu;;Pishigu Health Centre;;;;;
Karaga;Pishigu;;SUNG CHPS;;;;;
Karaga;Pishigu;;Tamalgu CHPS;;;;;
Karaga;Sandua;;Binkonaloli CHPS;;;;;
Karaga;Sandua;;Nakundugu CHPS;;;;;
Karaga;Sandua;;Namang CHPS;;;;;
Karaga;Zandua;;Bagli CHPS;;;;;
Karaga;Zandua;;Zandua CHPS;;;;;
Kpandai;Kabonwule;;Bladjai EP Clinic;;;;;
Kpandai;Kabonwule;;Kabonwule chps;;;;;
Kpandai;Kitare;;Kitare Health Centre;;;;;
Kpandai;Kitare;;Nassande chps;;;;;
Kpandai;Kitare;;Wasawasa CHPS;;;;;
Kpandai;Kpandai;;Buya Health Center;;;;;
Kpandai;Kpandai;;ECG Hospital;;;;;
Kpandai;Kpandai;;Keteijeli CHPS;;;;;
Kpandai;Kpandai;;Kpandai District Hospital;;;;;
Kpandai;Kpandai;;Oti River Health Centre;;;;;
Kpandai;Kpandai;;Tadando CHPS;;;;;
Kpandai;Kumdi;;Bakamba chps;;;;;
Kpandai;Kumdi;;Kojobone CHPS;;;;;
Kpandai;Kumdi;;Kumdi Health Centre;;;;;
Kpandai;Kumdi;;Wajado CHPS;;;;;
Kpandai;Kumdi;;Wiae CHPS Compound;;;;;
Kpandai;Sabonjida;;Gulbi Quarters Clinic;;;;;
Kpandai;Sabonjida;;Jidandogo chps;;;;;
Kpandai;Sabonjida;;Kabeso CHPS Compound;;;;;
Kpandai;Sabonjida;;Kpajai No. 2 CHPS;;;;;
Kpandai;Sabonjida;;Loloto Presby Health Centre;;;;;
Kpandai;Sabonjida;;Lonto Health Centre;;;;;
Kpandai;Sabonjida;;Sabonjida Health Centre;;;;;
Kumbungu;Dalun;;Dalun Health Centre;;;;;
Kumbungu;Dalun;;Kings Medical Centre;;;;;
Kumbungu;Dalun;;Kpegu CHPS;;;;;
Kumbungu;Dalun;;Nawuni CHPS;;;;;
Kumbungu;Dalun;;Sakuba CHPS;;;;;
Kumbungu;Dalun;;Singa CHPS;;;;;
Kumbungu;Dalun;;Zangbalun CHPS;;;;;
Kumbungu;Gbullung;;Cheyoli CHPS;;;;;
Kumbungu;Gbullung;;Gbulung CHPS;;;;;
Kumbungu;Gbullung;;Gizaa CHPS;;;;;
Kumbungu;Gbullung;;Jakpahi CHPS;;;;;
Kumbungu;Gupanerigu;;Bognayili CHPS;;;;;
Kumbungu;Gupanerigu;;Cheshegu CHPS;;;;;
Kumbungu;Gupanerigu;;Gumo CHPS;;;;;
Kumbungu;Gupanerigu;;Gupanerigu CHPS;;;;;
Kumbungu;Gupanerigu;;Mbanaayili CHPS;;;;;
Kumbungu;Gupanerigu;;Nwodua CHPS;;;;;
Kumbungu;Kumbungu;;Kpullinyin CHPS;;;;;
Kumbungu;Kumbungu;;Kumbungu Health Centre;;;;;
Kumbungu;Kumbungu;;Satani CHPS;;;;;
Kumbungu;Kumbungu;;Zugu Dagbon CHPS;;;;;
Kumbungu;Voggu;;Jegbo CHPS;;;;;
Kumbungu;Voggu;;Kuli CHPS;;;;;
Kumbungu;Voggu;;Tibung CHPS;;;;;
Kumbungu;Voggu;;Voggu CHPS;;;;;
Mamprugu-Moagduri;Kubori;;Kpatorigu CHPS;;;;;
Mamprugu-Moagduri;Kubori;;Kubori Health Centre;;;;;
Mamprugu-Moagduri;Kubori;;Kubugu Chps;;;;;
Mamprugu-Moagduri;Kubori;;Namoo CHPS;;;;;
Mamprugu-Moagduri;Kubori;;Zanwara CHPS;;;;;
Mamprugu-Moagduri;Kunkwa;;Jadema Health Centre;;;;;
Mamprugu-Moagduri;Kunkwa;;Katigre Chps;;;;;
Mamprugu-Moagduri;Kunkwa;;Kunkwa Health Center;;;;;
Mamprugu-Moagduri;Yagaba;;Gbima CHPS;;;;;
Mamprugu-Moagduri;Yagaba;;Loagri CHPS;;;;;
Mamprugu-Moagduri;Yagaba;;Soo CHPS Zone;;;;;
Mamprugu-Moagduri;Yagaba;;Yagaba Health Centre;;;;;
Mamprugu-Moagduri;Yikpabongo;;Fame (yiezesi) Health Center;;;;;
Mamprugu-Moagduri;Yikpabongo;;Nangrumah CHPS;;;;;
Mamprugu-Moagduri;Yikpabongo;;Tantala CHPS Zone;;;;;
Mamprugu-Moagduri;Yikpabongo;;Yikpabongo CHPS;;;;;
Mion;Jimle;;Chegu CHPS;;;;;
Mion;Jimle;;Jimle Health Centre;;;;;
Mion;Jimle;;Nanvili CHPS;;;;;
Mion;Jimle;;Tidjo CHPS;;;;;
Mion;Kpabia;;Afayili CHPS;;;;;
Mion;Kpabia;;Bofoyili CHPS;;;;;
Mion;Kpabia;;Buli CHPS;;;;;
Mion;Kpabia;;Dabogni CHPS;;;;;
Mion;Kpabia;;Kpabia Health centre;;;;;
Mion;Kpabia;;Nsojah CHPS;;;;;
Mion;Kpabia;;Nyentou CHPS;;;;;
Mion;Kpabia;;Tanado CHPS;;;;;
Mion;Kukpalgu;;Dombini CHPs;;;;;
Mion;Kukpalgu;;Kukpalgu Health Centre;;;;;
Mion;Kukpalgu;;Tinsung CHPS;;;;;
Mion;Sambu;;Bachaborido CHPS;;;;;
Mion;Sambu;;Kpunkpuno CHPS;;;;;
Mion;Sambu;;Manyini CHPS;;;;;
Mion;Sambu;;Nadundo CHPS;;;;;
Mion;Sambu;;Sambu Health Centre;;;;;
Mion;Sambu;;Warivi CHPS;;;;;
Mion;Sang;;Kayoung CHPS;;;;;
Mion;Sang;;Kulinkpegu CHPS;;;;;
Mion;Sang;;Sakpe CHPS;;;;;
Mion;Sang;;Salankpang CHPS;;;;;
Mion;Sang;;Sang Health Centre;;;;;
Mion;Sang;;Sanzee CHPS;;;;;
Mion;Sang;;Zakpalsi CHPS;;;;;
Nanumba North;Bimbilla;;Alaafie Medical Centre;;;;;
Nanumba North;Bimbilla;;Bimbilla District Hospital;;;;;
Nanumba North;Bimbilla;;Bimbilla Public Health UNIT;;;;;
Nanumba North;Bimbilla;;Bimbilla RCH;;;;;
Nanumba North;Bincheratanga;;Bincheratanga Health Centre;;;;;
Nanumba North;Bincheratanga;;Gambuga CHPS;;;;;
Nanumba North;Chamba;;Chamba Health Centre;;;;;
Nanumba North;Chamba;;Dakpam CHPS;;;;;
Nanumba North;Chamba;;Sabonjida CHPS;;;;;
Nanumba North;Chamba;;SOGON CHPS;;;;;
Nanumba North;Lanja;;BAKPABA CHPS;;;;;
Nanumba North;Lanja;;Lanja Health Centre;;;;;
Nanumba North;Makayili;;Juanayili CHPS;;;;;
Nanumba North;Makayili;;Juo CHPS;;;;;
Nanumba North;Makayili;;Lepusi CHPS;;;;;
Nanumba North;Makayili;;Makayili Health Centre;;;;;
Nanumba North;Makayili;;Nakpa CHPS;;;;;
Nanumba South;Egambo;;Egambo CHPS;;;;;
Nanumba South;Lungni;;Aprusaya CHPS;;;;;
Nanumba South;Lungni;;Chando CHPS;;;;;
Nanumba South;Lungni;;Gmapeado CHPS;;;;;
Nanumba South;Lungni;;Lungni Health Centre;;;;;
Nanumba South;Napkpayili;;Garikpe CHPS;;;;;
Nanumba South;Napkpayili;;Kpalsogu CHPS;;;;;
Nanumba South;Napkpayili;;Kukuo CHPS;;;;;
Nanumba South;Napkpayili;;Nakpayili CHPS;;;;;
Nanumba South;Pudua;;Lahito CHPS;;;;;
Nanumba South;Pudua;;Pudua Health Centre;;;;;
Nanumba South;Wulensi;;GBUNGBALIGA CHPS;;;;;
Nanumba South;Wulensi;;Jolli CHPS;;;;;
Nanumba South;Wulensi;;Tinageria CHPS;;;;;
Nanumba South;Wulensi;;Wulensi Health Centre;;;;;
Nanumba South;Wulensi;;Wulensi RCH;;;;;
North Gonja;Bawena;;Bawena Health Center;;;;;
North Gonja;Bawena;;Yazori CHPS;;;;;
North Gonja;Daboya;;Daboya Health Centre;;;;;
North Gonja;Daboya;;Guo CHPS;;;;;
North Gonja;Daboya;;Kagbal CHPS;;;;;
North Gonja;Daboya;;Kuputo CHPS;;;;;
North Gonja;Lingbinsi;;Lingbinsi Health Centre;;;;;
North Gonja;Lingbinsi;;Somum CHPS;;;;;
North Gonja;Lingbinsi;;Tari Health Center;;;;;
North Gonja;Lingbinsi;;Wawato CHPS;;;;;
North Gonja;Mankarigu;;Lukula CHPS;;;;;
North Gonja;Mankarigu;;Mankarigu Health Centre;;;;;
North Gonja;Mankarigu;;Mempeasem CHPS;;;;;
North Gonja;Mankarigu;;Yagbum CHPS;;;;;
Saboba;Gbangbanpong;;Bukob CHPS;;;;;
Saboba;Gbangbanpong;;Gbangbanpong CHPS;;;;;
Saboba;Gbangbanpong;;Nambiri CHPS;;;;;
Saboba;Gbangbanpong;;Sanguli CHPS;;;;;
Saboba;Kpalba;;Demon CHPS;;;;;
Saboba;Kpalba;;Demong CHPS1;;;;;
Saboba;Kpalba;;Kpalba Health Center;;;;;
Saboba;Kpalba;;Kpalba Health Center1;;;;;
Saboba;Kpalba;;Kuntuli chps;;;;;
Saboba;Kpalba;;Namongbani chps;;;;;
Saboba;Natagu;;Liful Chps;;;;;
Saboba;Natagu;;Natagu chps;;;;;
Saboba;Natagu;;Ugando CHPS;;;;;
Saboba;Natagu;;Zagbeli chps;;;;;
Saboba;Saboba;;Garimata CHPS;;;;;
Saboba;Saboba;;Saboba Central chps;;;;;
Saboba;Saboba;;Saboba East chp;;;;;
Saboba;Saboba;;Saboba East CHPS;;;;;
Saboba;Saboba;;Saboba Health Centre;;;;;
Saboba;Saboba;;Saboba Medical Centre;;;;;
Saboba;Saboba;;Saboba West Chps;;;;;
Saboba;Saboba;;Saboba chps;;;;;
Saboba;Sambuli;;Holy Cross Clinic & Maternity;;;;;
Saboba;Sambuli;;Kucha chps;;;;;
Saboba;Sambuli;;kugnani chps;;;;;
Saboba;Sambuli;;Kunkunzali chps;;;;;
Saboba;Sambuli;;Wadiik CHPS;;;;;
Saboba;Wapuli;;Bakundiba CHPS;;;;;
Saboba;Wapuli;;Borgban Chps;;;;;
Saboba;Wapuli;;Gbenja chps;;;;;
Saboba;Wapuli;;Kujoni CHPS;;;;;
Saboba;Wapuli;;Wapuli Evangelical Presbyterian Clinic;;;;;
Saboba;Wapuli;;Yankazia chps;;;;;
Sagnarigu;Choggu;;Choggu Health Centre;;;;;
Sagnarigu;Choggu;;Choggu Shekina Clinic;;;;;
Sagnarigu;Choggu;;Fulera Maternity Home;;;;;
Sagnarigu;Choggu;;Naa Luro;;;;;
Sagnarigu;Choggu;;Sognaayilli Chps;;;;;
Sagnarigu;Choggu;;St Lucy Polyclinic;;;;;
Sagnarigu;Garizegu;;Garizegu CHPS;;;;;
Sagnarigu;Garizegu;;God Cares Community Hospital;;;;;
Sagnarigu;Garizegu;;Kpinging CHPS;;;;;
Sagnarigu;Kamina;;6MRS Kamina Hospital;;;;;
Sagnarigu;Kamina;;ABF Mile Nine Hospital;;;;;
Sagnarigu;Kamina;;Dungu CHPS;;;;;
Sagnarigu;Kamina;;Habana Medical Service;;;;;
Sagnarigu;Kamina;;Kanvilli Health Center;;;;;
Sagnarigu;Kamina;;Kanvilli Tunaayilli CHPS;;;;;
Sagnarigu;Kamina;;PPAG Jisonayilli Clinic;;;;;
Sagnarigu;Kamina;;Suglo Maternity Home;;;;;
Sagnarigu;Kamina;;Tania Specialist Hospital;;;;;
Sagnarigu;Kamina;;Zagyuri CHPS;;;;;
Sagnarigu;Malshegu;;Katariga CHPS;;;;;
Sagnarigu;Malshegu;;Kukuo Yapalsi chps;;;;;
Sagnarigu;Malshegu;;Malshegu CHPS;;;;;
Sagnarigu;Sagnarigu;;As-Salam Maternity Home Annex;;;;;
Sagnarigu;Sagnarigu;;Bagabaga Health Center;;;;;
Sagnarigu;Sagnarigu;;Kpene CHPS;;;;;
Sagnarigu;Sagnarigu;;Sagnarigu Health centre;;;;;
Sagnarigu;Sagnarigu;;Shishegu CHPS;;;;;
Sagnarigu;Sagnarigu;;Tamale College of Education Clinic;;;;;
Sagnarigu;Taha;;Community Health Nurses Training School CHPS;;;;;
Sagnarigu;Taha;;Fuo Community Hospital;;;;;
Sagnarigu;Taha;;Gbrima CHPS;;;;;
Sagnarigu;Taha;;Kalpohin Health Centre;;;;;
Sagnarigu;Taha;;Kulaa CHPS;;;;;
Sagnarigu;Taha;;Nyanshegu CHPS;;;;;
Sagnarigu;Taha;;RCC Clinic;;;;;
Sagnarigu;Taha;;Taha CHPS;;;;;
Savelugu-Nanton;Diare;;Diare Health Centre;;;;;
Savelugu-Nanton;Diare;;Dipale CHPS;;;;;
Savelugu-Nanton;Diare;;Kukuobila CHPS;;;;;
Savelugu-Nanton;Diare;;Nambagla CHPS;;;;;
Savelugu-Nanton;Diare;;Pigu CHPS;;;;;
Savelugu-Nanton;Moglaa;;Moglaa Health Centre;;;;;
Savelugu-Nanton;Moglaa;;Tarikpaa CHPS;;;;;
Savelugu-Nanton;Nanton;;Fazihini CHPS;;;;;
Savelugu-Nanton;Nanton;;Guntingli CHPS;;;;;
Savelugu-Nanton;Nanton;;Janjori-Kukuo Health Centre;;;;;
Savelugu-Nanton;Nanton;;Nanton Health Centre;;;;;
Savelugu-Nanton;Nanton;;Nanton-Kurugu CHPS;;;;;
Savelugu-Nanton;Nanton;;Sandu CHPS;;;;;
Savelugu-Nanton;Pong Tamale;;Kuldanali CHPS;;;;;
Savelugu-Nanton;Pong Tamale;;Nabogu CHPS;;;;;
Savelugu-Nanton;Pong Tamale;;Pong Tamale Health Centre;;;;;
Savelugu-Nanton;Savelugu;;Bunglung CHPS;;;;;
Savelugu-Nanton;Savelugu;;Buruham Clinic;;;;;
Savelugu-Nanton;Savelugu;;Modern Surgical Centre;;;;;
Savelugu-Nanton;Savelugu;;Nasara Clinic;;;;;
Savelugu-Nanton;Savelugu;;Savelugu District Hospital;;;;;
Savelugu-Nanton;Savelugu;;Savelugu RCH;;;;;
Savelugu-Nanton;Tampion;;Nagdigu CHPS;;;;;
Savelugu-Nanton;Tampion;;Nyolgu CHPS;;;;;
Savelugu-Nanton;Tampion;;Tampion Health Center;;;;;
Savelugu-Nanton;Tampion;;Zoggu Health Centre;;;;;
Sawla-Tuna-Kalba;Gbiniyiri;;Gbiniyiri CHPS;;;;;
Sawla-Tuna-Kalba;Gbiniyiri;;Kawei Chps;;;;;
Sawla-Tuna-Kalba;Gbiniyiri;;Sanyeri CHPS;;;;;
Sawla-Tuna-Kalba;Gindabuo;;Bobalanyuro CHPS;;;;;
Sawla-Tuna-Kalba;Gindabuo;;Gindabuo Health Centre;;;;;
Sawla-Tuna-Kalba;Gindabuo;;Poru CHPS;;;;;
Sawla-Tuna-Kalba;Gindabuo;;Vondiel CHPS;;;;;
Sawla-Tuna-Kalba;Kalba;;Garkuo CHPS;;;;;
Sawla-Tuna-Kalba;Kalba;;Kalba Health Centre;;;;;
Sawla-Tuna-Kalba;Kalba;;Kunfusi CHPS;;;;;
Sawla-Tuna-Kalba;Kalba;;Norchiteyiri CHPS;;;;;
Sawla-Tuna-Kalba;Kalba;;Saru CHPS;;;;;
Sawla-Tuna-Kalba;Kulmasah;;Goyiri CHPS;;;;;
Sawla-Tuna-Kalba;Kulmasah;;Kulmasa CHPS;;;;;
Sawla-Tuna-Kalba;Sawla;;Evergreen Maternity;;;;;
Sawla-Tuna-Kalba;Sawla;;Friends Maternity;;;;;
Sawla-Tuna-Kalba;Sawla;;Jelinkon CHPS;;;;;
Sawla-Tuna-Kalba;Sawla;;Jentlipe Clinic;;;;;
Sawla-Tuna-Kalba;Sawla;;Konkrope CHPS;;;;;
Sawla-Tuna-Kalba;Sawla;;Nakpala CHPS;;;;;
Sawla-Tuna-Kalba;Sawla;;Nasoryiri Clinic;;;;;
Sawla-Tuna-Kalba;Sawla;;Sawla Polyclinc;;;;;
Sawla-Tuna-Kalba;Tuna;;Donald Richards Clinic;;;;;
Sawla-Tuna-Kalba;Tuna;;Gbegu CHPS;;;;;
Sawla-Tuna-Kalba;Tuna;;Kong CHPS;;;;;
Sawla-Tuna-Kalba;Tuna;;Nahari CHPS;;;;;
Sawla-Tuna-Kalba;Tuna;;Soma CHPS;;;;;
Sawla-Tuna-Kalba;Tuna;;Tuna Health Centre;;;;;
Sawla-Tuna-Kalba;Tuna;;Yipala CHPS;;;;;
Tamale;Bilpeila;;Adubliyili CHPS;;;;;
Tamale;Bilpeila;;Al-Shifaa Hospital;;;;;
Tamale;Bilpeila;;Banvim CHPS;;;;;
Tamale;Bilpeila;;Bilpela Health Centre;;;;;
Tamale;Bilpeila;;Datoyili CHPS;;;;;
Tamale;Bilpeila;;Deha Maternity Home;;;;;
Tamale;Bilpeila;;Dohini CHPS;;;;;
Tamale;Bilpeila;;Dungu CHPS;;;;;
Tamale;Bilpeila;;Fooshegu CHPS;;;;;
Tamale;Bilpeila;;God First Maternity Home;;;;;
Tamale;Bilpeila;;Hajj Adams Clinic;;;;;
Tamale;Bilpeila;;Industrial Area Clinic;;;;;
Tamale;Bilpeila;;Kadara Clinic;;;;;
Tamale;Bilpeila;;Kpanvo Clinic;;;;;
Tamale;Bilpeila;;Manguli CHPS;;;;;
Tamale;Bilpeila;;SOS Clinic;;;;;
Tamale;Bilpeila;;Yong CHPS;;;;;
Tamale;Nyohini;;Nyohini Health Center;;;;;
Tamale;Nyohini;;Tizaa Royal Hospital;;;;;
Tamale;Tamale Central;;As-Salam Maternity Home;;;;;
Tamale;Tamale Central;;Moshie Zongo Health Centre;;;;;
Tamale;Tamale Central;;Rabito Clinic;;;;;
Tamale;Tamale Central;;Reverend Tryers Memorial Clinic;;;;;
Tamale;Tamale Central;;Tamale Central Health Center;;;;;
Tamale;Tamale Central;;Tamale Central Hospital;;;;;
Tamale;Tamale Central;;Tamale Central Nutrition Rehabilitation Centre;;;;;
Tamale;Tamale Central;;Tamale Central Prisons Clinic;;;;;
Tamale;Tamale Central;;Tamale Police Clinic;;;;;
Tamale;Tamale Central;;Tamale SDA Hospital;;;;;
Tamale;Tamale Central;;Tamale Teaching Hospital;;;;;
Tamale;Tamale Central;;Tamale West Hospital;;;;;
Tamale;Vitting;;Kabsad Scientific Hospital;;;;;
Tamale;Vitting;;Kotingli CHPS;;;;;
Tamale;Vitting;;Lahagu CHPS;;;;;
Tamale;Vitting;;Newlife Clinic;;;;;
Tamale;Vitting;;Pagazaa CHPS;;;;;
Tamale;Vitting;;Sheikina Clinic;;;;;
Tamale;Vitting;;Tugu CHPS;;;;;
Tamale;Vitting;;Vitting Clinic;;;;;
Tamale;Vitting;;Zuo CHPS;;;;;
Tamale;Vitting;;Zuo Nutrition Education Centre;;;;;
Tolon;Kasuliyili;;Bulpkali CHPS;;;;;
Tolon;Kasuliyili;;Kandin Health Centre;;;;;
Tolon;Kasuliyili;;Sheini CHPS;;;;;
Tolon;Kpendua;;Kpalbotabu Health Centre;;;;;
Tolon;Kpendua;;Yachado CHPS;;;;;
Tolon;Lingbunga;;Koyili CHPS;;;;;
Tolon;Lingbunga;;Nahuyili CHPS;;;;;
Tolon;Nyankpala;;Gbulahagu CHPS;;;;;
Tolon;Nyankpala;;Nyankpala Health Centre;;;;;
Tolon;Nyankpala;;Tuunaayili CHPS;;;;;
Tolon;Nyankpala;;UDS CLINIC;;;;;
Tolon;Tolon;;Afreak Medical community Hospital;;;;;
Tolon;Tolon;;Dimabi CHPS;;;;;
Tolon;Tolon;;Gbrumani CHPS;;;;;
Tolon;Tolon;;Tolon Health Centre;;;;;
Tolon;Wantugu;;Lingbun Gundaa CHPS;;;;;
Tolon;Wantugu;;Wantugu Health Centre;;;;;
Tatale-Sangule;Kandin;;Lingbun Gundaa CHPS;;;;;
Tatale-Sangule;Kandin;;Wantugu Health Centre;;;;;
Tatale-Sangule;Kparbutabo;;Kpalbotabu Health Centre;;;;;
Tatale-Sangule;Kparbutabo;;Yachado CHPS;;;;;
Tatale-Sangule;Nahuyili;;Koyili CHPS;;;;;
Tatale-Sangule;Nahuyili;;Nahuyili CHPS;;;;;
Tatale-Sangule;Sangbaa;;Kubalim Chps;;;;;
Tatale-Sangule;Sangbaa;;Sangbaa CHPS;;;;;
Tatale-Sangule;Sangule;;Dondoni CHPS;;;;;
Tatale-Sangule;Sangule;;Sanguli CHPS;;;;;
Tatale-Sangule;Sangule;;Tatindo Clinic;;;;;
Tatale-Sangule;Tatale;;Napkali Borele CHPS;;;;;
Tatale-Sangule;Tatale;;Port Clinic;;;;;
Tatale-Sangule;Tatale;;Tatale Health Center;;;;;
Tatale-Sangule;Tatale;;Tatale Polyclinic;;;;;
West Gonja;Busunu;;Achubunyor CHPS;;;;;
West Gonja;Busunu;;Busunu Health Centre;;;;;
West Gonja;Busunu;;Kededelimpa chps;;;;;
West Gonja;Busunu;;Kojokura Chps;;;;;
West Gonja;Busunu;;Langantre CHPS;;;;;
West Gonja;Busunu;;Mempeasem CHPS;;;;;
West Gonja;Busunu;;Soelepe chp;;;;;
West Gonja;Canteen;;Achulokura CHPS;;;;;
West Gonja;Canteen;;Damongo District Hospital;;;;;
West Gonja;Canteen;;Kotito CHPS;;;;;
West Gonja;Canteen;;Kpiri CHPS;;;;;
West Gonja;Canteen;;SAGISS Health Center;;;;;
West Gonja;Canteen;;Sori chps;;;;;
West Gonja;Damongo;;Damongo Health Centre;;;;;
West Gonja;Damongo;;Hangaline chps;;;;;
West Gonja;Damongo;;NDESCO CHPS;;;;;
West Gonja;Dass;;Attributo CHPS;;;;;
West Gonja;Dass;;Broto chps;;;;;
West Gonja;Dass;;Dass Health Center;;;;;
West Gonja;Dass;;Yipala CHPS;;;;;
West Gonja;Larabanga;;Grupe CHPS;;;;;
West Gonja;Larabanga;;Kabampe CHPS;;;;;
West Gonja;Larabanga;;Larabanga Health Center;;;;;
West Gonja;Larabanga;;Mognori CHPS;;;;;
West Gonja;Larabanga;;Mole CHPS;;;;;
West Gonja;Larabanga;;Murugu Chps;;;;;
West Mamprusi;Janga;;Daboyah CHPS Zone;;;;;
West Mamprusi;Janga;;Janga Polyclinic;;;;;
West Mamprusi;Janga;;Janga RCH;;;;;
West Mamprusi;Kpasenkpe;;Duu CHPS;;;;;
West Mamprusi;Kpasenkpe;;Kpasenkpe Health Centre;;;;;
West Mamprusi;Kpasenkpe;;Nabari CHPS;;;;;
West Mamprusi;Walewale;;Catholic Family Reproductive Health Project;;;;;
West Mamprusi;Walewale;;Guabuliga CHPS;;;;;
West Mamprusi;Walewale;;Nasia CHPS;;;;;
West Mamprusi;Walewale;;Nelson Mandela Clinic;;;;;
West Mamprusi;Walewale;;Our Lady Of Roccio;;;;;
West Mamprusi;Walewale;;Tinguri CHPS;;;;;
West Mamprusi;Walewale;;Walewale District Hospital;;;;;
West Mamprusi;Walewale;;Walewale Health Centre;;;;;
West Mamprusi;Walewale;;West Mamprusi PPAG;;;;;
West Mamprusi;Walewale;;Yamah CHPS;;;;;
West Mamprusi;Wulugu;;Arigu CHPS;;;;;
West Mamprusi;Wulugu;;Bugya chps;;;;;
West Mamprusi;Wulugu;;Gbeo CHPS;;;;;
West Mamprusi;Wulugu;;Wulugu Health Centre;;;;;
Yendi;Adibo;;Adibo Health Centre;;;;;
Yendi;Adibo;;Gbungbaliga CHPS;;;;;
Yendi;Adibo;;Kpalbilogni CHPS;;;;;
Yendi;Adibo;;Kuni CHPS;;;;;
Yendi;Adibo;;Nakpachie CHPS;;;;;
Yendi;Adibo;;Yimahegu CHPs;;;;;
Yendi;Adibo;;Zugu CHPS;;;;;
Yendi;Adibo;;Bumbong Health Centre;;;;;
Yendi;Adibo;;Kulikpanga CHPS;;;;;
Yendi;Adibo;;Malzeri Clinic;;;;;
Yendi;Adibo;;Nkwanta Chps;;;;;
Yendi;Adibo;;Oseido CHPS;;;;;
Yendi;Adibo;;Pion Chps;;;;;
Yendi;Adibo;;Sunsong CHPS;;;;;
Yendi;Ngani;;Borgni CHPS;;;;;
Yendi;Ngani;;Gnani Health Centre;;;;;
Yendi;Ngani;;Kamshegu CHPs;;;;;
Yendi;Ngani;;Kolgamado CHPS;;;;;
Yendi;Ngani;;Kpalgigbini CHPS;;;;;
Yendi;Ngani;;Kpanjamba CHPS;;;;;
Yendi;Ngani;;Nogmado CHPS;;;;;
Yendi;Ngani;;Tindang CHPS;;;;;
Yendi;Yendi Central;;Bini CHPS;;;;;
Yendi;Yendi Central;;Gamanzei CHPS;;;;;
Yendi;Yendi Central;;Gundogu CHPS;;;;;
Yendi;Yendi Central;;Yendi Church Of Christ Clinic;;;;;
Yendi;Yendi Central;;Yendi Health Center;;;;;
Yendi;Yendi East;;Kuga CHPS;;;;;
Yendi;Yendi East;;Kunkon CHPS;;;;;
Yendi;Yendi East;;Meindogu CHPS;;;;;
Yendi;Yendi East;;Nayilifong Chps;;;;;
Yendi;Yendi East;;Wanbung CHPS;;;;;
Yendi;Yendi East;;Yendi District Hospital;;;;;
Yendi;Yendi West;;Kpalsonado CHPS;;;;;
Yendi;Yendi West;;Kumlanfong CHPS;;;;;
Yendi;Yendi West;;Motondo CHPS;;;;;
Yendi;Yendi West;;Waliyepala CHPS;;;;;
Yendi;Yendi West;;Zohe CHPS;;;;;
Zabzugu;Gortanei;;Gor-Kukani CHPS;;;;;
Zabzugu;Gortanei;;Gor-tanei CHPS;;;;;
Zabzugu;Kukpaligu;;Kukpaligu Health Centre;;;;;
Zabzugu;Kukpaligu;;Ojoja CHPS;;;;;
Zabzugu;Nakpale;;Kukokpanga CHPS;;;;;
Zabzugu;Nakpale;;Nakpale Health Centre;;;;;
Zabzugu;Nakpale;;Subruni CHPS;;;;;
Zabzugu;Nakpale;;Woribogu CHPS;;;;;
Zabzugu;Sabare;;Monegu CHPS;;;;;
Zabzugu;Sabare;;Sabare CHPS;;;;;
Zabzugu;Zabzugu;;Kpaligagbini CHPS;;;;;
Zabzugu;Zabzugu;;Kuntumbiyili CHPS;;;;;
Zabzugu;Zabzugu;;Zabzugu District Hospital;;;;;
Zabzugu;Zabzugu;;Zabzugu RCH;;;;;
