LGA;Ward;Settlement;Facility;Type;Ownership;Address;Longitude;Latitude
Bawku;Barbari/Bador;;Bador CHPS;;;;;
Bawku;Barbari/Bador;;Baribari CHPS;;;;;
Bawku;Kuka East;;Kuka CHPS;;;;;
Bawku;Kuka East;;Megogo CHPS;;;;;
Bawku;Kuka West;;Asikiri CHPS;;;;;
Bawku;Kuka West;;Bugre Corner Health Center;;;;;
Bawku;Mognori;;Bugzunde CHPS;;;;;
Bawku;Mognori;;Gentiga CHPS;;;;;
Bawku;Mognori;;Mognori Health Centre;;;;;
Bawku;North Natinga;;Islam Matenity Home;;;;;
Bawku;North Natinga;;Urban (bawku) Health Centre;;;;;
Bawku;South Natinga;;Bawku Presby Hospital;;;;;
Bawku;South Natinga;;Kpalore CHPS;;;;;
Bawku;South Natinga;;Millennium Laafi Doog;;;;;
Bawku;Urban West;;Case Medical Center;;;;;
Bawku;Urban West;;Dan's Clinic;;;;;
Bawku;Urban West;;Everjoy Medical Center;;;;;
Bawku;Urban West;;Quality (bawku) Medical Centre;;;;;
Bawku;Urban West;;Tensungu CHPS;;;;;
Bawku;Urban West;;Urban West Health Centre (Bawku);;;;;
Bawku;Urban West;;Vineyard Hospital;;;;;
Binduri;Aniisi;;Aniisi CHPS;;;;;
Binduri;Aniisi;;Kukparigu CHPS;;;;;
Binduri;Aniisi;;Tetauko CHPS;;;;;
Binduri;Aluba;;Nafkolga CHPS;;;;;
Binduri;Bazua;;Asugtaaba Clinic;;;;;
Binduri;Bazua;;Bazua Clinic;;;;;
Binduri;Binduri;;Azum-Sapeliga CHPS;;;;;
Binduri;Binduri;;Binduri Health Centre;;;;;
Binduri;Manga;;Goore Clinic;;;;;
Binduri;Manga;;Manga CHPS;;;;;
Binduri;Zawse;;Bansi CHPS;;;;;
Binduri;Zawse;;Zawse CHPS;;;;;
Bawku West;Binaba;;Azuwera CHPS;;;;;
Bawku West;Binaba;;Binaba Health Centre;;;;;
Bawku West;Binaba;;Kopella CHPS;;;;;
Bawku West;Boya;;Boya CHPS;;;;;
Bawku West;Boya;;Gbantango Clinic;;;;;
Bawku West;Boya;;Yelwoko Clinic;;;;;
Bawku West;Sapelliga Googo;;Agatusi CHPS;;;;;
Bawku West;Sapelliga Googo;;Galaka CHPS;;;;;
Bawku West;Sapelliga Googo;;Googo Clinic;;;;;
Bawku West;Sapelliga Googo;;Salpiiga CHPS;;;;;
Bawku West;Sapelliga Googo;;Sapelliga Health Centre;;;;;
Bawku West;Tanga;;Biringu CHPS;;;;;
Bawku West;Tanga;;Gozeisi CHPS;;;;;
Bawku West;Tanga;;Tanga CHPS;;;;;
Bawku West;Tanga;;Timonde Health Centre;;;;;
Bawku West;Tanga;;Tonde CHPS;;;;;
Bawku West;Tilli Widnaba;;Tarikom CHPS;;;;;
Bawku West;Tilli Widnaba;;Tilli Clinic;;;;;
Bawku West;Tilli Widnaba;;Widnaba Clinic;;;;;
Bawku West;Zebilla North;;Kansoongu CHPS;;;;;
Bawku West;Zebilla North;;Soogo CHPS;;;;;
Bawku West;Zebilla North;;Teshie CHPS;;;;;
Bawku West;Zebilla South;;Faith (bawku West) Clinic;;;;;
Bawku West;Zebilla South;;Gossips Clinic;;;;;
Bawku West;Zebilla South;;Kobore CHPS;;;;;
Bawku West;Zebilla South;;Naaba Akparibilla Medical Centre;;;;;
Bawku West;Zebilla South;;Yarigu CHPS;;;;;
Bawku West;Zebilla South;;Zebilla Hospital;;;;;
Bawku West;Zebilla South;;Zebilla RCH;;;;;
Bawku West;Zebilla South;;Zebilla SHS Clinic;;;;;
Bawku West;Zebilla South;;Zebilla Town Clinic;;;;;
Bawku West;Zongoire;;Apodapogo CHPS;;;;;
Bawku West;Zongoire;;Dagunba CHPS;;;;;
Bawku West;Zongoire;;Zongoire CHPS;;;;;
Bawku West;Zongoire;;Zongoire Health Centre;;;;;
Bolgatanga;Bolga Central;;Bolga Health Centre;;;;;
Bolgatanga;Bolga Central;;Kalbeo CHPS;;;;;
Bolgatanga;Bolga Central;;Police Clinic, Bolgatanga;;;;;
Bolgatanga;Bolga Central;;Rhema Maternity;;;;;
Bolgatanga;Bolga Central;;Tindonsobligo CHPS;;;;;
Bolgatanga;Bolga North;;Kunkwa CHPS;;;;;
Bolgatanga;Bolga North;;Madina CHPS;;;;;
Bolgatanga;Bolga North;;Nyariga Clinic;;;;;
Bolgatanga;Bolga North;;Presby Eye Clinic;;;;;
Bolgatanga;Bolga North;;Yorogo CHPS;;;;;
Bolgatanga;Bolga South;;Sokabisi Health Centre;;;;;
Bolgatanga;Bolga South;;Yikene CHPS;;;;;
Bolgatanga;Gambibgo;;Gambibgo Clinic;;;;;
Bolgatanga;Gambibgo;;Yarigabisi CHPS;;;;;
Bolgatanga;Plaza;;Afrikids Medical Centre;;;;;
Bolgatanga;Plaza;;Amiah Clinic;;;;;
Bolgatanga;Plaza;;Asakunde Memorial Clinic;;;;;
Bolgatanga;Plaza;;Coronation Health Centre;;;;;
Bolgatanga;Plaza;;Presby Clinic;;;;;
Bolgatanga;Plaza;;Regional Hospital, Bolgatanga;;;;;
Bolgatanga;Plaza;;Yipala (Bolga) CHPS;;;;;
Bolgatanga;Sumbrungu;;Dorongo CHPS;;;;;
Bolgatanga;Sumbrungu;;Nyokorko CHPS;;;;;
Bolgatanga;Sumbrungu;;Pumpongo CHPS;;;;;
Bolgatanga;Sumbrungu;;Sherigu Health Centre;;;;;
Bolgatanga;Sumbrungu;;Aguusi CHPS;;;;;
Bolgatanga;Sumbrungu;;Anateem CHPS;;;;;
Bolgatanga;Sumbrungu;;Azorebisi CHPS;;;;;
Bolgatanga;Sumbrungu;;Dazongo CHPS;;;;;
Bolgatanga;Sumbrungu;;Kulbia CHPS;;;;;
Bolgatanga;Sumbrungu;;Sumbrungu Health Centre;;;;;
Bolgatanga;Sumbrungu;;Yelbongo CHPS;;;;;
Bolgatanga;Zuarungu;;Dulugu CHPS;;;;;
Bolgatanga;Zuarungu;;Kumbosco CHPS;;;;;
Bolgatanga;Zuarungu;;Zono CHPS;;;;;
Bolgatanga;Zuarungu;;Zuarungu Health Centre;;;;;
Bolgatanga;Zuarungu-Moshie;;Dachio CHPS;;;;;
Bolgatanga;Zuarungu-Moshie;;Katanga CHPS;;;;;
Bolgatanga;Zuarungu-Moshie;;Zuarungu-moshie Clinic;;;;;
Bongo;Bongo Beo;;Adaboya CHPS;;;;;
Bongo;Bongo Beo;;Akanaba CHPS;;;;;
Bongo;Bongo Beo;;Apatanga CHPS;;;;;
Bongo;Bongo Beo;;Apuwongo CHPS;;;;;
Bongo;Bongo Beo;;Beo Tanko CHPS;;;;;
Bongo;Bongo Beo;;Dua Health Centre;;;;;
Bongo;Bongo Beo;;Wagliga CHPS;;;;;
Bongo;Bongo Central;;Anafobisi CHPS;;;;;
Bongo;Bongo Central;;Anafobisi Clinic;;;;;
Bongo;Bongo Central;;Atampintin CHPS;;;;;
Bongo;Bongo Central;;Atampisi CHPS;;;;;
Bongo;Bongo Central;;Balungu CHPS;;;;;
Bongo;Bongo Central;;Bongo Hospital;;;;;
Bongo;Bongo Central;;Borigo CHPS;;;;;
Bongo;Bongo Central;;Kuyelgo CHPS;;;;;
Bongo;Bongo Central;;Lungu CHPS;;;;;
Bongo;Bongo Soe;;Akolposiga CHPS;;;;;
Bongo;Namoo;;Asologo CHPS;;;;;
Bongo;Namoo;;Awisi CHPS;;;;;
Bongo;Namoo;;Ayelbia CHPS;;;;;
Bongo;Namoo;;Ayopia CHPS;;;;;
Bongo;Namoo;;Bongo Soe Health Centre;;;;;
Bongo;Namoo;;Feo CHPS;;;;;
Bongo;Namoo;;Kabre CHPS;;;;;
Bongo;Namoo;;Abokobisi CHPS;;;;;
Bongo;Namoo;;Amanga CHPS;;;;;
Bongo;Namoo;;Boko CHPS;;;;;
Bongo;Namoo;;Namoo Health Centre;;;;;
Bongo;Namoo;;Nayorigo CHPS;;;;;
Bongo;Namoo;;Sambolgo-moo CHPS;;;;;
Bongo;Namoo;;Sikabisi CHPS;;;;;
Bongo;Valley Zone;;Gowrie CHPS;;;;;
Bongo;Valley Zone;;Kulpelliga CHPS;;;;;
Bongo;Valley Zone;;Kunkua CHPS;;;;;
Bongo;Valley Zone;;Nyariga CHPS;;;;;
Bongo;Valley Zone;;Tangapore CHPS;;;;;
Bongo;Valley Zone;;Vea Health Centre;;;;;
Bongo;Zorko;;AtansekaCHPS;;;;;
Bongo;Zorko;;Gamborogo CHPS;;;;;
Bongo;Zorko;;Goo Awaa CHPS;;;;;
Bongo;Zorko;;Kadare CHPS;;;;;
Bongo;Zorko;;Kodorogo CHPS;;;;;
Bongo;Zorko;;TarongoCHPS;;;;;
Bongo;Zorko;;Zorko Health Centre;;;;;
Builsa North;Chuchuliga;;Chuchuliga Yipaala CHPS;;;;;
Builsa North;Chuchuliga;;Achanyeri-Goayie CHPS;;;;;
Builsa North;Chuchuliga;;Chuchuliga Health Centre;;;;;
Builsa North;Chuchuliga;;Namonsa CHPS;;;;;
Builsa North;Chuchuliga;;Nanjupiung CHPS;;;;;
Builsa North;Kadema;;Kadema CHPS;;;;;
Builsa North;Kadema;;Mutiensa CHPS;;;;;
Builsa North;Sandema East;;Kalijiisa CHPS;;;;;
Builsa North;Sandema East;;Kori CHPS;;;;;
Builsa North;Sandema West;;Kandema CHPS;;;;;
Builsa North;Sandema West;;Sandema Hospital;;;;;
Builsa North;Sandema West;;Sanwaasa CHPS;;;;;
Builsa North;Siniensi;;Siniensi Community Clinic;;;;;
Builsa North;Siniensi;;Yikpieng/Jansa CHPS;;;;;
Builsa North;Siniensi;;Zundema CHPS;;;;;
Builsa North;Wiaga;;Chiok CHPS;;;;;
Builsa North;Wiaga;;Farinsa CHPS;;;;;
Builsa North;Wiaga;;Kom CHPS;;;;;
Builsa North;Wiaga;;St. Lucas Health Centre;;;;;
Builsa South;Doninga;;Bachongsa CHPS;;;;;
Builsa South;Doninga;;Doninga Health Centre;;;;;
Builsa South;Doninga;;Wupiensa CHPS;;;;;
Builsa South;Fumbisi;;Fumbisi Health Centre;;;;;
Builsa South;Fumbisi;;Kasiesa CHPS;;;;;
Builsa South;Fumbisi;;Opus Dei Medical Center;;;;;
Builsa South;Gbedema;;Gbedema CHPS;;;;;
Builsa South;Gbedema;;Jagsa CHPS;;;;;
Builsa South;Gbedema;;Kunkwak CHPS;;;;;
Builsa South;Kanjarga;;Jiningsa CHPS;;;;;
Builsa South;Kanjarga;;Kanjarga Health Centre;;;;;
Builsa South;Kanjarga;;Luisa CHPS;;;;;
Builsa South;Kanjarga;;Musidema CHPS;;;;;
Builsa South;Uwasi;;Chansa CHPS;;;;;
Builsa South;Uwasi;;Uwasi CHPS;;;;;
Builsa South;Uwasi;;Zamsa CHPS;;;;;
Builsa South;Wiesi;;Gbedemblisi CHPS;;;;;
Builsa South;Wiesi;;Wiesi CHPS;;;;;
Garu-Tempane;Basyonde;;Akara CHPS;;;;;
Garu-Tempane;Basyonde;;Basyonde Health Centre;;;;;
Garu-Tempane;Basyonde;;Kongo CHPS;;;;;
Garu-Tempane;Basyonde;;Kongo Clinic;;;;;
Garu-Tempane;Basyonde;;Kpalsako CHPS;;;;;
Garu-Tempane;Basyonde;;Nagani CHPS;;;;;
Garu-Tempane;Basyonde;;Tarivago CHPS;;;;;
Garu-Tempane;Basyonde;;Yeogo CHPS;;;;;
Garu-Tempane;Bugri;;Abaripusiga CHPS;;;;;
Garu-Tempane;Bugri;;Bugpiegu CHPS;;;;;
Garu-Tempane;Bugri;;Bugri Health Centre;;;;;
Garu-Tempane;Bugri;;Bulpielsi CHPS;;;;;
Garu-Tempane;Bugri;;Gagbiri CHPS;;;;;
Garu-Tempane;Bugri;;Kugasheigu CHPS;;;;;
Garu-Tempane;Bugri;;Tariganga CHPS;;;;;
Garu-Tempane;Denugu;;Bimpella CHPS (Delete from dhims));;;;;
Garu-Tempane;Denugu;;Dabilla CHPS;;;;;
Garu-Tempane;Denugu;;Denugu CHPS;;;;;
Garu-Tempane;Denugu;;Denugu Clinic;;;;;
Garu-Tempane;Denugu;;Dusbuliga CHPS;;;;;
Garu-Tempane;Denugu;;Duuri CHPS;;;;;
Garu-Tempane;Denugu;;SIISI CHPS;;;;;
Garu-Tempane;Denugu;;Wakuan CHPS;;;;;
Garu-Tempane;Garu;;Garu Health Centre;;;;;
Garu-Tempane;Garu;;Greater Light Clinic;;;;;
Garu-Tempane;Garu;;Kpatia (garu Tampane) CHPS;;;;;
Garu-Tempane;Garu;;Kpatua CHPS;;;;;
Garu-Tempane;Garu;;Quality Medical Centre;;;;;
Garu-Tempane;Garu;;Werichengo CHPS;;;;;
Garu-Tempane;Kpikpira;;Konkomadan CHPS;;;;;
Garu-Tempane;Kpikpira;;Kpenkpanyoung CHPS;;;;;
Garu-Tempane;Kpikpira;;Kpikpira CHPS;;;;;
Garu-Tempane;Kpikpira;;Ninsum CHPS;;;;;
Garu-Tempane;Kpikpira;;Sumaduri Clinic;;;;;
Garu-Tempane;Kpikpira;;Sumaduri-Tubong CHPS;;;;;
Garu-Tempane;Songo;;Aloko CHPS;;;;;
Garu-Tempane;Songo;;Kugri CHPS;;;;;
Garu-Tempane;Songo;;Pialugu CHPS;;;;;
Garu-Tempane;Songo;;Senebaga CHPS;;;;;
Garu-Tempane;Songo;;Songo Health Centre;;;;;
Garu-Tempane;Songo;;Wadugu CHPS;;;;;
Garu-Tempane;Tempane;;Fame Clinic;;;;;
Garu-Tempane;Tempane;;Kugzua CHPS;;;;;
Garu-Tempane;Tempane;;Lord Clinic;;;;;
Garu-Tempane;Tempane;;Meliga CHPS;;;;;
Garu-Tempane;Tempane;;Rabito (garu) Clinic;;;;;
Garu-Tempane;Tempane;;Tempane CHPS;;;;;
Garu-Tempane;Tempane;;Yabrago CHPS;;;;;
Garu-Tempane;Worikambo;;Farfar CHPS;;;;;
Garu-Tempane;Worikambo;;Kolmasug CHPS;;;;;
Garu-Tempane;Worikambo;;Suamvus CHPS;;;;;
Garu-Tempane;Worikambo;;Worikambo Health Centre;;;;;
Garu-Tempane;Worikambo;;Yizidug CHPS;;;;;
Garu-Tempane;Woriyanga;;Bimpella CHPS;;;;;
Garu-Tempane;Woriyanga;;Duadenyidiga CHPS;;;;;
Garu-Tempane;Woriyanga;;Goum CHPS;;;;;
Garu-Tempane;Woriyanga;;Nadigri CHPS;;;;;
Garu-Tempane;Woriyanga;;Woriyanga Health Centre;;;;;
Kassena-Nankana;Kologo;;Biu CHPS;;;;;
Kassena-Nankana;Kologo;;Biu St. Martins Clinic;;;;;
Kassena-Nankana;Kologo;;Kologo Health Centre;;;;;
Kassena-Nankana;Kologo;;Naaga CHPS;;;;;
Kassena-Nankana;Kologo;;Zoongo CHPS;;;;;
Kassena-Nankana;Kologo;;Zuo CHPS;;;;;
Kassena-Nankana;Manyoro;;Gumongo CHPS;;;;;
Kassena-Nankana;Manyoro;;Manyoro CHPS;;;;;
Kassena-Nankana;Manyoro;;Natugnia CHPS;;;;;
Kassena-Nankana;Manyoro;;Yua CHPS;;;;;
Kassena-Nankana;Navrongo Central;;A.F.A. Memorial Clinic;;;;;
Kassena-Nankana;Navrongo Central;;Gongnia CHPS;;;;;
Kassena-Nankana;Navrongo Central;;Navrongo Health Centre;;;;;
Kassena-Nankana;Navrongo Central;;NHRC;;;;;
Kassena-Nankana;Navrongo Central;;St. Jude Clinic;;;;;
Kassena-Nankana;Navrongo Central;;War Memorial Hospital;;;;;
Kassena-Nankana;Navrongo East;;Doba CHPS;;;;;
Kassena-Nankana;Navrongo East;;Kassena Nankana CHPS;;;;;
Kassena-Nankana;Navrongo East;;Nayagnia CHPS;;;;;
Kassena-Nankana;Pungu;;Nyangua CHPS;;;;;
Kassena-Nankana;Pungu;;Pungu North CHPS;;;;;
Kassena-Nankana;Pungu;;Pungu South CHPS;;;;;
Kassena-Nankana;Vunania/Kapania;;Kapania CHPS;;;;;
Kassena-Nankana;Vunania/Kapania;;Vunania CHPS;;;;;
Kassena-Nankana;Wuru;;Gia CHPS;;;;;
Kassena-Nankana;Wuru;;Korania CHPS;;;;;
Kassena-Nankana;Wuru;;Pindaa CHPS;;;;;
Kassena-Nankana;Wuru;;Wuru CHPS;;;;;
Kassena-Nankana West;Chiana;;Chiana Health Centre;;;;;
Kassena-Nankana West;Chiana;;Gwenia Vornia CHPS;;;;;
Kassena-Nankana West;Chiana;;Kalvio CHPS;;;;;
Kassena-Nankana West;Chiana;;Kalvio-Gugoro CHPS;;;;;
Kassena-Nankana West;Chiana;;Kanania CHPS;;;;;
Kassena-Nankana West;Chiana;;Nyangania CHPS;;;;;
Kassena-Nankana West;Kandiga;;Ateyorum CHPS;;;;;
Kassena-Nankana West;Kandiga;;Kaasi CHPS;;;;;
Kassena-Nankana West;Kandiga;;Kandiga Health Centre;;;;;
Kassena-Nankana West;Kandiga;;Kurugu CHPS;;;;;
Kassena-Nankana West;Kandiga;;Longo CHPS;;;;;
Kassena-Nankana West;Katiu Nankong;;Katiu CHPS;;;;;
Kassena-Nankana West;Katiu Nankong;;Nakong CHPS;;;;;
Kassena-Nankana West;Katiu Nankong;;Saa CHPS;;;;;
Kassena-Nankana West;Kayoro;;Kayoro Health Centre;;;;;
Kassena-Nankana West;Kayoro;;Wuru CHPS;;;;;
Kassena-Nankana West;Mirigu Nabango;;Apiagumongo CHPS;;;;;
Kassena-Nankana West;Mirigu Nabango;;Azinzoka CHPS;;;;;
Kassena-Nankana West;Mirigu Nabango;;Gonum CHPS;;;;;
Kassena-Nankana West;Mirigu Nabango;;Mirigu CHPS;;;;;
Kassena-Nankana West;Mirigu Nabango;;Nabango CHPS;;;;;
Kassena-Nankana West;Nakolo;;Kuliya CHPS;;;;;
Kassena-Nankana West;Nakolo;;Nakolo Health Centre;;;;;
Kassena-Nankana West;Navio;;Badunu CHPS;;;;;
Kassena-Nankana West;Navio;;Navio CHPS;;;;;
Kassena-Nankana West;Navio;;Sakaa CHPS;;;;;
Kassena-Nankana West;Paga Central;;Babile-Nyania CHPS;;;;;
Kassena-Nankana West;Paga Central;;Channia CHPS;;;;;
Kassena-Nankana West;Paga Central;;Kajelo CHPS;;;;;
Kassena-Nankana West;Paga Central;;Nania CHPS;;;;;
Kassena-Nankana West;Paga Central;;Paga Health Centre;;;;;
Kassena-Nankana West;Paga Central;;Wedam Medical Centre;;;;;
Kassena-Nankana West;Paga Central;;Wisdom (kassena Nankana West) Clinic;;;;;
Kassena-Nankana West;Paga Central;;Zenga CHPS;;;;;
Kassena-Nankana West;Sirigu Busongo;;Amuntanga CHPS;;;;;
Kassena-Nankana West;Sirigu Busongo;;Busungu CHPS;;;;;
Kassena-Nankana West;Sirigu Busongo;;Sirigu Health Centre;;;;;
Nabdam;Nangodi;;Nangodi Health Centre;;;;;
Nabdam;Nangodi;;Nyorboko CHPS;;;;;
Nabdam;Nangodi;;Yakote CHPS;;;;;
Nabdam;Pelungu;;Pelungu Clinic;;;;;
Nabdam;Pelungu;;Tindongo CHPS;;;;;
Nabdam;Pelungu;;Zeimboug CHPS;;;;;
Nabdam;Pelungu;;Zogabre CHPS;;;;;
Nabdam;Pitanga/Kongo;;AMC Nangodi;;;;;
Nabdam;Pitanga/Kongo;;Dasobligo CHPS;;;;;
Nabdam;Pitanga/Kongo;;Kongo Logre Clinic;;;;;
Nabdam;Pitanga/Kongo;;Pitanga CHPS;;;;;
Nabdam;Pitanga/Kongo;;Zua CHPS;;;;;
Nabdam;Sakote;;Kotintabig CHPS;;;;;
Nabdam;Sakote;;Nyogbare Ndanboug CHPS;;;;;
Nabdam;Sakote;;Sakote CHPS;;;;;
Nabdam;Zanlerigu;;Miboug CHPS;;;;;
Nabdam;Zanlerigu;;Zanlerigu CHPS;;;;;
Pusiga;Kulungugu/Kultamsi;;Bulugu CHPS;;;;;
Pusiga;Kulungugu/Kultamsi;;Kuitamsi CHPS;;;;;
Pusiga;Kulungugu/Kultamsi;;Kuitamsi Clinic;;;;;
Pusiga;Kulungugu/Kultamsi;;KuLungungu Health center;;;;;
Pusiga;Kulungugu/Kultamsi;;Salifu Memorial Clinic;;;;;
Pusiga;Nakom Zuabuliga;;Nakom CHPS;;;;;
Pusiga;Nakom Zuabuliga;;Zuabuliga CHPS;;;;;
Pusiga;Pusiga;;Akunye Clinic;;;;;
Pusiga;Pusiga;;Bengular CHPS;;;;;
Pusiga;Pusiga;;Dan New Life Clinic;;;;;
Pusiga;Pusiga;;Pusiga Health Centre;;;;;
Pusiga;Sarabogo;;Sarabogo CHPS;;;;;
Pusiga;Widana;;Tindanatinga CHPS;;;;;
Pusiga;Widana;;Widana Health Centre;;;;;
Talensi;Datoku;;Datoku Health Centre;;;;;
Talensi;Datoku;;Kulpeliga CHPS;;;;;
Talensi;Duusi/Gbani;;Duusi Health Centre;;;;;
Talensi;Duusi/Gbani;;Gaare CHPS;;;;;
Talensi;Duusi/Gbani;;Gbani CHPS;;;;;
Talensi;Gorogo;;Gorogo Health Centre;;;;;
Talensi;Gorogo;;TENZUUG CHPS;;;;;
Talensi;Namolgo/Kpatia;;Kpatia (talensi Nabdam) CHPS;;;;;
Talensi;Namolgo/Kpatia;;Namolgo Clinic;;;;;
Talensi;Namolgo/Kpatia;;Sheaga CHPS;;;;;
Talensi;Namolgo/Kpatia;;Yagzore CHPS;;;;;
Talensi;Pwalugu;;Balungu chps;;;;;
Talensi;Pwalugu;;Pwalugu Health Center;;;;;
Talensi;Pwalugu;;Yinduri CHPS;;;;;
Talensi;Tolla/Nungu;;Accra site CHPS;;;;;
Talensi;Tolla/Nungu;;Nungu CHPS;;;;;
Talensi;Tolla/Nungu;;Tolla CHPS;;;;;
Talensi;Tongo;;Baare CHPS;;;;;
Talensi;Tongo;;Sakpare/Tengre CHPS;;;;;
Talensi;Tongo;;Talensi District Hospital;;;;;
Talensi;Tongo;;Tongo Beo CHPS;;;;;
Talensi;Tongo;;Yameriga CHPS;;;;;
Talensi;Winkongo;;Awaredone CHPS;;;;;
Talensi;Winkongo;;Big Boss Clinic;;;;;
Talensi;Winkongo;;Shia Health Centre;;;;;
Talensi;Winkongo;;Winkongo Health Centre;;;;;
