LGA;Ward;Settlement;Facility;Type;Ownership;Address;Longitude;Latitude
Adaklu-Anyigbe;Ahunda;;Ahunda CHPS zone;;;;;
Adaklu-Anyigbe;Ahunda;;Ahunda Health Center;;;;;
Adaklu-Anyigbe;Ahunda;;Hlihave CHPS;;;;;
Adaklu-Anyigbe;Ahunda;;Kpetsu CHPS compound;;;;;
Adaklu-Anyigbe;Helekpe;;Abuadi CHPS zone;;;;;
Adaklu-Anyigbe;Helekpe;;Adaklu Kordiabe CHPS;;;;;
Adaklu-Anyigbe;Helekpe;;Have CHPS;;;;;
Adaklu-Anyigbe;Helekpe;;Helekpe CHPS zone;;;;;
Adaklu-Anyigbe;Helekpe;;Helekpe Health Centre;;;;;
Adaklu-Anyigbe;Helekpe;;Kodzobi CHPS;;;;;
Adaklu-Anyigbe;Helekpe;;Nutifafa Health Centre;;;;;
Adaklu-Anyigbe;Helekpe;;Tsrefe CHPS compound;;;;;
Adaklu-Anyigbe;Sopa-Torda;;Ablornu CHPS;;;;;
Adaklu-Anyigbe;Sopa-Torda;;Sofa CHPS;;;;;
Adaklu-Anyigbe;Sopa-Torda;;Sofa Health Center(Salvation Army);;;;;
Adaklu-Anyigbe;Sopa-Torda;;Torda CHPS;;;;;
Adaklu-Anyigbe;Waya;;Amuzudeve CHPS;;;;;
Adaklu-Anyigbe;Waya;;Waya CHPS Zone;;;;;
Adaklu-Anyigbe;Waya;;Waya Health Centre;;;;;
Adaklu-Anyigbe;Waya;;Wumenu Clinic;;;;;
Afadjato;Have;;Emli Bazeh CHPS;;;;;
Afadjato;Have;;Have Health Center;;;;;
Afadjato;Have;;Nyagbo Gagbefe Health Centre;;;;;
Afadjato;Have;;Nyagbo Sroe CHPS;;;;;
Afadjato;Leklebi;;Leklebi Duga Health Center;;;;;
Afadjato;Leklebi;;Leklebi Kame Health Center;;;;;
Afadjato;Leklebi;;Leklebi Worbe CHPS;;;;;
Afadjato;Liati;;Liati Soba Health Center;;;;;
Afadjato;Liati;;Liati St. George Mission Clinic;;;;;
Afadjato;Liati;;Liati Wote CHPS;;;;;
Afadjato;Logba Tafi;;Faith of Fire Clinic;;;;;
Afadjato;Logba Tafi;;Logba Alakpeti CHPS;;;;;
Afadjato;Logba Tafi;;Logba Tota Health Center;;;;;
Afadjato;Logba Tafi;;Logba Vuinta Health Center;;;;;
Afadjato;Logba Tafi;;Tafi Agome CHPS;;;;;
Afadjato;Logba Tafi;;Tafi Atome CHPS;;;;;
Afadjato;Ve;;Specialist Clinic( Rose Mompi Eye Clinic);;;;;
Afadjato;Ve;;Ve Golokwati Health Center;;;;;
Afadjato;Ve;;Ve- Koloenu Revival Maternity Home;;;;;
Afadjato;Ve;;Ve-Hoeme Health Center (Ve-GHAD);;;;;
Afadjato;Ve;;Ve-koloenu CHPS;;;;;
Afadjato;Weto;;Goviefe Agodome Health Center;;;;;
Afadjato;Weto;;Goviefe Todzi CHPS;;;;;
Afadjato;Weto;;Kpeve Health Centre;;;;;
Agotime-Ziope;Afegame;;Afegame CHPS;;;;;
Agotime-Ziope;Afegame;;Agbesia CHPS Zone;;;;;
Agotime-Ziope;Afegame;;Akwettey CHPS Zone;;;;;
Agotime-Ziope;Afegame;;Menji Maternity Home;;;;;
Agotime-Ziope;Keyime;;Keyime CHPS Zone;;;;;
Agotime-Ziope;Keyime;;Keyime Health Centre;;;;;
Agotime-Ziope;Keyime;;Kortrala CHPS Zone;;;;;
Agotime-Ziope;Keyime;;Wudzedeke CHPS;;;;;
Agotime-Ziope;Kpetoe;;Kpetoe CHPS Zones;;;;;
Agotime-Ziope;Kpetoe;;Kpetoe Health Center;;;;;
Agotime-Ziope;Kpetoe;;Obemla CHPS Zone;;;;;
Agotime-Ziope;Sarakope;;Akpokope CHPS;;;;;
Agotime-Ziope;Sarakope;;Sarakope CHPS;;;;;
Agotime-Ziope;Ziope;;Dramave CHPS Zone;;;;;
Agotime-Ziope;Ziope;;Silandre CHPS Zone;;;;;
Agotime-Ziope;Ziope;;Yevi CHPS Zone;;;;;
Agotime-Ziope;Ziope;;Ziope CHPS Zone;;;;;
Agotime-Ziope;Ziope;;Ziope Health Centre;;;;;
Akatsi North;Agormor;;Agormor CHPS;;;;;
Akatsi North;Agormor;;Zemu CHPS;;;;;
Akatsi North;Ave - Dakpa;;Ave-dakpa Health Centre;;;;;
Akatsi North;Ave - Dakpa;;Kpeduhoe CHPS;;;;;
Akatsi North;Ave Afiadenyigbe;;Ashiagborvi CHPS;;;;;
Akatsi North;Ave Afiadenyigbe;;Ave-afiadenyigba Health Centre;;;;;
Akatsi North;Ave Afiadenyigbe;;Ave-xevi CHPS;;;;;
Akatsi North;Ave Afiadenyigbe;;Ettekorpe CHPS;;;;;
Akatsi North;Ave Dzalele;;Ave-dzalele CHPS;;;;;
Akatsi North;Ave Dzalele;;Avoryikorpe CHPS;;;;;
Akatsi North;Avenu;;Avega Gornu CHPS;;;;;
Akatsi North;Avenu;;Avevi CHPS;;;;;
Akatsi South;Akatsi;;Akatsi District Hospital;;;;;
Akatsi South;Akatsi;;Anyidzime-Zuta CHPS;;;;;
Akatsi South;Akatsi;;Anyiheme CHPS;;;;;
Akatsi South;Akatsi;;Atsekpui CHPS;;;;;
Akatsi South;Akatsi;;Hoggar Clinic;;;;;
Akatsi South;Akatsi;;Live CHPS;;;;;
Akatsi South;Akatsi;;Livega CHPS;;;;;
Akatsi South;Akatsi;;Nissi Maternity Home;;;;;
Akatsi South;Akatsi;;Sepe Clinic;;;;;
Akatsi South;Akatsi;;St Paul (akatsi) Hospital;;;;;
Akatsi South;Akatsi;;Tatorme CHPS;;;;;
Akatsi South;Akatsi;;Tobacco -Shell CHPS;;;;;
Akatsi South;Akatsi;;Torve CHPS;;;;;
Akatsi South;Avenorpedo;;Akuave CHPS;;;;;
Akatsi South;Avenorpedo;;Atidzive CHPS;;;;;
Akatsi South;Avenorpedo;;Avenorpedo Health Centre;;;;;
Akatsi South;Avenorpedo;;Dagbamate CHPS;;;;;
Akatsi South;Avenorpedo;;Dzogadze CHPS;;;;;
Akatsi South;Avenorpedo;;Monome-Drakate CHPS;;;;;
Akatsi South;Avenorpedo;;Agbedrafor CHPS;;;;;
Akatsi South;Avenorpedo;;Apeyime CHPS;;;;;
Akatsi South;Avenorpedo;;Avenorpeme Health Centre;;;;;
Akatsi South;Avenorpedo;;Dzigbene-Lofotsume CHPS;;;;;
Akatsi South;Avenorpedo;;Gui CHPS;;;;;
Akatsi South;Avenorpedo;;Xavi CHPS;;;;;
Akatsi South;Gefia;;Ahlepedo CHPS;;;;;
Akatsi South;Gefia;;Asafotsi CHPS;;;;;
Akatsi South;Gefia;;Bata CHPS;;;;;
Akatsi South;Gefia;;CUNIBERTO CLINIC;;;;;
Akatsi South;Gefia;;Gefia Health Centre;;;;;
Akatsi South;Gefia;;Lume Hugakope CHPS;;;;;
Akatsi South;Gefia;;Xetorlogo CHPS;;;;;
Akatsi South;Wute;;Adaheta CHPS;;;;;
Akatsi South;Wute;;Avadre CHPS;;;;;
Akatsi South;Wute;;Gornikorpe CHPS;;;;;
Akatsi South;Wute;;Kpodzivi CHPS;;;;;
Akatsi South;Wute;;Sremanu CHPS;;;;;
Akatsi South;Wute;;Wute Health Centre;;;;;
Akatsi South;Wute;;Wuxor CHPS;;;;;
Biakoye;Bowiri;;Abohiri-Aboabo CHPS;;;;;
Biakoye;Bowiri;;Bowiri Amanfrom CHPS;;;;;
Biakoye;Bowiri;;Bowiri Kyiriahi CHPS;;;;;
Biakoye;Bowiri;;Takrabe CHPS;;;;;
Biakoye;Kwamikrom Abotoase;;Abonorkorpe CHPS;;;;;
Biakoye;Kwamikrom Abotoase;;Abotoase Health Centre;;;;;
Biakoye;Kwamikrom Abotoase;;Bowiri Odumase CHPS;;;;;
Biakoye;Kwamikrom Abotoase;;Bowirikordzi CHPS;;;;;
Biakoye;Kwamikrom Abotoase;;Bumbula CHPS;;;;;
Biakoye;Kwamikrom Abotoase;;Grumakoraa CHPS;;;;;
Biakoye;Kwamikrom Abotoase;;Island Communities( Tepa Alavanyo);;;;;
Biakoye;Kwamikrom Abotoase;;Klagbokorpe CHPS;;;;;
Biakoye;Kwamikrom Abotoase;;Kwamekrom New Town CHPS;;;;;
Biakoye;Kwamikrom Abotoase;;Kwamikrom Health Centre;;;;;
Biakoye;Kwamikrom Abotoase;;Odomitor CHPS;;;;;
Biakoye;Kwamikrom Abotoase;;Tapa Amanfrom CHPS;;;;;
Biakoye;Nkonya;;Abloga-Akatsi CHPS;;;;;
Biakoye;Nkonya;;Adzamansu CHPS;;;;;
Biakoye;Nkonya;;Ahundzo CHPS;;;;;
Biakoye;Nkonya;;Asakyiri CHPS;;;;;
Biakoye;Nkonya;;Nkonya Ahenkro CHPS;;;;;
Biakoye;Nkonya;;Nkonya Wurupong Health Centre;;;;;
Biakoye;Nkonya;;Tayi CHPS;;;;;
Biakoye;Worawora Apesokubi;;Amanya CHPS;;;;;
Biakoye;Worawora Apesokubi;;Apesokubi CHPS;;;;;
Biakoye;Worawora Apesokubi;;Apesorkabo CHPS;;;;;
Biakoye;Worawora Apesokubi;;Kotomoase CHPS;;;;;
Biakoye;Worawora Apesokubi;;Worawora Hospital;;;;;
Central Tongu;Adidome;;Adidome District Hospital;;;;;
Central Tongu;Adidome;;Adidome Zongo CHPS;;;;;
Central Tongu;Adidome;;Adisec CHPS;;;;;
Central Tongu;Adidome;;Anfoe CHPS;;;;;
Central Tongu;Adidome;;Biodum Maternity Clinic;;;;;
Central Tongu;Adidome;;New Bakpa;;;;;
Central Tongu;Kpogadzi;;Kpogadzi CHPS;;;;;
Central Tongu;Kpoviadzi Avedo;;Avedo CHPS;;;;;
Central Tongu;Kpoviadzi Avedo;;Kpoviadzi Health Centre;;;;;
Central Tongu;Kpoviadzi Avedo;;Mafi-Tove CHPS;;;;;
Central Tongu;Mafi Sesekpe;;Mafi Gidikpoe;;;;;
Central Tongu;Mafi Sesekpe;;Mafi-Sasekpe Health Centre;;;;;
Central Tongu;Mafi-Kumase;;Adalekpe CHPS;;;;;
Central Tongu;Mafi-Kumase;;Mafi Zongo;;;;;
Central Tongu;Mafi-Kumase;;Mafi-agoe CHPS;;;;;
Central Tongu;Mafi-Kumase;;Mafi-Kumase Health Centre;;;;;
Central Tongu;Mafi-Kumase;;Mawoekpor CHPS;;;;;
Central Tongu;Mafi-Kumase;;Seva Clinic;;;;;
Hohoe;Agumatsa;;Fodome Ahor Health Center;;;;;
Hohoe;Agumatsa;;Fodome Amele CHPS;;;;;
Hohoe;Agumatsa;;Fodome Helu Health Center;;;;;
Hohoe;Agumatsa;;Fodome Hlorma CHPS;;;;;
Hohoe;Agumatsa;;Fodome Torgbadza CHPS;;;;;
Hohoe;Agumatsa;;Fodome Woe CHPS;;;;;
Hohoe;Agumatsa;;Gbledi Gbogame Health Center;;;;;
Hohoe;Agumatsa;;Wli Agorviefe CHPS;;;;;
Hohoe;Agumatsa;;Wli Central Health Center;;;;;
Hohoe;Agumatsa;;Wli Dzobgega CHPS;;;;;
Hohoe;Agumatsa;;Wli Todzi Health Center;;;;;
Hohoe;Akpafu;;Akpafu Adorkor Health Center;;;;;
Hohoe;Akpafu;;Akpafu Mempeasem Health Center;;;;;
Hohoe;Akpafu;;Akpafu Odomi CHPS;;;;;
Hohoe;Akpafu;;Akpafu Todzi CHPS;;;;;
Hohoe;Akpafu;;Santrokofi Benua Health Centre;;;;;
Hohoe;Akpafu;;Santrokofi Bume Health Center;;;;;
Hohoe;Alavanyo;;Alavanyo Abehenease CHPS;;;;;
Hohoe;Alavanyo;;Alavanyo Dzogbedze CHPS;;;;;
Hohoe;Alavanyo;;Alavanyo Wudidi Health Center;;;;;
Hohoe;Gbi Rural;;Gbi Kledzo CHPS;;;;;
Hohoe;Gbi Rural;;Gbi Kpoeta CHPS;;;;;
Hohoe;Gbi Rural;;Gbi-wegbe Health Center;;;;;
Hohoe;Hohoe;;CEDER Medical Centre;;;;;
Hohoe;Hohoe;;Gbi Abansi CHPS;;;;;
Hohoe;Hohoe;;Gbi Bla CHPS;;;;;
Hohoe;Hohoe;;Gbi Kpeme CHPS;;;;;
Hohoe;Hohoe;;Hohoe Adabraka Health Centre;;;;;
Hohoe;Hohoe;;Hohoe Ahado Central CHPS;;;;;
Hohoe;Hohoe;;Hohoe Blave CHPS;;;;;
Hohoe;Hohoe;;Hohoe Dagbave CHPS;;;;;
Hohoe;Hohoe;;Hohoe Low Cost CHPS;;;;;
Hohoe;Hohoe;;Hohoe Municipal Hospital;;;;;
Hohoe;Hohoe;;Hohoe Nima CHPS;;;;;
Hohoe;Hohoe;;Hohoe Rch;;;;;
Hohoe;Hohoe;;Hohoe Segbedenu CHPS;;;;;
Hohoe;Hohoe;;Hohoe SK Park CHPS;;;;;
Hohoe;Likpe;;Likpe Abrani Health Centre;;;;;
Hohoe;Likpe;;Likpe Agbozume CHPS;;;;;
Hohoe;Likpe;;Likpe Bakua Polyclinic;;;;;
Hohoe;Likpe;;Likpe Bala Health Center;;;;;
Hohoe;Likpe;;Likpe Kukurantumi CHPS;;;;;
Hohoe;Likpe;;Likpe Mate CHPS;;;;;
Hohoe;Likpe;;Likpe Nkwanta CHPS;;;;;
Hohoe;Lolobi;;Lolobi Ashiambi CHPS;;;;;
Hohoe;Lolobi;;Lolobi Huyeasen CHPS;;;;;
Hohoe;Lolobi;;Lolobi Kumasi Health Center;;;;;
Ho;Dutasor;;Deme Aviefe CHPS;;;;;
Ho;Dutasor;;Hoviefe CHPS;;;;;
Ho;Dutasor;;Klefe Health Centre;;;;;
Ho;Dutasor;;Lume CHPS;;;;;
Ho;Dutasor;;Matse Health Centre;;;;;
Ho;Dutasor;;Taviefe Health Centre;;;;;
Ho;Dutasor;;Ziavi CHPS;;;;;
Ho;Ho Central;;7 Mrs Military Clinic;;;;;
Ho;Ho Central;;Amevor (Zone 1) CHPS;;;;;
Ho;Ho Central;;Amevor (Zone 2) CHPS;;;;;
Ho;Ho Central;;Bake Gbolefe (Zone 1) CHPS;;;;;
Ho;Ho Central;;Bake Gbolefe (Zone 2) CHPS;;;;;
Ho;Ho Central;;Bake Gbolefe (Zone 3) CHPS;;;;;
Ho;Ho Central;;Bake Gbolefe (Zone 4) CHPS;;;;;
Ho;Ho Central;;Blisam (Zone 1) CHPS;;;;;
Ho;Ho Central;;Blisam (Zone 2) CHPS;;;;;
Ho;Ho Central;;Borsontoe CHPS;;;;;
Ho;Ho Central;;Duga CHPS;;;;;
Ho;Ho Central;;Fiave (zone 1) CHPS;;;;;
Ho;Ho Central;;Fiave (zone 2) CHPS;;;;;
Ho;Ho Central;;Fiave (zone 3) CHPS;;;;;
Ho;Ho Central;;Forsight Medical Centre;;;;;
Ho;Ho Central;;Hliza Zone CHPS( Council Hall);;;;;
Ho;Ho Central;;Ho Central (Zone 1) CHPS;;;;;
Ho;Ho Central;;Ho Central (Zone 2) CHPS;;;;;
Ho;Ho Central;;Ho Central (Zone 3) CHPS;;;;;
Ho;Ho Central;;Ho Evangelical Presbyterian Clinic;;;;;
Ho;Ho Central;;Ho Municipal Hospital;;;;;
Ho;Ho Central;;Ho Polyclinic;;;;;
Ho;Ho Central;;Ho Wusu (zone 2) CHPS;;;;;
Ho;Ho Central;;Ho Wusu (zone1) CHPS;;;;;
Ho;Ho Central;;Hofedo (zone 2) CHPS;;;;;
Ho;Ho Central;;Hofedo CHPS;;;;;
Ho;Ho Central;;Hope (Ho) Clinic;;;;;
Ho;Ho Central;;Miracle Life Clinic;;;;;
Ho;Ho Central;;Royal Hospital;;;;;
Ho;Ho Central;;RTC Alale Family Health Unit;;;;;
Ho;Ho Central;;Torviagi CHPS;;;;;
Ho;Ho Central;;Volta Regional Hospital;;;;;
Ho;Hokpeta;;Akoefe CHPS;;;;;
Ho;Hokpeta;;Hodzo CHPS;;;;;
Ho;Hokpeta;;Kpenoe CHPS;;;;;
Ho;Hokpeta;;Takla CHPS;;;;;
Ho;Norvisi;;Atidze CHPS;;;;;
Ho;Norvisi;;Atikpui CHPS;;;;;
Ho;Norvisi;;Avee CHPS;;;;;
Ho;Norvisi;;Klave / Hoe CHPS;;;;;
Ho;Norvisi;;Nyive Health Centre;;;;;
Ho;Norvisi;;Shia Health Centre;;;;;
Ho;Norvisi;;Tanyigbe Health Centre;;;;;
Ho;Norvisi;;Tokokoe Health Centre;;;;;
Ho;Sokode;;Akrofu Health Centre;;;;;
Ho;Sokode;;Lokoe CHPS;;;;;
Ho;Sokode;;Mater Ecclesiae Clinic;;;;;
Ho;Sokode;;Sokode Bagble / Ando CHPS;;;;;
Ho;Sokode;;Sokode Gborgame/ Etoe CHPS;;;;;
Ho West;Abutia;;Abutia Agorve Health Centre;;;;;
Ho West;Abutia;;Abutia Kloe Health Centre;;;;;
Ho West;Abutia;;Abutia Norvisi CHPS;;;;;
Ho West;Abutia;;Gisela Memorial Clinic;;;;;
Ho West;Abutia;;Kissiflui CHPS;;;;;
Ho West;Avatime;;Ameco clinic;;;;;
Ho West;Avatime;;Amedzofe Health Centre;;;;;
Ho West;Avatime;;Fume Health Centre;;;;;
Ho West;Avatime;;Gbadzeme CHPS;;;;;
Ho West;Avatime;;Vane Health Centre;;;;;
Ho West;Kpedze;;Ashanti Kpoeta CHPS;;;;;
Ho West;Kpedze;; Honuta CHPS;;;;;
Ho West;Kpedze;;Kpedze Polyclinic;;;;;
Ho West;Tsito;;Avenui CHPS;;;;;
Ho West;Tsito;;Dededo CHPS;;;;;
Ho West;Tsito;;Tsibu Health Centre;;;;;
Ho West;Tsito;;Tsito Health Centre;;;;;
Ho West;Weto-Hedzefe;;Anfoeta CHPS;;;;;
Ho West;Weto-Hedzefe;;Hlefi Health Centre;;;;;
Ho West;Yingor;;Akome CHPS;;;;;
Ho West;Yingor;;Dodome Awuiasu Health Centre;;;;;
Ho West;Yingor;;Dodome Teleafenu Health Centre;;;;;
Ho West;Yingor;;Dzologbogame Health Centre;;;;;
Ho West;Yingor;;Dzolokpuita Health Centre;;;;;
Ho West;Yingor;;Saviefe CHPS;;;;;
Ho West;Yingor;;St. Francis Clinic;;;;;
Jasikan;Baika Ayoma;;Baika Health Centre;;;;;
Jasikan;Baika Ayoma;;Lekanti CHPS;;;;;
Jasikan;Baika Ayoma;;New Ayoma Health Centre;;;;;
Jasikan;Baika Ayoma;;Old Ayoma Health Centre;;;;;
Jasikan;Bodada;;Bodada Health Centre;;;;;
Jasikan;Bodada;;Teteman CHPS;;;;;
Jasikan;Jasikan;;Atweneboanda CHPS;;;;;
Jasikan;Jasikan;;BUSEC CHPS;;;;;
Jasikan;Jasikan;;Gabusu CHPS;;;;;
Jasikan;Jasikan;;Greenleaf Clinic;;;;;
Jasikan;Jasikan;;Jasikan District Hospital;;;;;
Jasikan;Jasikan;;Kabisayor CHPS;;;;;
Jasikan;Jasikan;;Okadjakrom CHPS;;;;;
Jasikan;Kute;;Baglo CHPS;;;;;
Jasikan;Kute;;Kute Health Centre;;;;;
Jasikan;Nsuta;;Akaa CHPS;;;;;
Jasikan;Nsuta;;Atonkor CHPS;;;;;
Jasikan;Nsuta;;Attakrom CHPS;;;;;
Jasikan;Nsuta;;Guaman CHPS;;;;;
Jasikan;Nsuta;;Ketsi CHPS;;;;;
Jasikan;Nsuta;;Kudjei CHPS;;;;;
Jasikan;Nsuta;;Nsuta Buem Health Centre;;;;;
Kadjebi;Ahamansu;;Ahamansu Health Centre;;;;;
Kadjebi;Ahamansu;;Ampeyo CHPS;;;;;
Kadjebi;Ahamansu;;Yadzo CHPS;;;;;
Kadjebi;Dodi;;Kponkpa CHPS;;;;;
Kadjebi;Dodi;;Mary Theresa Hospital;;;;;
Kadjebi;Dodi;;Mempeasem CHPS;;;;;
Kadjebi;Dodi;;Poase Cement Health Center;;;;;
Kadjebi;Dodo;;Bethel CHPS;;;;;
Kadjebi;Dodo;;Dodo Amanfrom Health Centre;;;;;
Kadjebi;Dodo;;Pepesu CHPS;;;;;
Kadjebi;Kadjebi-asato;;Asato CHPS;;;;;
Kadjebi;Kadjebi-asato;;Dzamlome CHPS;;;;;
Kadjebi;Kadjebi-asato;;Faith Maternity;;;;;
Kadjebi;Kadjebi-asato;;Kadjebi Health Centre;;;;;
Kadjebi;Kadjebi-asato;;KASEC CHPS;;;;;
Kadjebi;Kadjebi-asato;;Wawasu CHPS;;;;;
Kadjebi;Pampawie;;Dapaa CHPS;;;;;
Kadjebi;Pampawie;;Pampawie Health Centre;;;;;
Ketu North;Afife;;Afife Health Centre;;;;;
Ketu North;Afife;;Emmanuel Clinic;;;;;
Ketu North;Afife;;Kutsinu/Wuti CHPS;;;;;
Ketu North;Afife;;Morning Star Clinic;;;;;
Ketu North;Afife;;Ohawu Health Centre;;;;;
Ketu North;Afife;;Sovie CHPS;;;;;
Ketu North;Afife;;Tadzewu Health Centre;;;;;
Ketu North;Afife;;Tysinu/Agorvega CHPS;;;;;
Ketu North;Dzodze;;Dzodze Ghana Mission Clinic;;;;;
Ketu North;Dzodze;;Kasu CHPS;;;;;
Ketu North;Dzodze;;Kpelikope CHPS;;;;;
Ketu North;Dzodze;;Mass Clinic;;;;;
Ketu North;Dzodze;;St Anthony's (Dzodze) Hospital;;;;;
Ketu North;Dzodze;;Tornu CHPS;;;;;
Ketu North;Penyi;;Akpatoeme/Zukpe CHPS;;;;;
Ketu North;Penyi;;Penyi Health Centre;;;;;
Ketu North;Weta;;Adzoatsi CHPS;;;;;
Ketu North;Weta;;Dekpor CHPS;;;;;
Ketu North;Weta;;Devego Health Centre;;;;;
Ketu North;Weta;;Ehie Health Centre;;;;;
Ketu North;Weta;;Ihdn Mission Hospital;;;;;
Ketu North;Weta;;Klenormadi CHPS;;;;;
Ketu North;Weta;;Weta Health Center;;;;;
Ketu North;Weta;;Xipe/Ative CHPS;;;;;
Ketu South;Aflao East;;ALCO Unit Clinic;;;;;
Ketu South;Aflao East;;Avegato CHPS Compound;;;;;
Ketu South;Aflao East;;Beno Maternity Home;;;;;
Ketu South;Aflao East;;Huime CHPS Compound;;;;;
Ketu South;Aflao West;;Central Aflao Hospital;;;;;
Ketu South;Aflao West;;Ketu South District Hospital;;;;;
Ketu South;Aflao West;;New Hope Hospital;;;;;
Ketu South;Aflao Wego;;Akame CHPS;;;;;
Ketu South;Aflao Wego;;Akporkploe Health Centre;;;;;
Ketu South;Aflao Wego;;Anoenu CHPS Compound;;;;;
Ketu South;Aflao Wego;;Finlandia Clinic;;;;;
Ketu South;Aflao Wego;;Hatsukope CHPS;;;;;
Ketu South;Aflao Wego;;Hatsukope FHU;;;;;
Ketu South;Aflao Wego;;Hornam Medical Centre;;;;;
Ketu South;Aflao Wego;;Wudoaba CHPS;;;;;
Ketu South;Aflao Wego;;Yame-Wute-Lante CHPS;;;;;
Ketu South;Klikor;;Bodzakope CHPS;;;;;
Ketu South;Klikor;;Dodorkope CHPS;;;;;
Ketu South;Klikor;;Dornomadi CHPS;;;;;
Ketu South;Klikor;;Glidzi CHPS Compound;;;;;
Ketu South;Klikor;;Glitame CHPS;;;;;
Ketu South;Klikor;;Klikor Health Centre;;;;;
Ketu South;Klikor;;Kpoglu CHPS Compound;;;;;
Ketu South;Klikor;;Lotakor CHPS;;;;;
Ketu South;Some Fugo;;Adina Health Centre;;;;;
Ketu South;Some Fugo;;Afatome Klinik;;;;;
Ketu South;Some Fugo;;Agavedze Health Centre;;;;;
Ketu South;Some Fugo;;Blekusu Health Centre;;;;;
Ketu South;Some Fugo;;Denu Health Center;;;;;
Ketu South;Some Fugo;;Sape Agbo Memorial Hospital;;;;;
Ketu South;Some Wego;;Agbozume Health Centre;;;;;
Ketu South;Some Wego;;Atoklokope CHPS;;;;;
Ketu South;Some Wego;;DOGBEKOPE CHPS;;;;;
Ketu South;Some Wego;;Nogokpo CHPS Compound;;;;;
Keta;Anloga;;Anloga Health Centre;;;;;
Keta;Anloga;;Crown Maternity Home;;;;;
Keta;Anloga;;Dornorgbor CHPS;;;;;
Keta;Anloga;;St. Francis -Anloga;;;;;
Keta;Anyako;;Abolorve Nolorpi CHPS;;;;;
Keta;Anyako;;Anyako Health Centre;;;;;
Keta;Anyako;;Asadame Health Centre;;;;;
Keta;Anyako;;Atiavi Health Centre;;;;;
Keta;Anyako;;Hatogodo Health Centre;;;;;
Keta;Anyako;;Kafui Maternity Home;;;;;
Keta;Anyako;;Lawoshime CHPS;;;;;
Keta;Anyako;;Lebene Clinic;;;;;
Keta;Anyako;;Sacred Heart (keta) Hospital;;;;;
Keta;Anyako;;Sasieme CHPS;;;;;
Keta;Anyako;;Seva CHPS;;;;;
Keta;Anyako;;Tsiame CHPS;;;;;
Keta;Anyako;;WELSPAN HEALTH LIMITED;;;;;
Keta;Anyanui;;Anyanui Health Centre;;;;;
Keta;Anyanui;;Atorkor CHPS;;;;;
Keta;Anyanui;;Dzita CHPS;;;;;
Keta;Anyanui;;Kodzi Health Centre;;;;;
Keta;Anyanui;;St. Francis - Anyanui;;;;;
Keta;Keta;;Afiadeyingba Health Centre;;;;;
Keta;Keta;;Horvi / Havedzi CHPS;;;;;
Keta;Keta;;Kedzi Health Centre;;;;;
Keta;Keta;;Kedzikope CHPS;;;;;
Keta;Keta;;Keta Municipal Hospital;;;;;
Keta;Keta;;Vodza CHPS;;;;;
Keta;Shime;;Agortoe CHPS;;;;;
Keta;Shime;;Blamezado CHPS;;;;;
Keta;Shime;;Galo-sota Health Centre;;;;;
Keta;Shime;;Tregui Health Centre;;;;;
Keta;Shime;;Trekume CHPS;;;;;
Keta;Tegbi;;Agbedrafor(keta) CHPS;;;;;
Keta;Tegbi;;Dziedzorve CHPS;;;;;
Keta;Tegbi;;Nancy (keta) Maternity Home;;;;;
Keta;Tegbi;;St Raphael Clinic;;;;;
Keta;Tegbi;;Tegbi Health Centre;;;;;
Kpando;Agbenorxoe;;Agbenorxoe Health Centre;;;;;
Kpando;Agbenorxoe;;Dafor CHPS;;;;;
Kpando;Agbenorxoe;;Fesi CHPS;;;;;
Kpando;Gbefi-Gadza;;Gadza Health Centre;;;;;
Kpando;Gbefi-Gadza;;Gbefi CHPS;;;;;
Kpando;Kpando;;BEHECO Clinic;;;;;
Kpando;Kpando;;Kpando Health Centre;;;;;
Kpando;Kpando;;Kpando Market CHPS;;;;;
Kpando;Kpando;;Kpasec Clinic;;;;;
Kpando;Kpando;;Margret Marquart Catholic Hospital;;;;;
Kpando;Kpando;;Matty's (kpando) Maternity;;;;;
Kpando;Kpando;;St Patrick (kpando) Hospital;;;;;
Kpando;Sovie-Kudzra;;Kudzra Health Centre;;;;;
Kpando;Sovie-Kudzra;;Senam Clinic;;;;;
Kpando;Sovie-Kudzra;;Sovie Rch;;;;;
Kpando;Torkor;;Avetikope CHPS;;;;;
Kpando;Torkor;;Torkor Health Centre;;;;;
Kpando;Torkor;;Wisdom (kpando) Maternity;;;;;
Krachi East;Dormabin;;Adumadum CHPS;;;;;
Krachi East;Dormabin;;Bidi CHPS;;;;;
Krachi East;Dormabin;;Dormabin Health Centre;;;;;
Krachi East;Dormabin;;Kpelema CHPS;;;;;
Krachi East;Island (Krachi East);;Ativikope CHPS;;;;;
Krachi East;Island (Krachi East);;Jerusalem CHPS;;;;;
Krachi East;Island (Krachi East);;Kisekope CHPS;;;;;
Krachi East;Island (Krachi East);;Sikakope CHPS;;;;;
Krachi East;Katanga Asukawkaw;;Abrewankor CHPS;;;;;
Krachi East;Katanga Asukawkaw;;Adunkwata CHPS;;;;;
Krachi East;Katanga Asukawkaw;;Asukawkaw CHPS;;;;;
Krachi East;Katanga Asukawkaw;;Dadoto CHPS;;;;;
Krachi East;Katanga Asukawkaw;;Katanga (krachi East) Health Centre;;;;;
Krachi East;Katanga Asukawkaw;;Motorway CHPS;;;;;
Krachi East;Katanga Asukawkaw;;Nansu CHPS;;;;;
Krachi East;Katanga Asukawkaw;;Okanease CHPS;;;;;
Krachi East;Kparekpare;;Abongo Akura CHPS;;;;;
Krachi East;Kparekpare;;Adakope CHPS;;;;;
Krachi East;Kparekpare;;Adiembra CHPS;;;;;
Krachi East;Kparekpare;;Ayriemu CHPS;;;;;
Krachi East;Kparekpare;;Dambai Cement CHPS;;;;;
Krachi East;Kparekpare;;Kparekpare CHPS;;;;;
Krachi East;Kparekpare;;Papaye CHPS;;;;;
Krachi East;Oti - West;;Dambai Market Service Centre;;;;;
Krachi East;Oti - West;;Evangelical Presbyterian Dan Moser Clinic;;;;;
Krachi East;Oti - West;;Kopah Clinic;;;;;
Krachi East;Oti - West;;Kudorkope CHPS;;;;;
Krachi East;Oti - West;;Kwame Akura CHPS;;;;;
Krachi East;Oti - West;;Madam Nyuitor CHPS;;;;;
Krachi East;Oti - West;;Yariga CHPS;;;;;
Krachi East;Oti - East;;Dambai Health Certre;;;;;
Krachi East;Oti - East;;Injare CHPS;;;;;
Krachi East;Oti - East;;Kopah Clinic;;;;;
Krachi East;Oti - East;;Kwame Akura CHPS;;;;;
Krachi East;Oti - East;;Monkrati CHPS;;;;;
Krachi East;Tokuroanu;;Ayerifia Battor CHPS;;;;;
Krachi East;Tokuroanu;;Matamanu CHPS;;;;;
Krachi East;Tokuroanu;;Tokoruanu Health Centre;;;;;
Krachi-Nchumuru;Banda;;Banda Health Centre;;;;;
Krachi-Nchumuru;Banda;;BORAE NKWANTA CHPS;;;;;
Krachi-Nchumuru;Banda;;Zongo Macheri Clinic;;;;;
Krachi-Nchumuru;Borae;;Borae Health Centre;;;;;
Krachi-Nchumuru;Borae;;Gyato Akura CHPS;;;;;
Krachi-Nchumuru;Borae;;Ngewoe CHIPS;;;;;
Krachi-Nchumuru;Chinderi;;Anyinamae Health Centre;;;;;
Krachi-Nchumuru;Chinderi;;Boafri CHPS;;;;;
Krachi-Nchumuru;Chinderi;;Chinderi Health Center;;;;;
Krachi-Nchumuru;Chinderi;;St Luke Clinic;;;;;
Krachi-Nchumuru;Chinderi;;Worenja CHPS;;;;;
Krachi-Nchumuru;Grubi;;Akaniem CHPS;;;;;
Krachi-Nchumuru;Grubi;;Bejamse Health Centre;;;;;
Krachi-Nchumuru;Grubi;;Grubi Health Centre;;;;;
Krachi-Nchumuru;Grubi;;Kradente CHPS;;;;;
Krachi West;Denteh;;Kete Rch;;;;;
Krachi West;Denteh;;Krachi Hospital;;;;;
Krachi West;Denteh;;KRASEC Clinic;;;;;
Krachi West;Ehiamankyene;;Bommoden CHPS;;;;;
Krachi West;Ehiamankyene;;Ehiamankyene Health Centre;;;;;
Krachi West;Ehiamankyene;;Matamallam CHPS;;;;;
Krachi West;Ehiamankyene;;Ntewusae Health Center;;;;;
Krachi West;Island (Krachi West);;Cement CHPS;;;;;
Krachi West;Island (Krachi West);;Chantai chps;;;;;
Krachi West;Osramanae;;Kpatchu CHPS;;;;;
Krachi West;Osramanae;;Kwaakua CHPS;;;;;
Krachi West;Osramanae;;Monkra Rch;;;;;
Krachi West;Osramanae;;Osramanae Health Centre;;;;;
Krachi West;Osramanae;;Twreso CHPS;;;;;
North Dayi;Anfoega;;Akukorme CHPS;;;;;
North Dayi;Anfoega;;Anfoega Catholic Hospital;;;;;
North Dayi;Anfoega;;Anfoesec CHPS;;;;;
North Dayi;Anfoega;;Gblenkor CHPS;;;;;
North Dayi;Anfoega;;Wademaxe CHPS;;;;;
North Dayi;Aveme;;Aveme Danyigba Health Centre;;;;;
North Dayi;Aveme;;Aveme Resettlement CHPS;;;;;
North Dayi;Aveme;;Beme CHPS;;;;;
North Dayi;Aveme;;Danyigba CHPS;;;;;
North Dayi;Aveme;;Sabadu CHPS;;;;;
North Dayi;Aveme;;Tsyome Sabadu Health Centre;;;;;
North Dayi;Awate;;Awate Agame CHPS;;;;;
North Dayi;Awate;;Awate Health Centre;;;;;
North Dayi;Awate;;Awate Todzi CHPS;;;;;
North Dayi;Awate;;Bume CHPS;;;;;
North Dayi;Awate;;Tokorme CHPS;;;;;
North Dayi;Botoku;;Botoku Health Centre;;;;;
North Dayi;Botoku;;Siama-Kpodzi CHPS;;;;;
North Dayi;Botoku;;Tsoxor CHPS;;;;;
North Dayi;Botoku;;Tsrukpe Health Centre;;;;;
North Dayi;Botoku;;Tsrukpe Tota CHPS;;;;;
North Dayi;Vakpo;;Dunyo CHPS;;;;;
North Dayi;Vakpo;;Fodome CHPS;;;;;
North Dayi;Vakpo;;Gadze CHPS;;;;;
North Dayi;Vakpo;;Jordanu CHPS;;;;;
North Dayi;Vakpo;;Kpebe CHPS;;;;;
North Dayi;Vakpo;;Todzi Adomi CHPS;;;;;
North Dayi;Vakpo;;Tsorkpeta-Hotor CHPS;;;;;
North Dayi;Vakpo;;Vakpo Gboxome CHPS;;;;;
North Dayi;Vakpo;;Vakpo Health Centre;;;;;
Nkwanta North;Damanko;;Damanko Health Centre;;;;;
Nkwanta North;Damanko;;Korni Health Centre;;;;;
Nkwanta North;Damanko;;Pibilla CHPS;;;;;
Nkwanta North;Kpassa;;Kabonwuli CHPS;;;;;
Nkwanta North;Kpassa;;Kadjo CHPS;;;;;
Nkwanta North;Kpassa;;Kpassa Health Centre;;;;;
Nkwanta North;Kpassa;;Kpassa Mat Home;;;;;
Nkwanta North;Kpassa;;Kpassa Pentecost Clinic;;;;;
Nkwanta North;Kpassa;;Mama Akura CHPS;;;;;
Nkwanta North;Kpassa;;SIVANA CLINIC;;;;;
Nkwanta North;Sibi;;Sibi Central CHPS;;;;;
Nkwanta North;Sibi;;Sibi Hill Top CHPS;;;;;
Nkwanta North;Tinjase;;Abunyanya CHPS;;;;;
Nkwanta North;Tinjase;;Azua CHPS;;;;;
Nkwanta North;Tinjase;;Nabu CHPS;;;;;
Nkwanta North;Tinjase;;Tinjase CHPS;;;;;
Nkwanta North;Tinjase;;Tinjase Clinic;;;;;
Nkwanta South;Bonakye;;Agoufie CHPS;;;;;
Nkwanta South;Bonakye;;Bonakye CHPs;;;;;
Nkwanta South;Bonakye;;Jumbo #1 CHPS;;;;;
Nkwanta South;Bonakye;;Kabite CHPS;;;;;
Nkwanta South;Brewaniase;;Abubruwa CHPS;;;;;
Nkwanta South;Brewaniase;;Bontibor CHPS;;;;;
Nkwanta South;Brewaniase;;Brewaniase Health Centre;;;;;
Nkwanta South;Brewaniase;;Fame`(nkwnata South) Clinic;;;;;
Nkwanta South;Brewaniase;;Obanda CHPS;;;;;
Nkwanta South;Brewaniase;;Pusupu Health Centre;;;;;
Nkwanta South;Brewaniase;;Salifu CHPS;;;;;
Nkwanta South;Nkwanta (Volta);;Chaiso CHPS;;;;;
Nkwanta South;Nkwanta (Volta);;Keri CHPS;;;;;
Nkwanta South;Nkwanta (Volta);;Kue CHPS;;;;;
Nkwanta South;Nkwanta (Volta);;Nkwanta District Hospital;;;;;
Nkwanta South;Nkwanta (Volta);;Nkwanta Rch;;;;;
Nkwanta South;Nkwanta (Volta);;Nkwanta St. Josephs Hospital;;;;;
Nkwanta South;Nkwanta (Volta);;Nyambong CHPS;;;;;
Nkwanta South;Nkwanta (Volta);;Odumase (nkwanta South) CHPS;;;;;
Nkwanta South;Tutukpene;;Alokpatsa CHPS;;;;;
Nkwanta South;Tutukpene;;Dain Kofe CHPS;;;;;
Nkwanta South;Tutukpene;;Kecheibi CHPS;;;;;
Nkwanta South;Tutukpene;;Ofosu CHPS;;;;;
Nkwanta South;Tutukpene;;Tutukpene Health Centre;;;;;
North Tongu;Battor;;Aveyime Central CHPS;;;;;
North Tongu;Battor;;Battor Catholic Hospital;;;;;
North Tongu;Battor;;Battor-Dugame CHPS;;;;;
North Tongu;Battor;;Dedukope CHPS;;;;;
North Tongu;Battor;;Degorme CHPS;;;;;
North Tongu;Battor;;Fakpe CHPS;;;;;
North Tongu;Battor;;Horme Kpekpo CHPS;;;;;
North Tongu;Battor;;Mekpe CHPS;;;;;
North Tongu;Battor;;Workpoe CHPS;;;;;
North Tongu;Dorfor-adidome-volo;;Afaode CHPS;;;;;
North Tongu;Dorfor-adidome-volo;;Dorfor-adidome Health Centre;;;;;
North Tongu;Dorfor-adidome-volo;;Tornu (North Tongu) CHPS;;;;;
North Tongu;Dorfor-adidome-volo;;Volo Health Centre;;;;;
North Tongu;Dorfor-adidome-volo;;Yayrafe-Tsidzenu CHPS;;;;;
North Tongu;Fodzoku-torgorme;;Adafe CHPS;;;;;
North Tongu;Fodzoku-torgorme;;Alabonu CHPS;;;;;
North Tongu;Fodzoku-torgorme;;Fodzoku Health Centre;;;;;
North Tongu;Fodzoku-torgorme;;Torgorme Health Centre;;;;;
North Tongu;Juapong-podoe;;Avedotoe CHPS;;;;;
North Tongu;Juapong-podoe;;Juapong Health Centre;;;;;
North Tongu;Juapong-podoe;;Kpomkpo CHPS;;;;;
North Tongu;Juapong-podoe;;Merciful Hospital;;;;;
North Tongu;Juapong-podoe;;Podoe Health Centre;;;;;
North Tongu;Juapong-podoe;;St Anne's polyclinic;;;;;
North Tongu;Juapong-podoe;;Tagadzi CHPS;;;;;
South Dayi;Duga;;Abui Tsita CHPS;;;;;
South Dayi;Duga;;Kpalime Duga Health Centre;;;;;
South Dayi;Duga;;Tsatee CHPS Zone;;;;;
South Dayi;Dzake;;Dzake Health Centre;;;;;
South Dayi;Dzake;;Tsiyinu CHPS ;;;;;
South Dayi;Kpeve Adzokoe;;Adzokoe Health Centre;;;;;
South Dayi;Kpeve Adzokoe;;Wegbe Kpalime Health Centre;;;;;
South Dayi;Peki;;Agbate CHPS;;;;;
South Dayi;Peki;;Peki Hospital;;;;;
South Dayi;Tongor;;Dzemeni Evangelical Presbyterian Clinic;;;;;
South Dayi;Tongor;;Hope (south Dayi) Maternity Home;;;;;
South Dayi;Tongor;;Salem Maternity Home;;;;;
South Dayi;Tongor;;Tsanakpe Health Centre;;;;;
South Tongu;Agorta-Gamenu;;Agorta CHPS;;;;;
South Tongu;Agorta-Gamenu;;Dzogborve CHPS;;;;;
South Tongu;Agorta-Gamenu;;Gamenu CHPS;;;;;
South Tongu;Dabala-Adutor;;Adutor Health Centre;;;;;
South Tongu;Dabala-Adutor;;Agbakope CHPS;;;;;
South Tongu;Dabala-Adutor;;Agordomi CHPS;;;;;
South Tongu;Dabala-Adutor;;Dabala Health Centre;;;;;
South Tongu;Dabala-Adutor;;Dalive CHPS;;;;;
South Tongu;Dabala-Adutor;;Gonu CHPS;;;;;
South Tongu;Dabala-Adutor;;Hikpo CHPS;;;;;
South Tongu;Dabala-Adutor;;Larve CHPS;;;;;
South Tongu;Dabala-Adutor;;Sokutime CHPS;;;;;
South Tongu;Dabala-Adutor;;Tosukpo CHPS;;;;;
South Tongu;Dordoekope;;Agbadzakope CHPS;;;;;
South Tongu;Dordoekope;;Agbeve CHPS;;;;;
South Tongu;Dordoekope;;Akplale Fame Clinic;;;;;
South Tongu;Dordoekope;;Asidowui CHPS;;;;;
South Tongu;Dordoekope;;Dikato CHPS;;;;;
South Tongu;Dordoekope;;Dordoekope Health Centre;;;;;
South Tongu;Dordoekope;;Dzebetato-Tadze CHPS;;;;;
South Tongu;Dordoekope;;Dzetorkoe CHPS;;;;;
South Tongu;Dordoekope;;Kua CHPS;;;;;
South Tongu;Dordoekope;;Besakope CHPS;;;;;
South Tongu;Dorkploame;;Dorkploame CHPS;;;;;
South Tongu;Dorkploame;;Tsavanya CHPS;;;;;
South Tongu;Sogakope;;Godly Shepherd Maternity;;;;;
South Tongu;Sogakope;;Agorkpo CHPS;;;;;
South Tongu;Sogakope;;Atsieve CHPS;;;;;
South Tongu;Sogakope;;Comboni Hospital;;;;;
South Tongu;Sogakope;;Gbenuakpoe CHPS;;;;;
South Tongu;Sogakope;;Hlevi CHPS;;;;;
South Tongu;Sogakope;;PPAG;;;;;
South Tongu;Sogakope;;Sasekope CHPS;;;;;
South Tongu;Sogakope;;Sogakope Central CHPS;;;;;
South Tongu;Sogakope;;Sogakope District Hospital;;;;;
South Tongu;Sogakope;;Sogakope North CHPS;;;;;
South Tongu;Sogakope;;Sogakope South CHPS;;;;;
South Tongu;Sotewu;;Agorgbega CHPS;;;;;
South Tongu;Sotewu;;Anasukope CHPS;;;;;
South Tongu;Sotewu;;Dedo CHPS;;;;;
South Tongu;Sotewu;;Kpotame Health Centre;;;;;
South Tongu;Sotewu;;Sokpoe CHPS;;;;;
South Tongu;Sotewu;;Tefle Health Centre;;;;;
South Tongu;Sotewu;;Vume CHPS;;;;;
