LGA;Ward;Settlement;Facility;Type;Ownership;Address;Longitude;Latitude
Wassa-Amenfi East;AFRANSIE;;Adom (wassa Amenfi East) Clinic;;;;;
Wassa-Amenfi East;AFRANSIE;;Afransie Health Centre;;;;;
Wassa-Amenfi East;AFRANSIE;;Aserewadi CHPS;;;;;
Wassa-Amenfi East;AFRANSIE;;Asuogya Krobo CHPS;;;;;
Wassa-Amenfi East;AFRANSIE;;Beposo CHPS;;;;;
Wassa-Amenfi East;AFRANSIE;;Dikoto Nsuaem CHPS;;;;;
Wassa-Amenfi East;AFRANSIE;;Dokoto Junction CHPS;;;;;
Wassa-Amenfi East;AFRANSIE;;Gyedua CHPS;;;;;
Wassa-Amenfi East;AFRANSIE;;Jukwa Heman CHPS;;;;;
Wassa-Amenfi East;AFRANSIE;;Tieku CHPS;;;;;
Wassa-Amenfi East;AFRANSIE;;Wantram CHPS;;;;;
Wassa-Amenfi East;AFRANSIE;;Wassa Dikoto CHPS;;;;;
Wassa-Amenfi East;Akropong (WAE);;Abesewa Gyamang CHPS;;;;;
Wassa-Amenfi East;Akropong (WAE);;Adanse CHPS;;;;;
Wassa-Amenfi East;Akropong (WAE);;Adesu CHPS;;;;;
Wassa-Amenfi East;Akropong (WAE);;Amenss Infirmary;;;;;
Wassa-Amenfi East;Akropong (WAE);;Dadieso CHPS;;;;;
Wassa-Amenfi East;Akropong (WAE);;Domeabra CHPS;;;;;
Wassa-Amenfi East;Akropong (WAE);;Dompoase CHPS;;;;;
Wassa-Amenfi East;Akropong (WAE);;Grumisa CHPS;;;;;
Wassa-Amenfi East;Akropong (WAE);;Holy Angels Clinic;;;;;
Wassa-Amenfi East;Akropong (WAE);;Japa CHPS;;;;;
Wassa-Amenfi East;Akropong (WAE);;Moseaso CHPS;;;;;
Wassa-Amenfi East;Akropong (WAE);;Saamang CHPS;;;;;
Wassa-Amenfi East;Akropong (WAE);;St George Maternity;;;;;
Wassa-Amenfi East;Akropong (WAE);;St. Mark Hospital;;;;;
Wassa-Amenfi East;Akropong (WAE);;Wassa Akropong Govt Hospital;;;;;
Wassa-Amenfi East;Bawdie;;Abotareye CHPS;;;;;
Wassa-Amenfi East;Bawdie;;Asikuma CHPS (WAE);;;;;
Wassa-Amenfi East;Bawdie;;Asundua CHPS;;;;;
Wassa-Amenfi East;Bawdie;;Bawdie CHPS;;;;;
Wassa-Amenfi East;Bawdie;;El-shiva Clinic;;;;;
Wassa-Amenfi East;Dawurampong;;Appiah Nkwanta CHPS;;;;;
Wassa-Amenfi East;Dawurampong;;Brepro CHPS;;;;;
Wassa-Amenfi East;Dawurampong;;Dawurampong CHPS;;;;;
Wassa-Amenfi East;Dawurampong;;Mansiso CHPS;;;;;
Wassa-Amenfi East;Dawurampong;;Suhyenso CHPS;;;;;
Wassa-Amenfi East;Mampong (WAE);;Adjumako CHPS;;;;;
Wassa-Amenfi East;Mampong (WAE);;Assesensu CHPS;;;;;
Wassa-Amenfi East;Mampong (WAE);;Mampong (WAE) Health Centre;;;;;
Wassa-Amenfi East;Nananko;;Djorboah CHPS;;;;;
Wassa-Amenfi East;Nananko;;Marfo CHPS;;;;;
Wassa-Amenfi East;Nananko;;Nananko CHPS;;;;;
Wassa-Amenfi East;Nananko;;New Somanya CHPS;;;;;
Wassa-Amenfi East;Nananko;;Nkonya CHPS;;;;;
Wassa-Amenfi East;Nananko;;Nsuaem (WAE) No 2 CHPS;;;;;
Wassa-Amenfi East;Oppon Valley;;Darmang (WAE) CHPS;;;;;
Wassa-Amenfi East;Oppon Valley;;Nyamebekyere CHPS;;;;;
Wassa-Amenfi East;Oppon Valley;;Oppon Valley Health Centre;;;;;
Wassa-Amenfi East;Saa;;Abrokyire Krobo CHPS;;;;;
Wassa-Amenfi East;Saa;;Pewuako Chps;;;;;
Wassa-Amenfi East;Saa;;Saa Health Centre;;;;;
Wassa-Amenfi West;Asankran Breman;;Afiena CHPS;;;;;
Wassa-Amenfi West;Asankran Breman;;Asankran Breman Health Centre;;;;;
Wassa-Amenfi West;Asankran Breman;;Bokakore CHPS;;;;;
Wassa-Amenfi West;Asankran Breman;;Fordjourkrom CHPS;;;;;
Wassa-Amenfi West;Asankran Breman;;Juantoa CHPS;;;;;
Wassa-Amenfi West;Asankran Breman;;Moseaso CHPS;;;;;
Wassa-Amenfi West;Asankran Breman;;Odakotoamso CHPS;;;;;
Wassa-Amenfi West;Asankran Breman;;Odakrofofrom CHPS;;;;;
Wassa-Amenfi West;Asankran Breman;;Odumase CHPS;;;;;
Wassa-Amenfi West;Asankran-Saa;;Asankran Saa Clinic;;;;;
Wassa-Amenfi West;Asankran-Saa;;Kwabeng CHPS;;;;;
Wassa-Amenfi West;Asankran-Saa;;Nana Gyamfi Amoonu Maternity Home;;;;;
Wassa-Amenfi West;Asankran-Saa;;Nkwantanum (Wassa Amenfi West) CHPS;;;;;
Wassa-Amenfi West;Asankran-Saa;;Nyamendae CHPS;;;;;
Wassa-Amenfi West;Asankrangwa;;Amoakokrom CHPS;;;;;
Wassa-Amenfi West;Asankrangwa;;Asanco SHS CHPS;;;;;
Wassa-Amenfi West;Asankrangwa;;Asankrangwa CHPS;;;;;
Wassa-Amenfi West;Asankrangwa;;Asectech CHPS;;;;;
Wassa-Amenfi West;Asankrangwa;;Father Thomas Alan Rooney Memorial Hospital;;;;;
Wassa-Amenfi West;Asankrangwa;;Sika Nti CHPS;;;;;
Wassa-Amenfi West;Asankrangwa;;Vintage Hospital;;;;;
Wassa-Amenfi West;Asankrangwa;;Wesley (Wassa Amenfi West) Clinic;;;;;
Wassa-Amenfi West;Attobrakrom;;Abekoase CHPS;;;;;
Wassa-Amenfi West;Attobrakrom;;Asuohyiam CHPS;;;;;
Wassa-Amenfi West;Attobrakrom;;Attobrakrom CHPS;;;;;
Wassa-Amenfi West;Attobrakrom;;Kamaso CHPS;;;;;
Wassa-Amenfi West;Bisaaso;;Aworabo CHPS;;;;;
Wassa-Amenfi West;Bisaaso;;Bena Fie CHPS;;;;;
Wassa-Amenfi West;Bisaaso;;Bena Nkwanta CHPS;;;;;
Wassa-Amenfi West;Bisaaso;;Berekum CHPS;;;;;
Wassa-Amenfi West;Bisaaso;;Bisaaso Health Centre;;;;;
Wassa-Amenfi West;Bisaaso;;Mumuni CHPS;;;;;
Wassa-Amenfi West;Bisaaso;;Nyamebekyere CHPS;;;;;
Wassa-Amenfi West;Bisaaso;;Ohiampeanika CHPS;;;;;
Wassa-Amenfi West;Bisaaso;;Tekpekrom (Bisaaso) CHPS;;;;;
Wassa-Amenfi West;Gravel Yard;;Ayensu CHPS;;;;;
Wassa-Amenfi West;Gravel Yard;;Domeabra (Wassa Amenfi West) CHPS;;;;;
Wassa-Amenfi West;Gravel Yard;;Dorcas CHPS;;;;;
Wassa-Amenfi West;Gravel Yard;;Gravel Yard CHPS;;;;;
Wassa-Amenfi West;Gravel Yard;;Mmofra Nfa Dwen CHPS;;;;;
Wassa-Amenfi West;Gravel Yard;;Prestea Nkwanta CHPS;;;;;
Wassa-Amenfi West;Gravel Yard;;St Theresa (Wassa Amenfi West) Clinic;;;;;
Wassa-Amenfi West;Gravel Yard;;Torompan CHPS;;;;;
Wassa-Amenfi West;Samreboi;;Aggreso CHPS;;;;;
Wassa-Amenfi West;Samreboi;;Amuaku CHPS;;;;;
Wassa-Amenfi West;Samreboi;;Appiahkrom CHPS;;;;;
Wassa-Amenfi West;Samreboi;;Kokoase (Wassa Amenfi West) CHPS;;;;;
Wassa-Amenfi West;Samreboi;;Ohiamatuo Clinic;;;;;
Wassa-Amenfi West;Samreboi;;Samartex Hospital;;;;;
Wassa-Amenfi West;Samreboi;;Simpa CHPS;;;;;
Wassa-Amenfi West;Samreboi;;Tanokrom (Samreboi) CHPS;;;;;
Wassa-Amenfi West;Samreboi;;Tigarikrom CHPS;;;;;
Wassa-Amenfi West;Samreboi;;Woman No Good CHPS;;;;;
Wassa-Amenfi West;Wassa Dunkwa;;Aborekrom CHPS;;;;;
Wassa-Amenfi West;Wassa Dunkwa;;Pantooso CHPS;;;;;
Wassa-Amenfi West;Wassa Dunkwa;;Wassa Dunkwa CHPS;;;;;
Wassa-Amenfi West;Wassa Dunkwa;;Yirase CHPS;;;;;
Ahanta West;Agona;;A Lang CHPS;;;;;
Ahanta West;Agona;;Abura CHPS;;;;;
Ahanta West;Agona;;Abura Clinic;;;;;
Ahanta West;Agona;;Adjumako Mpatase CHPS;;;;;
Ahanta West;Agona;;Agona Fie CHPS;;;;;
Ahanta West;Agona;;Agona Health Centre;;;;;
Ahanta West;Agona;;Agona Nkwanta CHPS;;;;;
Ahanta West;Agona;;Akatenchie CHPS;;;;;
Ahanta West;Agona;;Apimenyim-Banso CHPS;;;;;
Ahanta West;Agona;;Domeabra (Western) CHPS;;;;;
Ahanta West;Agona;;Ewusiejoe CHPS;;;;;
Ahanta West;Agona;;Fasin CHPS;;;;;
Ahanta West;Agona;;Germa Maternity Clinic;;;;;
Ahanta West;Agona;;Grel Clinic;;;;;
Ahanta West;Agona;;Hotopo CHPS;;;;;
Ahanta West;Agona;;Mpanyinasah CHPS;;;;;
Ahanta West;Apowa;;Adjuah CHPS;;;;;
Ahanta West;Apowa;;Ankyereyin CHPS;;;;;
Ahanta West;Apowa;;Apowa CHPS;;;;;
Ahanta West;Apowa;;Apowa Health Centre;;;;;
Ahanta West;Apowa;;Asamasa CHPS;;;;;
Ahanta West;Apowa;;Aworozo CHPS;;;;;
Ahanta West;Apowa;;Beahu CHPS;;;;;
Ahanta West;Apowa;;Egyam Catholic Clinic;;;;;
Ahanta West;Apowa;;Egyam CHPS;;;;;
Ahanta West;Apowa;;Funkoe CHPS;;;;;
Ahanta West;Apowa;;Kejabil CHPS;;;;;
Ahanta West;Apowa;;New Amanful CHPS;;;;;
Ahanta West;Apowa;;Achowa-Media CHPS;;;;;
Ahanta West;Apowa;;Akuba Ewoo Clinic;;;;;
Ahanta West;Apowa;;Akwidaa CHPS;;;;;
Ahanta West;Apowa;;Boekrom CHPS;;;;;
Ahanta West;Apowa;;Busua CHPS;;;;;
Ahanta West;Apowa;;Butre CHPS;;;;;
Ahanta West;Apowa;;CAPE 3 POINT CHPS;;;;;
Ahanta West;Apowa;;Chavene CHPS;;;;;
Ahanta West;Apowa;;Lower Dixcove CHPS;;;;;
Ahanta West;Apowa;;Nana Hima Dekyi Hospital;;;;;
Ahanta West;Apowa;;Sankor Yaakow CHPS;;;;;
Ahanta West;Apowa;;Upper Dixcove CHPS;;;;;
Ahanta West;Princess;;Aketakyi CHPS;;;;;
Ahanta West;Princess;;Anyaano CHPS;;;;;
Ahanta West;Princess;;Egyambra CHPS;;;;;
Ahanta West;Princess;;Princess Health Center;;;;;
Ahanta West;Princess;;Princess Town CHPS;;;;;
Aowin;Achimfo (Enchi);;Achimfo Health Centre;;;;;
Aowin;Achimfo (Enchi);;Achimfo-Adjeikrom CHPS;;;;;
Aowin;Achimfo (Enchi);;Banaso CHPS;;;;;
Aowin;Achimfo (Enchi);;Nyaney Camp CHPS;;;;;
Aowin;Adjuom;;Adjuom CHPS;;;;;
Aowin;Adjuom;;Desueano CHPS;;;;;
Aowin;Adjuom;;Papueso Presby Clinic;;;;;
Aowin;Akontombra Nkwanta;;Adonikrom CHPS;;;;;
Aowin;Akontombra Nkwanta;;Akontombra Nkwanta Health Centre;;;;;
Aowin;Akontombra Nkwanta;;Anwiafutu CHPS;;;;;
Aowin;Akontombra Nkwanta;;Motosso CHPS;;;;;
Aowin;Aquai Allah;;Amanshia CHPs Zone;;;;;
Aowin;Aquai Allah;;Ankaase CHPS;;;;;
Aowin;Aquai Allah;;Aquay Allah Health Centre;;;;;
Aowin;Aquai Allah;;Awuakrom CHPS;;;;;
Aowin;Aquai Allah;;Camp 4 CHPS;;;;;
Aowin;Aquai Allah;;Limankrom CHPS;;;;;
Aowin;Boinso;;Asemkrom CHPS;;;;;
Aowin;Boinso;;Bethel Methodist Clinic - Kwawu;;;;;
Aowin;Boinso;;Boinso Health Centre;;;;;
Aowin;Boinso;;Jema CHPS;;;;;
Aowin;Boinso;;Omanpe CHPS;;;;;
Aowin;Boinso;;Pentecost Clinic Kwawu;;;;;
Aowin;Enchi;;Enchi Government Hospital;;;;;
Aowin;Enchi;;New-Yakasi CHPS;;;;;
Aowin;Enchi;;Presbyterian (aowin Suaman) Health Centre;;;;;
Aowin;New Gyasikrom;;Adjei Krom CHPS;;;;;
Aowin;New Gyasikrom;;Kordjour CHPS;;;;;
Aowin;New Gyasikrom;;New Gyasikrom CHPS;;;;;
Aowin;Sewum;;Amonie Presby Health Centre;;;;;
Aowin;Sewum;;Nkwanta CHPS;;;;;
Aowin;Sewum;;Nyamesa CHPS;;;;;
Aowin;Sewum;;Sewum Health Centre;;;;;
Aowin;Yiwabra;;Appiakrom CHPS;;;;;
Aowin;Yiwabra;;Asantekrom CHPS;;;;;
Aowin;Yiwabra;;Enchi Jomoro CHPS;;;;;
Aowin;Yiwabra;;Yiwabra Health Centre;;;;;
Bibiani-Anhwiaso-Bekwai;Anhwiaso (western);;Aboabo CHPS (bibiani);;;;;
Bibiani-Anhwiaso-Bekwai;Anhwiaso (western);;Aboduabo CHPS;;;;;
Bibiani-Anhwiaso-Bekwai;Anhwiaso (western);;Adupri CHPS;;;;;
Bibiani-Anhwiaso-Bekwai;Anhwiaso (western);;Afamu CHPS;;;;;
Bibiani-Anhwiaso-Bekwai;Anhwiaso (western);;Anhwiaso (bibiani Anhwiaso Bekwai) Health Centre;;;;;
Bibiani-Anhwiaso-Bekwai;Anhwiaso (western);;Ankra Muano CHPS;;;;;
Bibiani-Anhwiaso-Bekwai;Anhwiaso (western);;Debiso CHPS;;;;;
Bibiani-Anhwiaso-Bekwai;Anhwiaso (western);;Dominebo CHPS;;;;;
Bibiani-Anhwiaso-Bekwai;Anhwiaso (western);;Kojina Subri N CHPS;;;;;
Bibiani-Anhwiaso-Bekwai;Anhwiaso (western);;Kumkumso CHPS;;;;;
Bibiani-Anhwiaso-Bekwai;Anhwiaso (western);;Nambro CHPS;;;;;
Bibiani-Anhwiaso-Bekwai;Anhwiaso (western);;Ntakam CHPS;;;;;
Bibiani-Anhwiaso-Bekwai;Anhwiaso (western);;Pataboso CHPS;;;;;
Bibiani-Anhwiaso-Bekwai;Anhwiaso (western);;Tanoso (Bibiani-Anhwiaso) CHPS;;;;;
Bibiani-Anhwiaso-Bekwai;Anhwiaso (western);;Wenchi (bibiani Anhwiaso Bekwai) CHPS;;;;;
Bibiani-Anhwiaso-Bekwai;Awaso;;Asawinso CHPS;;;;;
Bibiani-Anhwiaso-Bekwai;Awaso;;Asempanaye CHPS;;;;;
Bibiani-Anhwiaso-Bekwai;Awaso;;Atronsu CHPS;;;;;
Bibiani-Anhwiaso-Bekwai;Awaso;;Gbc Awaso Hospital;;;;;
Bibiani-Anhwiaso-Bekwai;Awaso;;Krodua CHPS;;;;;
Bibiani-Anhwiaso-Bekwai;Awaso;;Manse CHPS;;;;;
Bibiani-Anhwiaso-Bekwai;Awaso;;Mmerewa CHPS;;;;;
Bibiani-Anhwiaso-Bekwai;Awaso;;Nkatieso CHPS;;;;;
Bibiani-Anhwiaso-Bekwai;Awaso;;Nkronua CHPS;;;;;
Bibiani-Anhwiaso-Bekwai;Bekwai (western);;Adobewura No. 2 CHPS;;;;;
Bibiani-Anhwiaso-Bekwai;Bekwai (western);;Akaasu CHPS;;;;;
Bibiani-Anhwiaso-Bekwai;Bekwai (western);;Ampenkrom CHPS;;;;;
Bibiani-Anhwiaso-Bekwai;Bekwai (western);;Bekwai Low Cost CHPS;;;;;
Bibiani-Anhwiaso-Bekwai;Bekwai (western);;Bekwai Zongo CHPS;;;;;
Bibiani-Anhwiaso-Bekwai;Bekwai (western);;Green Shield Hospital;;;;;
Bibiani-Anhwiaso-Bekwai;Bekwai (western);;Humjibre CHPS;;;;;
Bibiani-Anhwiaso-Bekwai;Bekwai (western);;Kojina CHPS;;;;;
Bibiani-Anhwiaso-Bekwai;Bekwai (western);;Muoho CHPS;;;;;
Bibiani-Anhwiaso-Bekwai;Bekwai (western);;Peace & Grace Hospital;;;;;
Bibiani-Anhwiaso-Bekwai;Bekwai (western);;Sefwi Ashiam CHPS;;;;;
Bibiani-Anhwiaso-Bekwai;Bekwai (western);;Sefwi Bekwai Health Centre;;;;;
Bibiani-Anhwiaso-Bekwai;Bibiani;;Abokyikrom (Bibiani-Anhwiaso) CHPS;;;;;
Bibiani-Anhwiaso-Bekwai;Bibiani;;Bassengele CHPS;;;;;
Bibiani-Anhwiaso-Bekwai;Bibiani;;Bethleham CHPS;;;;;
Bibiani-Anhwiaso-Bekwai;Bibiani;;Bibiani District Hospital;;;;;
Bibiani-Anhwiaso-Bekwai;Bibiani;;Bibiani Old Town CHPS;;;;;
Bibiani-Anhwiaso-Bekwai;Bibiani;;Bibiani RCH CHPS;;;;;
Bibiani-Anhwiaso-Bekwai;Bibiani;;Bibiani Zongo CHPS;;;;;
Bibiani-Anhwiaso-Bekwai;Bibiani;;Daks Medical Centre;;;;;
Bibiani-Anhwiaso-Bekwai;Bibiani;;Degede CHPS;;;;;
Bibiani-Anhwiaso-Bekwai;Bibiani;;District Health Administration;;;;;
Bibiani-Anhwiaso-Bekwai;Bibiani;;Divine Love Hospital;;;;;
Bibiani-Anhwiaso-Bekwai;Bibiani;;Estate (Bibiani-Anhwiaso) CHPS;;;;;
Bibiani-Anhwiaso-Bekwai;Bibiani;;Fawokabra CHPS;;;;;
Bibiani-Anhwiaso-Bekwai;Bibiani;;Gyedi CHPS;;;;;
Bibiani-Anhwiaso-Bekwai;Bibiani;;Hwenapori CHPS;;;;;
Bibiani-Anhwiaso-Bekwai;Bibiani;;Kate Afram Clinic;;;;;
Bibiani-Anhwiaso-Bekwai;Bibiani;;Kwamekrom CHPS;;;;;
Bibiani-Anhwiaso-Bekwai;Bibiani;;Lineso CHPS;;;;;
Bibiani-Anhwiaso-Bekwai;Bibiani;;Mframakrom CHPS;;;;;
Bibiani-Anhwiaso-Bekwai;Bibiani;;Noble Gold Hospital;;;;;
Bibiani-Anhwiaso-Bekwai;Bibiani;;Reed Danos Medical Centre;;;;;
Bibiani-Anhwiaso-Bekwai;Bibiani;;Rescue Clinic;;;;;
Bibiani-Anhwiaso-Bekwai;Chirano;;Adiembra CHPS (Bekwai);;;;;
Bibiani-Anhwiaso-Bekwai;Chirano;;Akaaso CHPS;;;;;
Bibiani-Anhwiaso-Bekwai;Chirano;;Anyinase CHPS;;;;;
Bibiani-Anhwiaso-Bekwai;Chirano;;Chirano Health Centre;;;;;
Bibiani-Anhwiaso-Bekwai;Chirano;;Kinross Clinic;;;;;
Bibiani-Anhwiaso-Bekwai;Chirano;;St Marks Anglican Clinic;;;;;
Bibiani-Anhwiaso-Bekwai;Chirano;;Surano CHPS;;;;;
Bia East;Adabokrom;;Adabokrom CHPS;;;;;
Bia East;Adabokrom;;Amadu Nkwanta CHPS;;;;;
Bia East;Adabokrom;;Arhinful CHPS;;;;;
Bia East;Adabokrom;;Camp 15 CHPS;;;;;
Bia East;Adabokrom;;Fosukrom CHPS;;;;;
Bia East;Adabokrom;;Kwasare CHPS;;;;;
Bia East;Adabokrom;;Peace (bia) Maternity;;;;;
Bia East;Asemnyinakrom;;Achiase (Bia East) CHPS;;;;;
Bia East;Asemnyinakrom;;Asemnyinakrom CHPS;;;;;
Bia East;Asemnyinakrom;;Eye Awurade (bia) Maternity Home;;;;;
Bia East;Kaase;;Alhajikrom PHC Clinic;;;;;
Bia East;Kaase;;Kaase H/C;;;;;
Bia East;Kaase;;Marfokrom Memorial Clinic;;;;;
Bia East;Kaase;;Merciful (bia) Clinic;;;;;
Bia East;Kaase;;Saviour (bia) Clinic;;;;;
Bia East;Kaase;;St. Augustine's Clinic;;;;;
Bia West;Akaatiso;;Akaatiso CHPS;;;;;
Bia West;Akaatiso;;Gina (bia) Maternity;;;;;
Bia West;Akaatiso;;Kofiekrom Aduana Clinic;;;;;
Bia West;Akaatiso;;Lizzy's (bia) Maternity;;;;;
Bia West;Akaatiso;;Oforikrom CHPS Zone;;;;;
Bia West;Essam;;Asikumah CHPS Zone;;;;;
Bia West;Essam;;Cocoa Clinic Debiso;;;;;
Bia West;Essam;;Essam gov. Hospital;;;;;
Bia West;Essam;;Essam H/C;;;;;
Bia West;Essam;;Florence (bia) Maternity;;;;;
Bia West;Essam;;Kwametawiahkrom CHPS;;;;;
Bia West;Essam;;Presby (bia) Clinic;;;;;
Bia West;Essam;;St Luke (Bia) Clinic;;;;;
Bia West;Kwesi Nkrumah;;Abosi CHPS Zone;;;;;
Bia West;Kwesi Nkrumah;;Amoashed CHPS;;;;;
Bia West;Kwesi Nkrumah;;Brebre Clinic;;;;;
Bia West;Kwesi Nkrumah;;Kofi-Kra CHPS;;;;;
Bia West;Kwesi Nkrumah;;Kwasi Nkrumah CHPS;;;;;
Bia West;Kwesi Nkrumah;;St Joseph (bia) Maternity;;;;;
Bia West;Mempeasem;;Asafo-Adjei CHPS Zone;;;;;
Bia West;Mempeasem;;Asuontaa CHPS;;;;;
Bia West;Mempeasem;;Cashierkrom CHPS;;;;;
Bia West;Mempeasem;;Mempeasem Health Centre;;;;;
Bia West;Mempeasem;;Osbert Maternity;;;;;
Bia West;Oseikojokrom;;Eno Yeboah Clinic;;;;;
Bia West;Oseikojokrom;;Kojoaba Clinic;;;;;
Bia West;Oseikojokrom;;Oseikojo CHPS;;;;;
Bia West;Oseikojokrom;;St Ann's Maternity;;;;;
Bia West;Oseikojokrom;;St John Of God (bia) Annex;;;;;
Bia West;Oseikojokrom;;Yaw Sekyerekrom CHPS Zone;;;;;
Bia West;Papaase;;New Papaase CHPS;;;;;
Bia West;Papaase;;Yesukrom CHPS Zone;;;;;
Bia West;Yawmatwa;;Angela Clinic;;;;;
Bia West;Yawmatwa;;Nsowakrom CHPS;;;;;
Bia West;Yawmatwa;;Pillar 34 CHPS Zone;;;;;
Bia West;Yawmatwa;;Yawmatwa CHPS;;;;;
Bia West;Yawmatwa;;Yawmatwa Church Of Pentecost Clinic;;;;;
Bodi;Amoaya;;Ahibenso;;;;;
Bodi;Amoaya;;Amoaya Health Centre;;;;;
Bodi;Amoaya;;Bokabo CHPS;;;;;
Bodi;Amoaya;;Datano CHPS;;;;;
Bodi;Amoaya;;Kwasikrom (Bodi) Health Center;;;;;
Bodi;Amoaya;;Patakro CHPS;;;;;
Bodi;Bodi;;Denchemuosue CHPS;;;;;
Bodi;Bodi;;Ahibenso Health Centre;;;;;
Bodi;Bodi;;Ahibenso Rural Clinic;;;;;
Bodi;Bodi;;Bishop Anglioby Memorial Clinic;;;;;
Bodi;Bodi;;Bodi CHPS;;;;;
Bodi;Bodi;;Kanchiabo CHPS;;;;;
Bodi;Bodi;;Mammudu PHC (Clinic);;;;;
Bodi;Bodi;;Serwaa Maternity Home;;;;;
Bodi;Bodi;;Kanchiabo CHPS;;;;;
Bodi;Suiano;;AFERE CHPS;;;;;
Bodi;Suiano;;Benumuo CHPS;;;;;
Bodi;Suiano;;Bepoase (Bodi) CHPS;;;;;
Bodi;Suiano;;Kama CHPS;;;;;
Bodi;Suiano;;Kwasikrom Health Centre;;;;;
Bodi;Suiano;;Puakrom CHPS;;;;;
Bodi;Suiano;;Suiano Health Centre;;;;;
Ellembelle;Aiyinase;;A.B. Bokazo Clinic;;;;;
Ellembelle;Aiyinase;;Adom Clinic;;;;;
Ellembelle;Aiyinase;;Aiyinase Health Center;;;;;
Ellembelle;Aiyinase;;Akoto CHPS;;;;;
Ellembelle;Aiyinase;;Awiebo CHPS;;;;;
Ellembelle;Aiyinase;;Awiebo-Basake CHPS;;;;;
Ellembelle;Aiyinase;;Ayawora CHPS Zone;;;;;
Ellembelle;Aiyinase;;Bokass CHPS;;;;;
Ellembelle;Aiyinase;;Mantukwa CHPS Zone;;;;;
Ellembelle;Aiyinase;;Nana Benie Clinic;;;;;
Ellembelle;Aiyinase;;Nyamebekyere CHPS;;;;;
Ellembelle;Eikwe;;Krisan Camp Clinic;;;;;
Ellembelle;Eikwe;;Nralechie CHPS Zone;;;;;
Ellembelle;Eikwe;;Sanford International Clinic - Atuabo;;;;;
Ellembelle;Eikwe;;Sanzule CHPS;;;;;
Ellembelle;Eikwe;;St Martin De Porres (Ellembelle) Hospital;;;;;
Ellembelle;Esiama;;Ahunu CHPS Zone;;;;;
Ellembelle;Esiama;;Alhaji Nuhu Memorial Clinic;;;;;
Ellembelle;Esiama;;Ampain Health Center;;;;;
Ellembelle;Esiama;;Asanta CHPS;;;;;
Ellembelle;Esiama;;Esiama Health Center;;;;;
Ellembelle;Esiama;;Esiama Sec. Tech. CHPS;;;;;
Ellembelle;Esiama;;KIMTECH CHPS;;;;;
Ellembelle;Esiama;;Mobile Clinic;;;;;
Ellembelle;Esiama;;Nana Ekua Ahuma CHPS;;;;;
Ellembelle;Esiama;;Sanford International Clinic - Kikam;;;;;
Ellembelle;New Aiyinase;;Aidoosuazo CHPS;;;;;
Ellembelle;New Aiyinase;;ANANEKROM CHPS;;;;;
Ellembelle;New Aiyinase;;Asomase CHPS;;;;;
Ellembelle;New Aiyinase;;Kwasikrom CHPS;;;;;
Ellembelle;Nkroful;;Adamus Resort Clinic;;;;;
Ellembelle;Nkroful;;Adubrim CHPS;;;;;
Ellembelle;Nkroful;;Akropong CHPS;;;;;
Ellembelle;Nkroful;;Asasetre Health Centre;;;;;
Ellembelle;Nkroful;;Barmoakpoley CHPS Zone;;;;;
Ellembelle;Nkroful;;NASS CHPS;;;;;
Ellembelle;Nkroful;;Nkroful Health Center;;;;;
Ellembelle;Nkroful;;Salma Health Center;;;;;
Ellembelle;Nkroful;;Sanford International Clinic - Teleku Bokazo;;;;;
Ellembelle;Nkroful;;West African Rescue Association;;;;;
Jomoro;Beyin;;Agyeza CHPS;;;;;
Jomoro;Beyin;;Allowulley CHPS;;;;;
Jomoro;Beyin;;Ekabeku Health Centre;;;;;
Jomoro;Beyin;;Kengen CHPS;;;;;
Jomoro;Beyin;;Twenen Health Centre;;;;;
Jomoro;Elubo;;Angel Clinic;;;;;
Jomoro;Elubo;;Anwiafutu CHPS;;;;;
Jomoro;Elubo;;Elubo Health Centre;;;;;
Jomoro;Elubo;;Fawoman CHPS Zone;;;;;
Jomoro;Elubo;;Frontier Clinic;;;;;
Jomoro;Elubo;;Ghana Nungua CHPS;;;;;
Jomoro;Elubo;;New Ankasah CHPS;;;;;
Jomoro;Elubo;;Sowodadzim CHPS;;;;;
Jomoro;Elubo;;Vins Clinic;;;;;
Jomoro;Half Assini;;Adusuazo CHPS;;;;;
Jomoro;Half Assini;;Ahobre CHPS Zone;;;;;
Jomoro;Half Assini;;Anlomatuape CHPS;;;;;
Jomoro;Half Assini;;Effasu CHPS Zone;;;;;
Jomoro;Half Assini;;Egbazo CHPS;;;;;
Jomoro;Half Assini;;Enzemetianu CHPS;;;;;
Jomoro;Half Assini;;Epku CHPS;;;;;
Jomoro;Half Assini;;Half Assini Government Hospital;;;;;
Jomoro;Half Assini;;Jaway Wharf CHPS;;;;;
Jomoro;Half Assini;;New Kabenlasuazo CHPS;;;;;
Jomoro;Half Assini;;New Town Health Centre;;;;;
Jomoro;Half Assini;;Newtown Wharf CHPS;;;;;
Jomoro;Half Assini;;Old Edobo CHPS;;;;;
Jomoro;Half Assini;;Takinta CHPS;;;;;
Jomoro;Tikobo;;Ellenda CHPS;;;;;
Jomoro;Tikobo;;Ezinlibo CHPS;;;;;
Jomoro;Tikobo;;Mpataba CHPS;;;;;
Jomoro;Tikobo;;Nawuley CHPS;;;;;
Jomoro;Tikobo;;Nuba CHPS;;;;;
Jomoro;Tikobo;;Nvellenu CHPS;;;;;
Jomoro;Tikobo;;Our Lady Of Fatima Clinic;;;;;
Jomoro;Tikobo;;Samenye Health Centre;;;;;
Jomoro;Tikobo;;Siloam Gospel (jomoro) Clinic;;;;;
Jomoro;Tikobo;;Tikobo No 1 Health Centre;;;;;
Jomoro;Tikobo;;Tikobo No 2 Health Centre;;;;;
Jomoro;Tikobo;;Tweakor No. 2 CHPS;;;;;
Juabeso;Asempaneye;;Agyemandiem CHPS;;;;;
Juabeso;Asempaneye;;Asempaneye CHPS;;;;;
Juabeso;Asempaneye;;Eteso CHPS;;;;;
Juabeso;Asempaneye;;Kantankrubo CHPS;;;;;
Juabeso;Asempaneye;;Mafia CHPS;;;;;
Juabeso;Asempaneye;;Nyame Ama Maternity;;;;;
Juabeso;Asempaneye;;Sayerano CHPS;;;;;
Juabeso;Bonsu Nkwanta;;Aboboyaa CHPS;;;;;
Juabeso;Bonsu Nkwanta;;Akwasi Addaekrom CHPS;;;;;
Juabeso;Bonsu Nkwanta;;Annas Maternity;;;;;
Juabeso;Bonsu Nkwanta;;Bonsu CHPS;;;;;
Juabeso;Bonsu Nkwanta;;Bonsu Nkwanta (Juaboso) Health Centre;;;;;
Juabeso;Bonsu Nkwanta;;Caiphas CHPS;;;;;
Juabeso;Bonsu Nkwanta;;Gyampokrom CHPS;;;;;
Juabeso;Bonsu Nkwanta;;JJ Nkwanta CHPS;;;;;
Juabeso;Bonsu Nkwanta;;Kofikrom SDA Clinic;;;;;
Juabeso;Bonsu Nkwanta;;Mintakrom CHPS;;;;;
Juabeso;Bonsu Nkwanta;;Nallice Maternity;;;;;
Juabeso;Bonsu Nkwanta;;New Berekum CHPS;;;;;
Juabeso;Bonsu Nkwanta;;New Somanya (Juaboso) CHPS;;;;;
Juabeso;Bonsu Nkwanta;;Possible Health Service;;;;;
Juabeso;Bonsu Nkwanta;;Yawgyem CHPS;;;;;
Juabeso;Bonsu Nkwanta;;Yeboah's Maternity;;;;;
Juabeso;Jato Africa;;Africa CHPS;;;;;
Juabeso;Jato Africa;;Asoredanho CHPS;;;;;
Juabeso;Jato Africa;;Jatokrom CHPS;;;;;
Juabeso;Jato Africa;;Kyensekokoo CHPS;;;;;
Juabeso;Jato Africa;;Maggie's (juabeso) Maternity;;;;;
Juabeso;Juaboso;;Abrokofe CHPS;;;;;
Juabeso;Juaboso;;Adwumamu CHPS;;;;;
Juabeso;Juaboso;;Antobia CHPS;;;;;
Juabeso;Juaboso;;Boinzan Anglican Clinic;;;;;
Juabeso;Juaboso;;Boinzan CHPS;;;;;
Juabeso;Juaboso;;Juabeso Rch;;;;;
Juabeso;Juaboso;;Juaboso Government Hospital;;;;;
Juabeso;Juaboso;;Kwawkrom CHPS;;;;;
Juabeso;Juaboso;;Rose (juaboso) Maternity;;;;;
Juabeso;Juaboso;;The Promise Of God Maternity Home;;;;;
Mpohor;Adansi;;Adansi Community Clinic;;;;;
Mpohor;Adansi;;Botodwina CHPS;;;;;
Mpohor;Adansi;;Edaa CHPS;;;;;
Mpohor;Adansi;;Mampong CHPS (mpohor);;;;;
Mpohor;Adum Banso;;Adum Banso Community Clinic;;;;;
Mpohor;Adum Banso;;Adum Banso Lower CHPS;;;;;
Mpohor;Adum Banso;;Adum Banso Upper CHPS;;;;;
Mpohor;Adum Banso;;BOPP Ltd Clnic;;;;;
Mpohor;Adum Banso;;Dominase CHPS Zone;;;;;
Mpohor;Adum Banso;;K9 Comminity CHPS;;;;;
Mpohor;Adum Banso;;Obrayebona CHPS;;;;;
Mpohor;Manso;;Akotrom CHPS;;;;;
Mpohor;Manso;;Angu CHPS Zone;;;;;
Mpohor;Manso;;Bomba CHPS;;;;;
Mpohor;Manso;;Manso Community Clinic;;;;;
Mpohor;Manso;;Manso No.1 CHPS;;;;;
Mpohor;Manso;;Manso No.2 CHPS;;;;;
Mpohor;Manso;;Wiredukrom CHPS;;;;;
Mpohor;Mpohor;;Ankobea CHPS;;;;;
Mpohor;Mpohor;;Atwerebana CHPS;;;;;
Mpohor;Mpohor;;Ayiem CHPS Zone;;;;;
Mpohor;Mpohor;;Bronikrom CHPS;;;;;
Mpohor;Mpohor;;Mpohor Health Centre;;;;;
Mpohor;Mpohor;;Ohiamanwu CHPS;;;;;
Mpohor;Mpohor;;Ewuku CHPS;;;;;
Nzema East;Axim-nsein;;Agyan CHPS;;;;;
Nzema East;Axim-nsein;;Apataim CHPS;;;;;
Nzema East;Axim-nsein;;Apewosika CHPS;;;;;
Nzema East;Axim-nsein;;Axim Government Hospital;;;;;
Nzema East;Axim-nsein;;Ayisakro CHPS;;;;;
Nzema East;Axim-nsein;;Bolazo CHPS;;;;;
Nzema East;Axim-nsein;;Botokule CHPS;;;;;
Nzema East;Axim-nsein;;Brawire CHPS;;;;;
Nzema East;Axim-nsein;;Dadwen CHPS;;;;;
Nzema East;Axim-nsein;;Fantefokrom CHPS;;;;;
Nzema East;Axim-nsein;;Grant Hill CHPS;;;;;
Nzema East;Axim-nsein;;Kegyina CHPS;;;;;
Nzema East;Axim-nsein;;Kokoado CHPS;;;;;
Nzema East;Axim-nsein;;Nyame Bekyere CHPS;;;;;
Nzema East;Axim-nsein;;Onzayeye CHPS;;;;;
Nzema East;Axim-nsein;;Physician On Call;;;;;
Nzema East;Axim-nsein;;Tolanu CHPS;;;;;
Nzema East;Bamiankor;;Akango CHPS;;;;;
Nzema East;Bamiankor;;Asuawua CHPS;;;;;
Nzema East;Bamiankor;;Bamiankor Health Centre;;;;;
Nzema East;Gwira Banso;;Asonti CHPS;;;;;
Nzema East;Gwira Banso;;Gwira Banso CHPS;;;;;
Nzema East;Gwira Eshiem;;Gwira Eshiem CHPS;;;;;
Nzema East;Gwira Eshiem;;Tumentu CHPS;;;;;
Nzema East;Kutukrom;;Dibolaase CHPS;;;;;
Nzema East;Kutukrom;;Gyampire CHPS;;;;;
Nzema East;Kutukrom;;Kutukrom Health Centre;;;;;
Nzema East;Kutukrom;;Tebakrom CHPS;;;;;
Prestea-Huni Valley;Aboso;;Aboso Ebenezer Maternity Home;;;;;
Prestea-Huni Valley;Aboso;;Aboso Health Centre;;;;;
Prestea-Huni Valley;Aboso;;Adom (Aboso) Maternity Home;;;;;
Prestea-Huni Valley;Aboso;;Asikuma CHPS;;;;;
Prestea-Huni Valley;Aboso;;Atwereboanda (Prestea) CHPS;;;;;
Prestea-Huni Valley;Aboso;;Pieso CHPS;;;;;
Prestea-Huni Valley;Aboso;;S.D.A (Wassa Nkran) Health Centre;;;;;
Prestea-Huni Valley;Aboso;;Tintinmu CHPS;;;;;
Prestea-Huni Valley;Awudua;;Akotom CHPS;;;;;
Prestea-Huni Valley;Awudua;;Awudua Health Centre;;;;;
Prestea-Huni Valley;Awudua;;Gordon CHPS;;;;;
Prestea-Huni Valley;Awudua;;Huniano CHPS;;;;;
Prestea-Huni Valley;Awudua;;Huniso CHPS;;;;;
Prestea-Huni Valley;Awudua;;Kofi Gyan CHPS;;;;;
Prestea-Huni Valley;Awudua;;Pepesa CHPS;;;;;
Prestea-Huni Valley;Awudua;;Samahu CHPS;;;;;
Prestea-Huni Valley;Bogoso;;Adjei Krom CHPS;;;;;
Prestea-Huni Valley;Bogoso;;Aseda Hospital;;;;;
Prestea-Huni Valley;Bogoso;;Beppoh CHPS;;;;;
Prestea-Huni Valley;Bogoso;;Bogoso Community Clinic;;;;;
Prestea-Huni Valley;Bogoso;;Bogoso Health Centre;;;;;
Prestea-Huni Valley;Bogoso;;Bogoso RCH;;;;;
Prestea-Huni Valley;Bogoso;;Brakwaline CHPS;;;;;
Prestea-Huni Valley;Bogoso;;Dumasi CHPS;;;;;
Prestea-Huni Valley;Bogoso;;Golden Star Mine Clinic;;;;;
Prestea-Huni Valley;Bogoso;;Juabeng CHPS;;;;;
Prestea-Huni Valley;Bogoso;;Petepom CHPS;;;;;
Prestea-Huni Valley;Bogoso;;SAB Maternity Home;;;;;
Prestea-Huni Valley;Bogoso;;St Edward Clinic;;;;;
Prestea-Huni Valley;Bogoso;;Tarkwa Bremang CHPS;;;;;
Prestea-Huni Valley;Himan;;Broni- Nkwanta CHPS;;;;;
Prestea-Huni Valley;Himan;;Brumase CHPS;;;;;
Prestea-Huni Valley;Himan;;Himan Health Centre;;;;;
Prestea-Huni Valley;Himan;;Kwame Niampa CHPS;;;;;
Prestea-Huni Valley;Himan;;Nipa Hiamoah CHPS;;;;;
Prestea-Huni Valley;Huni Valley;;Amoanda CHPS;;;;;
Prestea-Huni Valley;Huni Valley;;Bompieso Health Centre;;;;;
Prestea-Huni Valley;Huni Valley;;Damang Health Centre;;;;;
Prestea-Huni Valley;Huni Valley;;Goldfields (Damang) Clinic;;;;;
Prestea-Huni Valley;Huni Valley;;Huni Valley Health Centre;;;;;
Prestea-Huni Valley;Huni Valley;;Kurantin No. 1 & 2 CHPS;;;;;
Prestea-Huni Valley;Huni Valley;;Kyekyewere CHPS;;;;;
Prestea-Huni Valley;Insusiding;;Abekakrom CHPS;;;;;
Prestea-Huni Valley;Insusiding;;Gyimakrom CHPS;;;;;
Prestea-Huni Valley;Insusiding;;Insusiding CHPS;;;;;
Prestea-Huni Valley;Insusiding;;Obengkrom CHPS;;;;;
Prestea-Huni Valley;Insusiding;;Pemeso CHPS;;;;;
Prestea-Huni Valley;Insusiding;;Yawkrom CHPS;;;;;
Prestea-Huni Valley;Prestea;;Anfgya CHPS;;;;;
Prestea-Huni Valley;Prestea;;Asoampa CHPS;;;;;
Prestea-Huni Valley;Prestea;;Bepoase CHPS;;;;;
Prestea-Huni Valley;Prestea;;Bondaye CHPS;;;;;
Prestea-Huni Valley;Prestea;;krutown CHPS;;;;;
Prestea-Huni Valley;Prestea;;No. 3 Compound CHPS;;;;;
Prestea-Huni Valley;Prestea;;Nsuta Mbease CHPS;;;;;
Prestea-Huni Valley;Prestea;;Odoye Clinic;;;;;
Prestea-Huni Valley;Prestea;;Prestea chps;;;;;
Prestea-Huni Valley;Prestea;;Prestea Government Hospital;;;;;
Prestea-Huni Valley;Prestea;;Sankofa (Prestea) Mine Clinic;;;;;
Sefwi-Akontombra;Akontombra;;Akontombra Health Center;;;;;
Sefwi-Akontombra;Akontombra;;AKONTOMBRA RCH UNIT;;;;;
Sefwi-Akontombra;Akontombra;;Bokaso CHPS;;;;;
Sefwi-Akontombra;Akontombra;;Edewuakrom CHPS;;;;;
Sefwi-Akontombra;Akontombra;;Suzzy And Matt Maternity;;;;;
Sefwi-Akontombra;Akontombra;;TANOKROM CHPS;;;;;
Sefwi-Akontombra;Akontombra;;Yamfo CHPS;;;;;
Sefwi-Akontombra;Asantekrom;;Asantekrom CHPS;;;;;
Sefwi-Akontombra;Asantekrom;;Bopa CHPS;;;;;
Sefwi-Akontombra;Asantekrom;;Kofikrom CHPS;;;;;
Sefwi-Akontombra;Bawakrom;;Aburonahia CHPS;;;;;
Sefwi-Akontombra;Bawakrom;;Bawakrom CHPS;;;;;
Sefwi-Akontombra;Bawakrom;;Manukrom CHPS;;;;;
Sefwi-Akontombra;Bawakrom;;Obronikrom CHPS;;;;;
Sefwi-Akontombra;Kramokrom;;Chorichori CHPS;;;;;
Sefwi-Akontombra;Kramokrom;;Kramokrom CHPS;;;;;
Sefwi-Akontombra;Kramokrom;;Tumuda CHPS;;;;;
Sefwi-Akontombra;Kramokrom;;Wansampo CHPS;;;;;
Sefwi-Akontombra;Nsawora;;Ackaakrom CHPS;;;;;
Sefwi-Akontombra;Nsawora;;Akpafu CHPS;;;;;
Sefwi-Akontombra;Nsawora;;Apprutu CHPS;;;;;
Sefwi-Akontombra;Nsawora;;Gyanwaa Maternity;;;;;
Sefwi-Akontombra;Nsawora;;Kojokrom CHPS;;;;;
Sefwi-Akontombra;Nsawora;;Nkwadum CHPS;;;;;
Sefwi-Akontombra;Nsawora;;Nsawora Health Center;;;;;
Sefwi-Akontombra;Nsawora;;Yawkrom CHPS;;;;;
Sekondi-Takoradi;Essikado;;Ahanta Abassa CHPS;;;;;
Sekondi-Takoradi;Essikado;;All One Health Centre (Clinic);;;;;
Sekondi-Takoradi;Essikado;;Anoe CHPS;;;;;
Sekondi-Takoradi;Essikado;;Diabene CHPS;;;;;
Sekondi-Takoradi;Essikado;;Eshiem (sekondi Takoradi) CHPS;;;;;
Sekondi-Takoradi;Essikado;;Essikado East CHPS;;;;;
Sekondi-Takoradi;Essikado;;Essikado Hospital;;;;;
Sekondi-Takoradi;Essikado;;Essikado West CHPS;;;;;
Sekondi-Takoradi;Essikado;;Essipong CHPS;;;;;
Sekondi-Takoradi;Essikado;;Henbaab Clinic CHPS;;;;;
Sekondi-Takoradi;Essikado;;Holychild Health Center;;;;;
Sekondi-Takoradi;Essikado;;Kojokrom (sekondi Takoradi) CHPS;;;;;
Sekondi-Takoradi;Essikado;;Madamfo Specialist Center;;;;;
Sekondi-Takoradi;Essikado;;Mepertemsrew CHPS;;;;;
Sekondi-Takoradi;Essikado;;Mpintsin CHPS;;;;;
Sekondi-Takoradi;Essikado;;Ntankorful CHPS;;;;;
Sekondi-Takoradi;Essikado;;Our Lady Clinic;;;;;
Sekondi-Takoradi;Essikado;;Ridge Naval base CHPS;;;;;
Sekondi-Takoradi;Essikado;;Sanford Clinic;;;;;
Sekondi-Takoradi;Essikado;;Stratford Clinic;;;;;
Sekondi-Takoradi;Essikado;;Vil Clinic;;;;;
Sekondi-Takoradi;Essikado;;Win Medical Center;;;;;
Sekondi-Takoradi;Kwesimintim;;2mrs Military Hospital;;;;;
Sekondi-Takoradi;Kwesimintim;;Abiye Maternity Home;;;;;
Sekondi-Takoradi;Kwesimintim;;Adientem CHPS;;;;;
Sekondi-Takoradi;Kwesimintim;;Anaji CHPS;;;;;
Sekondi-Takoradi;Kwesimintim;;Anaji West CHPS;;;;;
Sekondi-Takoradi;Kwesimintim;;Apremdo CHPS;;;;;
Sekondi-Takoradi;Kwesimintim;;Assakae CHPS;;;;;
Sekondi-Takoradi;Kwesimintim;;Brite Life Clinic;;;;;
Sekondi-Takoradi;Kwesimintim;;Doham Clinic;;;;;
Sekondi-Takoradi;Kwesimintim;;East Tanokrom CHPS;;;;;
Sekondi-Takoradi;Kwesimintim;;Effia CHPS;;;;;
Sekondi-Takoradi;Kwesimintim;;Effiakuma East CHPS;;;;;
Sekondi-Takoradi;Kwesimintim;;Effman Clinic;;;;;
Sekondi-Takoradi;Kwesimintim;;Gabusu Clinic;;;;;
Sekondi-Takoradi;Kwesimintim;;Jemima Crentsil Hospital;;;;;
Sekondi-Takoradi;Kwesimintim;;Karis Medical Center;;;;;
Sekondi-Takoradi;Kwesimintim;;Kwesimintim Hospital;;;;;
Sekondi-Takoradi;Kwesimintim;;Marie Stopes International-Takoradi;;;;;
Sekondi-Takoradi;Kwesimintim;;My God is Able Maternity Home;;;;;
Sekondi-Takoradi;Kwesimintim;;Nansa Clinic;;;;;
Sekondi-Takoradi;Kwesimintim;;New Crystal Hospital;;;;;
Sekondi-Takoradi;Kwesimintim;;Peace Clinic;;;;;
Sekondi-Takoradi;Kwesimintim;;Sofo Zongo CHPS;;;;;
Sekondi-Takoradi;Kwesimintim;;ST. Helier Clinic;;;;;
Sekondi-Takoradi;Kwesimintim;;St.George's Medical Centre;;;;;
Sekondi-Takoradi;Kwesimintim;;Sycamore Medical Centre;;;;;
Sekondi-Takoradi;Kwesimintim;;Tech Spring Clinic;;;;;
Sekondi-Takoradi;Kwesimintim;;UQ Hospital;;;;;
Sekondi-Takoradi;Kwesimintim;;Whindo Health Centre;;;;;
Sekondi-Takoradi;Kwesimintim;;Work and Happiness Maternity Home;;;;;
Sekondi-Takoradi;Sekondi;;Adiembra CHPS (Sekondi);;;;;
Sekondi-Takoradi;Sekondi;;Bakado CHPS;;;;;
Sekondi-Takoradi;Sekondi;;Community Base;;;;;
Sekondi-Takoradi;Sekondi;;Effia Nkwanta Regional Hospital;;;;;
Sekondi-Takoradi;Sekondi;;Egham Clinic;;;;;
Sekondi-Takoradi;Sekondi;;Essaman (Sekondi) CHPS;;;;;
Sekondi-Takoradi;Sekondi;;Immaculate Heart Clinic;;;;;
Sekondi-Takoradi;Sekondi;;Kweikuma CHPS;;;;;
Sekondi-Takoradi;Sekondi;;Lily Maternity Home;;;;;
Sekondi-Takoradi;Sekondi;;Nkotompo CHPS;;;;;
Sekondi-Takoradi;Sekondi;;Old Sekondi Hospital (CLINIC);;;;;
Sekondi-Takoradi;Sekondi;;Prisons Service Clinic;;;;;
Sekondi-Takoradi;Sekondi;;Sekondi clinic/screening;;;;;
Sekondi-Takoradi;Sekondi;;Sekondi Market CHPS;;;;;
Sekondi-Takoradi;Sekondi;;Sekondi Naval Base Clinic;;;;;
Sekondi-Takoradi;Sekondi;;Sekondi Police Clinic;;;;;
Sekondi-Takoradi;Sekondi;;Sekondi Sti Clinic;;;;;
Sekondi-Takoradi;Sekondi;;St Francis Clinic;;;;;
Sekondi-Takoradi;Sekondi;;St Pauls (sekondi) Clinic;;;;;
Sekondi-Takoradi;Takoradi;;Adakope Airforce CHPS;;;;;
Sekondi-Takoradi;Takoradi;;Airforce Clinic;;;;;
Sekondi-Takoradi;Takoradi;;Cassava Farm-Market Circle CHPS;;;;;
Sekondi-Takoradi;Takoradi;;Cornerstone Clinic;;;;;
Sekondi-Takoradi;Takoradi;;Danvic Clinic;;;;;
Sekondi-Takoradi;Takoradi;;Ghacem Clinic;;;;;
Sekondi-Takoradi;Takoradi;;GPHA Hospital;;;;;
Sekondi-Takoradi;Takoradi;;International SOS Clinic;;;;;
Sekondi-Takoradi;Takoradi;;Kokompe Health Centre;;;;;
Sekondi-Takoradi;Takoradi;;Lower New Takoradi CHPS;;;;;
Sekondi-Takoradi;Takoradi;;Mrs Akoto Maternity Home;;;;;
Sekondi-Takoradi;Takoradi;;Nagel Memorial SDA Hospital;;;;;
Sekondi-Takoradi;Takoradi;;New Takoradi Health Center;;;;;
Sekondi-Takoradi;Takoradi;;Port Health Clinic;;;;;
Sekondi-Takoradi;Takoradi;;Quiwal Clinic;;;;;
Sekondi-Takoradi;Takoradi;;Tadi High Street Clinic;;;;;
Sekondi-Takoradi;Takoradi;;Takoradi Hospital;;;;;
Sekondi-Takoradi;Takoradi;;Timbod Clinic;;;;;
Sekondi-Takoradi;Takoradi;;Twin City Clinic;;;;;
Sekondi-Takoradi;Takoradi;;Upper New Takoradi CHPS;;;;;
Sekondi-Takoradi;Takoradi;;Wamco Clinic;;;;;
Sekondi-Takoradi;Takoradi;;West End Clinic;;;;;
Sefwi-Wiawso;Abrabra;;Abrabra CHPS;;;;;
Sefwi-Wiawso;Abrabra;;Attorkrom CHPS;;;;;
Sefwi-Wiawso;Abrabra;;Keteboi CHPS;;;;;
Sefwi-Wiawso;Abrabra;;Nkonya (Sefwi Wiawso) CHPS;;;;;
Sefwi-Wiawso;Abrabra;;Nyamennae CHPS;;;;;
Sefwi-Wiawso;Abrabra;;Powodie CHPS;;;;;
Sefwi-Wiawso;Abrabra;;Punikrom CHPS;;;;;
Sefwi-Wiawso;Abrabra;;Punikrom S.D.A Clinic;;;;;
Sefwi-Wiawso;Abrabra;;Sui CHPS;;;;;
Sefwi-Wiawso;Anyinabrim (western);;Afrimkrom CHPS;;;;;
Sefwi-Wiawso;Anyinabrim (western);;Akurafu CHPS;;;;;
Sefwi-Wiawso;Anyinabrim (western);;Anyinabrim (sefwi Wiawso) Health Centre;;;;;
Sefwi-Wiawso;Anyinabrim (western);;Aprompe CHPS;;;;;
Sefwi-Wiawso;Anyinabrim (western);;Atta Camp CHPS;;;;;
Sefwi-Wiawso;Anyinabrim (western);;Boako CHPS;;;;;
Sefwi-Wiawso;Anyinabrim (western);;Kaytess Maternity Home;;;;;
Sefwi-Wiawso;Asafo (western);;Acheachen CHPS;;;;;
Sefwi-Wiawso;Asafo (western);;Ampabam CHPS;;;;;
Sefwi-Wiawso;Asafo (western);;Bechiwa CHPS;;;;;
Sefwi-Wiawso;Asafo (western);;Kunuma CHPS;;;;;
Sefwi-Wiawso;Asafo (western);;St John Of God (sefwi Wiawso) Hospital;;;;;
Sefwi-Wiawso;Asawinso;;Aboagyekrom CHPS;;;;;
Sefwi-Wiawso;Asawinso;;Asawinso Health Centre;;;;;
Sefwi-Wiawso;Asawinso;;Asawinso SDA Clinic;;;;;
Sefwi-Wiawso;Asawinso;;Daud Scientific Herbal Hospital;;;;;
Sefwi-Wiawso;Asawinso;;John & Thess Maternity Home;;;;;
Sefwi-Wiawso;Asawinso;;Kojina CHPS;;;;;
Sefwi-Wiawso;Asawinso;;Lizzy (sefwi Wiawso) Maternity Home;;;;;
Sefwi-Wiawso;Datano;;Ahokwa CHPS;;;;;
Sefwi-Wiawso;Datano;;Anglo CHPS;;;;;
Sefwi-Wiawso;Datano;;Apemtimadi Bowobra CHPS;;;;;
Sefwi-Wiawso;Datano;;Datano CHPS;;;;;
Sefwi-Wiawso;Datano;;Domeabra CHPS;;;;;
Sefwi-Wiawso;Datano;;Dwenase CHPS;;;;;
Sefwi-Wiawso;Datano;;Greenshield Clinic;;;;;
Sefwi-Wiawso;Datano;;Nsuonsua CHPS;;;;;
Sefwi-Wiawso;Datano;;Nyamegyeso CHPS;;;;;
Sefwi-Wiawso;Datano;;Suhenso CHPS;;;;;
Sefwi-Wiawso;Datano;;Tanoso CHPS;;;;;
Sefwi-Wiawso;Paboase;;Aboanidua CHPS;;;;;
Sefwi-Wiawso;Paboase;;Aboduam CHPS;;;;;
Sefwi-Wiawso;Paboase;;Ahwiaa CHPS;;;;;
Sefwi-Wiawso;Paboase;;Akoti-Etwebo CHPS;;;;;
Sefwi-Wiawso;Paboase;;Bedii CHPS;;;;;
Sefwi-Wiawso;Paboase;;Futa CHPS;;;;;
Sefwi-Wiawso;Paboase;;Ntrentrenso CHPS;;;;;
Sefwi-Wiawso;Paboase;;Paboase Health Centre;;;;;
Sefwi-Wiawso;Paboase;;Penakrom-Nyamebekyere CHPS;;;;;
Sefwi-Wiawso;Wiawso;;Aboboyaa CHPS;;;;;
Sefwi-Wiawso;Wiawso;;Amafie CHPS;;;;;
Sefwi-Wiawso;Wiawso;;Anhwiam CHPS;;;;;
Sefwi-Wiawso;Wiawso;;Bosomoiso CHPS;;;;;
Sefwi-Wiawso;Wiawso;;Gyatokrom CHPS;;;;;
Sefwi-Wiawso;Wiawso;;Kessekrom CHPS;;;;;
Sefwi-Wiawso;Wiawso;;Old Adiembra CHPS;;;;;
Sefwi-Wiawso;Wiawso;;Watico CHPS;;;;;
Sefwi-Wiawso;Wiawso;;Wiawso Govt Hospital;;;;;
Shama;Aboadze Abuesi;;Aboadze CHPS;;;;;
Shama;Aboadze Abuesi;;Abuesi (Shama) CHPS;;;;;
Shama;Aboadze Abuesi;;Agyenkwa Clinic;;;;;
Shama;Aboadze Abuesi;;Dwomo (Shama) CHPS;;;;;
Shama;Aboadze Abuesi;;Inchaban CHPS;;;;;
Shama;Aboadze Abuesi;;St Benedict Hospital;;;;;
Shama;Aboadze Abuesi;;Upper Inchaban CHPS;;;;;
Shama;Aboadze Abuesi;;VRA Hospital;;;;;
Shama;Graveldo;;Anapansu CHPS;;;;;
Shama;Graveldo;;Essaman (Shama) CHPS;;;;;
Shama;Graveldo;;Komfieku CHPS;;;;;
Shama;Graveldo;;Living Well CHPS;;;;;
Shama;Graveldo;;Shama Kumasi CHPS;;;;;
Shama;Shama;;Anto CHPS;;;;;
Shama;Shama;;Assorkor CHPS;;;;;
Shama;Shama;;Bentsir CHPS;;;;;
Shama;Shama;;Shama Apo CHPS;;;;;
Shama;Shama;;Shama Health Centre;;;;;
Shama;Shama;;SHASS Infirmary;;;;;
Shama;Supomu Dunkwa;;Anlo Beach CHPS;;;;;
Shama;Supomu Dunkwa;;Atwereboanda CHPS;;;;;
Shama;Supomu Dunkwa;;Beposo CHPS;;;;;
Shama;Supomu Dunkwa;;Dunkwa CHPS;;;;;
Shama;Supomu Dunkwa;;Fawomanye CHPS;;;;;
Shama;Supomu Dunkwa;;Supomu Clinic;;;;;
Shama;Supomu Dunkwa;;Supomu Dunkwa Health Centre;;;;;
Suaman;Akoskrom;;Akosekrom CHPS;;;;;
Suaman;Dadieso;;Ama Dansoa Maternity Home;;;;;
Suaman;Dadieso;;Antokrom CHPS;;;;;
Suaman;Dadieso;;Dadieso Health Centre;;;;;
Suaman;Dadieso;;Dadieso SDA Clinic;;;;;
Suaman;Dadieso;;Eno Mary Dadieso Maternity Home;;;;;
Suaman;Dadieso;;Kwabena-Nartey CHPS;;;;;
Suaman;Karlo;;Karlo CHPS;;;;;
Suaman;Karlo;;Kwabenakrom CHPS;;;;;
Suaman;Karlo;;Sui-Ano CHPS;;;;;
Suaman;Kwasuo;;Kwassuo CHPS;;;;;
Suaman;Kwasuo;;Kwasuo-Bantama CHPS;;;;;
Tarkwa-Nsuaem;Benso;;Amantin CHPS;;;;;
Tarkwa-Nsuaem;Benso;;Benso Health Centre;;;;;
Tarkwa-Nsuaem;Benso;;Mahamamo CHPS;;;;;
Tarkwa-Nsuaem;Dompim;;Agona CHPS (Tarkwa);;;;;
Tarkwa-Nsuaem;Dompim;;Bonsa CHPS Compound;;;;;
Tarkwa-Nsuaem;Dompim;;Dompim Health Centre;;;;;
Tarkwa-Nsuaem;Dompim;;Fantikrom CHPS;;;;;
Tarkwa-Nsuaem;Dompim;;Pataho Block 1 CHPS;;;;;
Tarkwa-Nsuaem;Essuoso;;Anyinase CHPS;;;;;
Tarkwa-Nsuaem;Essuoso;;Bonsawire CHPS;;;;;
Tarkwa-Nsuaem;Essuoso;;Essuoso CHPS;;;;;
Tarkwa-Nsuaem;Essuoso;;Tarkwa Benso Health Centre;;;;;
Tarkwa-Nsuaem;Iduapriem;;Badukrom CHPS;;;;;
Tarkwa-Nsuaem;Iduapriem;;Iduapriem Health Centre;;;;;
Tarkwa-Nsuaem;Iduapriem;;Sam Jonna Clinic;;;;;
Tarkwa-Nsuaem;Iduapriem;;Tebrebe Community Clinic;;;;;
Tarkwa-Nsuaem;New Atuabo;;ABA Hospital;;;;;
Tarkwa-Nsuaem;New Atuabo;;Akoon CHPS;;;;;
Tarkwa-Nsuaem;New Atuabo;;Boboobo CHPS;;;;;
Tarkwa-Nsuaem;New Atuabo;;Divine Clinic;;;;;
Tarkwa-Nsuaem;New Atuabo;;Essamankakraba CHPS;;;;;
Tarkwa-Nsuaem;New Atuabo;;Kwabedu CHPS;;;;;
Tarkwa-Nsuaem;New Atuabo;;New Atuabo Community Clinic;;;;;
Tarkwa-Nsuaem;Nsuaem (western);;Kyekyewere (Western) Health Centre;;;;;
Tarkwa-Nsuaem;Nsuaem (western);;Mile 5 CHPS;;;;;
Tarkwa-Nsuaem;Nsuaem (western);;Nsuaem (Tarkwa Nsuayem) Health Centre;;;;;
Tarkwa-Nsuaem;Nsuaem (western);;Nyarso CHPS;;;;;
Tarkwa-Nsuaem;Nsuaem (western);;Top CHPS;;;;;
Tarkwa-Nsuaem;Nsuta (western);;Akyempim CHPS;;;;;
Tarkwa-Nsuaem;Nsuta (western);;Akyim CHPS;;;;;
Tarkwa-Nsuaem;Nsuta (western);;Brofuyedur CHPS;;;;;
Tarkwa-Nsuaem;Nsuta (western);;Diana Maternity Home/Clinic;;;;;
Tarkwa-Nsuaem;Nsuta (western);;GMC Hospital;;;;;
Tarkwa-Nsuaem;Nsuta (western);;Health Plus (+) Clinic;;;;;
Tarkwa-Nsuaem;Nsuta (western);;Hill Top Clinic;;;;;
Tarkwa-Nsuaem;Nsuta (western);;Nsuta RCH (CHPS);;;;;
Tarkwa-Nsuaem;Nsuta (western);;Senyakrom CHPS;;;;;
Tarkwa-Nsuaem;Nsuta (western);;Tamso CHPS;;;;;
Tarkwa-Nsuaem;Nsuta (western);;Vivian Maternity Home;;;;;
Tarkwa-Nsuaem;Simpa;;Nuakokrom CHPS;;;;;
Tarkwa-Nsuaem;Simpa;;Simpa Health Centre;;;;;
Tarkwa-Nsuaem;Simpa;;Simpa Junction CHPS;;;;;
Tarkwa-Nsuaem;Tarkwa;;RCH (Tarkwa);;;;;
Tarkwa-Nsuaem;Tarkwa;;Ami Memorial Clinic;;;;;
Tarkwa-Nsuaem;Tarkwa;;Apinto Government Hospital;;;;;
Tarkwa-Nsuaem;Tarkwa;;Bosontwi Maternity Home;;;;;
Tarkwa-Nsuaem;Tarkwa;;Brahabobom CHPS;;;;;
Tarkwa-Nsuaem;Tarkwa;;Church Of Pentecost Clinic (Tarkwa);;;;;
Tarkwa-Nsuaem;Tarkwa;;Cyanide CHPS;;;;;
Tarkwa-Nsuaem;Tarkwa;;Layout CHPS;;;;;
Tarkwa-Nsuaem;Tarkwa;;Low Cost CHPS;;;;;
Tarkwa-Nsuaem;Tarkwa;;New Takoradi (Tarkwa) CHPS;;;;;
Tarkwa-Nsuaem;Tarkwa;;Nkamponase CHPS;;;;;
Tarkwa-Nsuaem;Tarkwa;;Premier Specialist Hospital;;;;;
Tarkwa-Nsuaem;Tarkwa;;Rabboni Christian Hospital;;;;;
Tarkwa-Nsuaem;Tarkwa;;Redeemer Hospital;;;;;
Tarkwa-Nsuaem;Tarkwa;;TAMOHEC (Clinic);;;;;
Tarkwa-Nsuaem;Tarkwa;;Tarkwa Municipal Hospital;;;;;
Tarkwa-Nsuaem;Tarkwa;;Umat Clinic;;;;;
Tarkwa-Nsuaem;Tarkwa;;Zongo CHPS;;;;;
Wassa-Amenfi Central;Adjakaa Manso;;Adjakaa Manso CHPS;;;;;
Wassa-Amenfi Central;Adjakaa Manso;;Adjakaa Manso Health Centre;;;;;
Wassa-Amenfi Central;Adjakaa Manso;;Ampontenkrom CHPS;;;;;
Wassa-Amenfi Central;Adjakaa Manso;;Ankwawso CHPS;;;;;
Wassa-Amenfi Central;Adjakaa Manso;;Area Seven CHPS;;;;;
Wassa-Amenfi Central;Adjakaa Manso;;Ayiem CHPS;;;;;
Wassa-Amenfi Central;Adjakaa Manso;;Daboase CHPS;;;;;
Wassa-Amenfi Central;Adjakaa Manso;;Juabo CHPS;;;;;
Wassa-Amenfi Central;Adjakaa Manso;;Juabo Health Centre;;;;;
Wassa-Amenfi Central;Adjakaa Manso;;Wuratrem CHPS;;;;;
Wassa-Amenfi Central;Agona Amenfi;;Agona (Wassa Amenfi Central) Health Centre;;;;;
Wassa-Amenfi Central;Agona Amenfi;;Agona Camp CHPS;;;;;
Wassa-Amenfi Central;Agona Amenfi;;Ankasie CHPS;;;;;
Wassa-Amenfi Central;Agona Amenfi;;Dominase Nkwanta CHPS;;;;;
Wassa-Amenfi Central;Agona Amenfi;;Jedua Kesse CHPS;;;;;
Wassa-Amenfi Central;Anakum;;Anakum CHPS;;;;;
Wassa-Amenfi Central;Anakum;;Dwirigum CHPS;;;;;
Wassa-Amenfi Central;Anakum;;Obeng CHPS;;;;;
Wassa-Amenfi Central;Anyinabrim;;Akyekyere CHPS;;;;;
Wassa-Amenfi Central;Anyinabrim;;Anyinabrim (Wassa Amenfi Central) CHPS;;;;;
Wassa-Amenfi Central;Anyinabrim;;Bonuama CHPS;;;;;
Wassa-Amenfi Central;Anyinabrim;;Kwaman (Wassa Amenfi Central) CHPS;;;;;
Wassa-Amenfi Central;Bonsie;;Bonsie CHPS;;;;;
Wassa-Amenfi Central;Bonsie;;Kyeikrom CHPS;;;;;
Wassa-Amenfi Central;Bonsie;;Somprey CHPS;;;;;
Wassa-Amenfi Central;Manso Amenfi;;Chichiso No.1 CHPS;;;;;
Wassa-Amenfi Central;Manso Amenfi;;Hiawa CHPS;;;;;
Wassa-Amenfi Central;Manso Amenfi;;Manso Amenfi CHPS;;;;;
Wassa-Amenfi Central;Manso Amenfi;;Manso Amenfi Health Centre;;;;;
Wassa East;Ateiku;;Akyempim Health Centre;;;;;
Wassa East;Ateiku;;Ateiku Health Centre;;;;;
Wassa East;Ateiku;;Brofoyedru (Ateiku) CHPS;;;;;
Wassa East;Ateiku;;Christina Adcock and Son's Christian Hospital;;;;;
Wassa East;Ateiku;;It Is The Lord Maternity;;;;;
Wassa East;Ateiku;;Kokoase CHPS;;;;;
Wassa East;Ateiku;;New Subri CHPS;;;;;
Wassa East;Ateiku;;Nsadweso CHPS;;;;;
Wassa East;Ateiku;;Osenso CHPS;;;;;
Wassa East;Ateiku;;Senchem Maternity Home;;;;;
Wassa East;Atobiase;;Akutuase Community Clinic;;;;;
Wassa East;Atobiase;;Amponsaso CHPS;;;;;
Wassa East;Atobiase;;Anto (Atobiase Sub District) CHPS;;;;;
Wassa East;Atobiase;;Atobiase Community Clinic;;;;;
Wassa East;Atobiase;;Beenu-yie CHPS;;;;;
Wassa East;Atobiase;;Domama CHPS;;;;;
Wassa East;Atobiase;;Edwenase CHPS;;;;;
Wassa East;Daboase;;Aboaboso CHPS;;;;;
Wassa East;Daboase;;Adiembra CHPS;;;;;
Wassa East;Daboase;;Ahmadiyya Mission Hospital;;;;;
Wassa East;Daboase;;Daboase Health Centre;;;;;
Wassa East;Daboase;;Dompim Community Clinic;;;;;
Wassa East;Daboase;;Ebukrom CHPS;;;;;
Wassa East;Daboase;;Sekyere Hemang CHPS;;;;;
Wassa East;Daboase;;Sipl Clinic;;;;;
Wassa East;Daboase;;SOCFINAF PLANTATION Ltd Clinic;;;;;
Wassa East;Sekyere Krobo;;Enyinabrim CHPS;;;;;
Wassa East;Sekyere Krobo;;Essaman (Sekyere Krobo) CHPS;;;;;
Wassa East;Sekyere Krobo;;Glory of God Maternity Home;;;;;
Wassa East;Sekyere Krobo;;Kakabo CHPS;;;;;
Wassa East;Sekyere Krobo;;Nsuta (Wassa East) CHPS;;;;;
Wassa East;Sekyere Krobo;;Sekyere Krobo Community Clinic;;;;;
